<gpx xmlns:ns3="http://www.garmin.com/xmlschemas/TrackPointExtension/v1" xmlns="http://www.topografix.com/GPX/1/1" xmlns:xsi="http://www.w3.org/2001/XMLSchema-instance" xmlns:ns2="http://www.garmin.com/xmlschemas/GpxExtensions/v3" creator="Garmin Connect" version="1.1" xsi:schemaLocation="http://www.topografix.com/GPX/1/1 http://www.topografix.com/GPX/11.xsd">
  <extensions>
<distance>730.09</distance>
<average_hr>155.0</average_hr>
<average_speed>3.693000078201294</average_speed>
<start_time>2026-07-27T17:44:15+00:00</start_time>
<end_time>2026-07-27T17:47:32.700000+00:00</end_time>
<moving_time>197.7</moving_time>
<elapsed_time>210.027</elapsed_time>
</extensions>
<metadata>
    <link href="connect.garmin.com">
      <text>Garmin Connect</text>
    </link>
    <time>2026-07-27T17:44:15.000Z</time>
  </metadata>
  <trk>
    <name>The Hague 跑步</name>
    <type>running</type>
    <trkseg>
      <trkpt lat="52.0802772603929042816162109375" lon="4.3182021193206310272216796875">
        <ele>3.599999904632568359375</ele>
        <time>2026-07-27T17:44:15.000Z</time>
        <extensions>
          <ns3:TrackPointExtension>
            <ns3:hr>105</ns3:hr>
            <ns3:cad>53</ns3:cad>
          </ns3:TrackPointExtension>
        </extensions>
      </trkpt>
      <trkpt lat="52.080240882933139801025390625" lon="4.3181752972304821014404296875">
        <ele>3.599999904632568359375</ele>
        <time>2026-07-27T17:44:16.000Z</time>
        <extensions>
          <ns3:TrackPointExtension>
            <ns3:hr>105</ns3:hr>
            <ns3:cad>53</ns3:cad>
          </ns3:TrackPointExtension>
        </extensions>
      </trkpt>
      <trkpt lat="52.0802175812423229217529296875" lon="4.318123497068881988525390625">
        <ele>3.599999904632568359375</ele>
        <time>2026-07-27T17:44:17.000Z</time>
        <extensions>
          <ns3:TrackPointExtension>
            <ns3:hr>105</ns3:hr>
            <ns3:cad>0</ns3:cad>
          </ns3:TrackPointExtension>
        </extensions>
      </trkpt>
      <trkpt lat="52.080197967588901519775390625" lon="4.3180820904672145843505859375">
        <ele>3.7999999523162841796875</ele>
        <time>2026-07-27T17:44:18.000Z</time>
        <extensions>
          <ns3:TrackPointExtension>
            <ns3:hr>105</ns3:hr>
            <ns3:cad>0</ns3:cad>
          </ns3:TrackPointExtension>
        </extensions>
      </trkpt>
      <trkpt lat="52.080169133841991424560546875" lon="4.3180240876972675323486328125">
        <ele>3.7999999523162841796875</ele>
        <time>2026-07-27T17:44:19.000Z</time>
        <extensions>
          <ns3:TrackPointExtension>
            <ns3:hr>105</ns3:hr>
            <ns3:cad>0</ns3:cad>
          </ns3:TrackPointExtension>
        </extensions>
      </trkpt>
      <trkpt lat="52.08014574833214282989501953125" lon="4.31796885095536708831787109375">
        <ele>3.7999999523162841796875</ele>
        <time>2026-07-27T17:44:20.000Z</time>
        <extensions>
          <ns3:TrackPointExtension>
            <ns3:hr>107</ns3:hr>
            <ns3:cad>0</ns3:cad>
          </ns3:TrackPointExtension>
        </extensions>
      </trkpt>
      <trkpt lat="52.08011892624199390411376953125" lon="4.31790565140545368194580078125">
        <ele>3.7999999523162841796875</ele>
        <time>2026-07-27T17:44:21.000Z</time>
        <extensions>
          <ns3:TrackPointExtension>
            <ns3:hr>109</ns3:hr>
            <ns3:cad>0</ns3:cad>
          </ns3:TrackPointExtension>
        </extensions>
      </trkpt>
      <trkpt lat="52.08009612746536731719970703125" lon="4.31785301305353641510009765625">
        <ele>3.7999999523162841796875</ele>
        <time>2026-07-27T17:44:22.000Z</time>
        <extensions>
          <ns3:TrackPointExtension>
            <ns3:hr>111</ns3:hr>
            <ns3:cad>91</ns3:cad>
          </ns3:TrackPointExtension>
        </extensions>
      </trkpt>
      <trkpt lat="52.0800702273845672607421875" lon="4.31779928505420684814453125">
        <ele>4</ele>
        <time>2026-07-27T17:44:23.000Z</time>
        <extensions>
          <ns3:TrackPointExtension>
            <ns3:hr>113</ns3:hr>
            <ns3:cad>91</ns3:cad>
          </ns3:TrackPointExtension>
        </extensions>
      </trkpt>
      <trkpt lat="52.0800459198653697967529296875" lon="4.31775033473968505859375">
        <ele>4</ele>
        <time>2026-07-27T17:44:24.000Z</time>
        <extensions>
          <ns3:TrackPointExtension>
            <ns3:hr>115</ns3:hr>
            <ns3:cad>91</ns3:cad>
          </ns3:TrackPointExtension>
        </extensions>
      </trkpt>
      <trkpt lat="52.08002136088907718658447265625" lon="4.31769878603518009185791015625">
        <ele>4</ele>
        <time>2026-07-27T17:44:25.000Z</time>
        <extensions>
          <ns3:TrackPointExtension>
            <ns3:hr>117</ns3:hr>
            <ns3:cad>91</ns3:cad>
          </ns3:TrackPointExtension>
        </extensions>
      </trkpt>
      <trkpt lat="52.0800009928643703460693359375" lon="4.31763491593301296234130859375">
        <ele>4</ele>
        <time>2026-07-27T17:44:26.000Z</time>
        <extensions>
          <ns3:TrackPointExtension>
            <ns3:hr>119</ns3:hr>
            <ns3:cad>92</ns3:cad>
          </ns3:TrackPointExtension>
        </extensions>
      </trkpt>
      <trkpt lat="52.0799788646399974822998046875" lon="4.3175778351724147796630859375">
        <ele>4</ele>
        <time>2026-07-27T17:44:27.000Z</time>
        <extensions>
          <ns3:TrackPointExtension>
            <ns3:hr>120</ns3:hr>
            <ns3:cad>92</ns3:cad>
          </ns3:TrackPointExtension>
        </extensions>
      </trkpt>
      <trkpt lat="52.079952545464038848876953125" lon="4.317522011697292327880859375">
        <ele>4</ele>
        <time>2026-07-27T17:44:28.000Z</time>
        <extensions>
          <ns3:TrackPointExtension>
            <ns3:hr>121</ns3:hr>
            <ns3:cad>93</ns3:cad>
          </ns3:TrackPointExtension>
        </extensions>
      </trkpt>
      <trkpt lat="52.07992480136454105377197265625" lon="4.31746509857475757598876953125">
        <ele>4</ele>
        <time>2026-07-27T17:44:29.000Z</time>
        <extensions>
          <ns3:TrackPointExtension>
            <ns3:hr>123</ns3:hr>
            <ns3:cad>93</ns3:cad>
          </ns3:TrackPointExtension>
        </extensions>
      </trkpt>
      <trkpt lat="52.0798958837985992431640625" lon="4.31739167310297489166259765625">
        <ele>4</ele>
        <time>2026-07-27T17:44:30.000Z</time>
        <extensions>
          <ns3:TrackPointExtension>
            <ns3:hr>125</ns3:hr>
            <ns3:cad>93</ns3:cad>
          </ns3:TrackPointExtension>
        </extensions>
      </trkpt>
      <trkpt lat="52.0798729173839092254638671875" lon="4.3173290602862834930419921875">
        <ele>4</ele>
        <time>2026-07-27T17:44:31.000Z</time>
        <extensions>
          <ns3:TrackPointExtension>
            <ns3:hr>126</ns3:hr>
            <ns3:cad>93</ns3:cad>
          </ns3:TrackPointExtension>
        </extensions>
      </trkpt>
      <trkpt lat="52.0798487775027751922607421875" lon="4.3172742426395416259765625">
        <ele>4.19999980926513671875</ele>
        <time>2026-07-27T17:44:32.000Z</time>
        <extensions>
          <ns3:TrackPointExtension>
            <ns3:hr>128</ns3:hr>
            <ns3:cad>92</ns3:cad>
          </ns3:TrackPointExtension>
        </extensions>
      </trkpt>
      <trkpt lat="52.0798288285732269287109375" lon="4.31723023764789104461669921875">
        <ele>4.19999980926513671875</ele>
        <time>2026-07-27T17:44:33.000Z</time>
        <extensions>
          <ns3:TrackPointExtension>
            <ns3:hr>130</ns3:hr>
            <ns3:cad>92</ns3:cad>
          </ns3:TrackPointExtension>
        </extensions>
      </trkpt>
      <trkpt lat="52.0798102207481861114501953125" lon="4.31717122904956340789794921875">
        <ele>4.19999980926513671875</ele>
        <time>2026-07-27T17:44:34.000Z</time>
        <extensions>
          <ns3:TrackPointExtension>
            <ns3:hr>132</ns3:hr>
            <ns3:cad>92</ns3:cad>
          </ns3:TrackPointExtension>
        </extensions>
      </trkpt>
      <trkpt lat="52.07979320548474788665771484375" lon="4.3171235360205173492431640625">
        <ele>4.19999980926513671875</ele>
        <time>2026-07-27T17:44:35.000Z</time>
        <extensions>
          <ns3:TrackPointExtension>
            <ns3:hr>135</ns3:hr>
            <ns3:cad>92</ns3:cad>
          </ns3:TrackPointExtension>
        </extensions>
      </trkpt>
      <trkpt lat="52.0797679759562015533447265625" lon="4.3170776031911373138427734375">
        <ele>4.19999980926513671875</ele>
        <time>2026-07-27T17:44:36.000Z</time>
        <extensions>
          <ns3:TrackPointExtension>
            <ns3:hr>137</ns3:hr>
            <ns3:cad>90</ns3:cad>
          </ns3:TrackPointExtension>
        </extensions>
      </trkpt>
      <trkpt lat="52.07974391989409923553466796875" lon="4.31703158654272556304931640625">
        <ele>4.19999980926513671875</ele>
        <time>2026-07-27T17:44:37.000Z</time>
        <extensions>
          <ns3:TrackPointExtension>
            <ns3:hr>138</ns3:hr>
            <ns3:cad>90</ns3:cad>
          </ns3:TrackPointExtension>
        </extensions>
      </trkpt>
      <trkpt lat="52.07972648553550243377685546875" lon="4.3169998191297054290771484375">
        <ele>4.19999980926513671875</ele>
        <time>2026-07-27T17:44:38.000Z</time>
        <extensions>
          <ns3:TrackPointExtension>
            <ns3:hr>139</ns3:hr>
            <ns3:cad>90</ns3:cad>
          </ns3:TrackPointExtension>
        </extensions>
      </trkpt>
      <trkpt lat="52.0797049440443515777587890625" lon="4.316952042281627655029296875">
        <ele>4.400000095367431640625</ele>
        <time>2026-07-27T17:44:39.000Z</time>
        <extensions>
          <ns3:TrackPointExtension>
            <ns3:hr>141</ns3:hr>
            <ns3:cad>87</ns3:cad>
          </ns3:TrackPointExtension>
        </extensions>
      </trkpt>
      <trkpt lat="52.07969530485570430755615234375" lon="4.316911809146404266357421875">
        <ele>4.400000095367431640625</ele>
        <time>2026-07-27T17:44:40.000Z</time>
        <extensions>
          <ns3:TrackPointExtension>
            <ns3:hr>142</ns3:hr>
            <ns3:cad>87</ns3:cad>
          </ns3:TrackPointExtension>
        </extensions>
      </trkpt>
      <trkpt lat="52.07967636175453662872314453125" lon="4.31686461903154850006103515625">
        <ele>4.400000095367431640625</ele>
        <time>2026-07-27T17:44:41.000Z</time>
        <extensions>
          <ns3:TrackPointExtension>
            <ns3:hr>142</ns3:hr>
            <ns3:cad>87</ns3:cad>
          </ns3:TrackPointExtension>
        </extensions>
      </trkpt>
      <trkpt lat="52.07966445945203304290771484375" lon="4.31682421825826168060302734375">
        <ele>4.19999980926513671875</ele>
        <time>2026-07-27T17:44:42.000Z</time>
        <extensions>
          <ns3:TrackPointExtension>
            <ns3:hr>143</ns3:hr>
            <ns3:cad>87</ns3:cad>
          </ns3:TrackPointExtension>
        </extensions>
      </trkpt>
      <trkpt lat="52.0796590112149715423583984375" lon="4.31678683497011661529541015625">
        <ele>4.19999980926513671875</ele>
        <time>2026-07-27T17:44:43.000Z</time>
        <extensions>
          <ns3:TrackPointExtension>
            <ns3:hr>144</ns3:hr>
            <ns3:cad>86</ns3:cad>
          </ns3:TrackPointExtension>
        </extensions>
      </trkpt>
      <trkpt lat="52.079649455845355987548828125" lon="4.31675598956644535064697265625">
        <ele>4.400000095367431640625</ele>
        <time>2026-07-27T17:44:44.000Z</time>
        <extensions>
          <ns3:TrackPointExtension>
            <ns3:hr>144</ns3:hr>
            <ns3:cad>86</ns3:cad>
          </ns3:TrackPointExtension>
        </extensions>
      </trkpt>
      <trkpt lat="52.0796459354460239410400390625" lon="4.31672229431569576263427734375">
        <ele>4.400000095367431640625</ele>
        <time>2026-07-27T17:44:45.000Z</time>
        <extensions>
          <ns3:TrackPointExtension>
            <ns3:hr>144</ns3:hr>
            <ns3:cad>86</ns3:cad>
          </ns3:TrackPointExtension>
        </extensions>
      </trkpt>
      <trkpt lat="52.0796546526253223419189453125" lon="4.31668038479983806610107421875">
        <ele>4.400000095367431640625</ele>
        <time>2026-07-27T17:44:46.000Z</time>
        <extensions>
          <ns3:TrackPointExtension>
            <ns3:hr>143</ns3:hr>
            <ns3:cad>79</ns3:cad>
          </ns3:TrackPointExtension>
        </extensions>
      </trkpt>
      <trkpt lat="52.07967921160161495208740234375" lon="4.31665305979549884796142578125">
        <ele>4.599999904632568359375</ele>
        <time>2026-07-27T17:44:47.000Z</time>
        <extensions>
          <ns3:TrackPointExtension>
            <ns3:hr>143</ns3:hr>
            <ns3:cad>79</ns3:cad>
          </ns3:TrackPointExtension>
        </extensions>
      </trkpt>
      <trkpt lat="52.07970771007239818572998046875" lon="4.31661886163055896759033203125">
        <ele>4.599999904632568359375</ele>
        <time>2026-07-27T17:44:48.000Z</time>
        <extensions>
          <ns3:TrackPointExtension>
            <ns3:hr>142</ns3:hr>
            <ns3:cad>79</ns3:cad>
          </ns3:TrackPointExtension>
        </extensions>
      </trkpt>
      <trkpt lat="52.07974006421864032745361328125" lon="4.31659975089132785797119140625">
        <ele>4.599999904632568359375</ele>
        <time>2026-07-27T17:44:49.000Z</time>
        <extensions>
          <ns3:TrackPointExtension>
            <ns3:hr>142</ns3:hr>
            <ns3:cad>78</ns3:cad>
          </ns3:TrackPointExtension>
        </extensions>
      </trkpt>
      <trkpt lat="52.07977258600294589996337890625" lon="4.31657292880117893218994140625">
        <ele>4.599999904632568359375</ele>
        <time>2026-07-27T17:44:50.000Z</time>
        <extensions>
          <ns3:TrackPointExtension>
            <ns3:hr>140</ns3:hr>
            <ns3:cad>78</ns3:cad>
          </ns3:TrackPointExtension>
        </extensions>
      </trkpt>
      <trkpt lat="52.0798078738152980804443359375" lon="4.316548369824886322021484375">
        <ele>4.599999904632568359375</ele>
        <time>2026-07-27T17:44:51.000Z</time>
        <extensions>
          <ns3:TrackPointExtension>
            <ns3:hr>139</ns3:hr>
            <ns3:cad>78</ns3:cad>
          </ns3:TrackPointExtension>
        </extensions>
      </trkpt>
      <trkpt lat="52.07984198816120624542236328125" lon="4.31653202511370182037353515625">
        <ele>4.400000095367431640625</ele>
        <time>2026-07-27T17:44:52.000Z</time>
        <extensions>
          <ns3:TrackPointExtension>
            <ns3:hr>137</ns3:hr>
            <ns3:cad>82</ns3:cad>
          </ns3:TrackPointExtension>
        </extensions>
      </trkpt>
      <trkpt lat="52.0798725821077823638916015625" lon="4.31651073507964611053466796875">
        <ele>4.400000095367431640625</ele>
        <time>2026-07-27T17:44:53.000Z</time>
        <extensions>
          <ns3:TrackPointExtension>
            <ns3:hr>138</ns3:hr>
            <ns3:cad>82</ns3:cad>
          </ns3:TrackPointExtension>
        </extensions>
      </trkpt>
      <trkpt lat="52.079907953739166259765625" lon="4.3164861761033535003662109375">
        <ele>4.19999980926513671875</ele>
        <time>2026-07-27T17:44:54.000Z</time>
        <extensions>
          <ns3:TrackPointExtension>
            <ns3:hr>138</ns3:hr>
            <ns3:cad>81</ns3:cad>
          </ns3:TrackPointExtension>
        </extensions>
      </trkpt>
      <trkpt lat="52.0799393020570278167724609375" lon="4.3164650537073612213134765625">
        <ele>4.19999980926513671875</ele>
        <time>2026-07-27T17:44:55.000Z</time>
        <extensions>
          <ns3:TrackPointExtension>
            <ns3:hr>138</ns3:hr>
            <ns3:cad>80</ns3:cad>
          </ns3:TrackPointExtension>
        </extensions>
      </trkpt>
      <trkpt lat="52.07996897399425506591796875" lon="4.3164489604532718658447265625">
        <ele>4.19999980926513671875</ele>
        <time>2026-07-27T17:44:56.000Z</time>
        <extensions>
          <ns3:TrackPointExtension>
            <ns3:hr>138</ns3:hr>
            <ns3:cad>80</ns3:cad>
          </ns3:TrackPointExtension>
        </extensions>
      </trkpt>
      <trkpt lat="52.07999043166637420654296875" lon="4.31643848307430744171142578125">
        <ele>4.19999980926513671875</ele>
        <time>2026-07-27T17:44:57.000Z</time>
        <extensions>
          <ns3:TrackPointExtension>
            <ns3:hr>138</ns3:hr>
            <ns3:cad>83</ns3:cad>
          </ns3:TrackPointExtension>
        </extensions>
      </trkpt>
      <trkpt lat="52.08000761456787586212158203125" lon="4.3164278380572795867919921875">
        <ele>4.19999980926513671875</ele>
        <time>2026-07-27T17:44:58.000Z</time>
        <extensions>
          <ns3:TrackPointExtension>
            <ns3:hr>138</ns3:hr>
            <ns3:cad>85</ns3:cad>
          </ns3:TrackPointExtension>
        </extensions>
      </trkpt>
      <trkpt lat="52.08002571947872638702392578125" lon="4.31641803123056888580322265625">
        <ele>4.400000095367431640625</ele>
        <time>2026-07-27T17:44:59.000Z</time>
        <extensions>
          <ns3:TrackPointExtension>
            <ns3:hr>139</ns3:hr>
            <ns3:cad>85</ns3:cad>
          </ns3:TrackPointExtension>
        </extensions>
      </trkpt>
      <trkpt lat="52.08004030399024486541748046875" lon="4.31640185415744781494140625">
        <ele>4.400000095367431640625</ele>
        <time>2026-07-27T17:45:00.000Z</time>
        <extensions>
          <ns3:TrackPointExtension>
            <ns3:hr>138</ns3:hr>
            <ns3:cad>85</ns3:cad>
          </ns3:TrackPointExtension>
        </extensions>
      </trkpt>
      <trkpt lat="52.080059833824634552001953125" lon="4.31638048030436038970947265625">
        <ele>4.400000095367431640625</ele>
        <time>2026-07-27T17:45:01.000Z</time>
        <extensions>
          <ns3:TrackPointExtension>
            <ns3:hr>138</ns3:hr>
            <ns3:cad>85</ns3:cad>
          </ns3:TrackPointExtension>
        </extensions>
      </trkpt>
      <trkpt lat="52.080079279839992523193359375" lon="4.3163534067571163177490234375">
        <ele>4.400000095367431640625</ele>
        <time>2026-07-27T17:45:02.000Z</time>
        <extensions>
          <ns3:TrackPointExtension>
            <ns3:hr>138</ns3:hr>
            <ns3:cad>85</ns3:cad>
          </ns3:TrackPointExtension>
        </extensions>
      </trkpt>
      <trkpt lat="52.08010149188339710235595703125" lon="4.31633790023624897003173828125">
        <ele>4.400000095367431640625</ele>
        <time>2026-07-27T17:45:03.000Z</time>
        <extensions>
          <ns3:TrackPointExtension>
            <ns3:hr>138</ns3:hr>
            <ns3:cad>85</ns3:cad>
          </ns3:TrackPointExtension>
        </extensions>
      </trkpt>
      <trkpt lat="52.0801226980984210968017578125" lon="4.31632633320987224578857421875">
        <ele>4.400000095367431640625</ele>
        <time>2026-07-27T17:45:04.000Z</time>
        <extensions>
          <ns3:TrackPointExtension>
            <ns3:hr>137</ns3:hr>
            <ns3:cad>77</ns3:cad>
          </ns3:TrackPointExtension>
        </extensions>
      </trkpt>
      <trkpt lat="52.0801391266286373138427734375" lon="4.31631443090736865997314453125">
        <ele>4.400000095367431640625</ele>
        <time>2026-07-27T17:45:05.000Z</time>
        <extensions>
          <ns3:TrackPointExtension>
            <ns3:hr>137</ns3:hr>
            <ns3:cad>77</ns3:cad>
          </ns3:TrackPointExtension>
        </extensions>
      </trkpt>
      <trkpt lat="52.0800988934934139251708984375" lon="4.3162943981587886810302734375">
        <ele>4.400000095367431640625</ele>
        <time>2026-07-27T17:45:17.000Z</time>
        <extensions>
          <ns3:TrackPointExtension>
            <ns3:hr>121</ns3:hr>
            <ns3:cad>60</ns3:cad>
          </ns3:TrackPointExtension>
        </extensions>
      </trkpt>
      <trkpt lat="52.080068551003932952880859375" lon="4.316323064267635345458984375">
        <ele>4.400000095367431640625</ele>
        <time>2026-07-27T17:45:18.000Z</time>
        <extensions>
          <ns3:TrackPointExtension>
            <ns3:hr>120</ns3:hr>
            <ns3:cad>60</ns3:cad>
          </ns3:TrackPointExtension>
        </extensions>
      </trkpt>
      <trkpt lat="52.08004784770309925079345703125" lon="4.31635550223290920257568359375">
        <ele>4.19999980926513671875</ele>
        <time>2026-07-27T17:45:19.000Z</time>
        <extensions>
          <ns3:TrackPointExtension>
            <ns3:hr>120</ns3:hr>
            <ns3:cad>0</ns3:cad>
          </ns3:TrackPointExtension>
        </extensions>
      </trkpt>
      <trkpt lat="52.08001716993749141693115234375" lon="4.3163919635117053985595703125">
        <ele>4</ele>
        <time>2026-07-27T17:45:20.000Z</time>
        <extensions>
          <ns3:TrackPointExtension>
            <ns3:hr>119</ns3:hr>
            <ns3:cad>0</ns3:cad>
          </ns3:TrackPointExtension>
        </extensions>
      </trkpt>
      <trkpt lat="52.07998515106737613677978515625" lon="4.31642733514308929443359375">
        <ele>4</ele>
        <time>2026-07-27T17:45:21.000Z</time>
        <extensions>
          <ns3:TrackPointExtension>
            <ns3:hr>119</ns3:hr>
            <ns3:cad>0</ns3:cad>
          </ns3:TrackPointExtension>
        </extensions>
      </trkpt>
      <trkpt lat="52.07994709722697734832763671875" lon="4.316459856927394866943359375">
        <ele>4.19999980926513671875</ele>
        <time>2026-07-27T17:45:22.000Z</time>
        <extensions>
          <ns3:TrackPointExtension>
            <ns3:hr>119</ns3:hr>
            <ns3:cad>0</ns3:cad>
          </ns3:TrackPointExtension>
        </extensions>
      </trkpt>
      <trkpt lat="52.079906277358531951904296875" lon="4.3164831586182117462158203125">
        <ele>4.19999980926513671875</ele>
        <time>2026-07-27T17:45:23.000Z</time>
        <extensions>
          <ns3:TrackPointExtension>
            <ns3:hr>120</ns3:hr>
            <ns3:cad>89</ns3:cad>
          </ns3:TrackPointExtension>
        </extensions>
      </trkpt>
      <trkpt lat="52.07986160181462764739990234375" lon="4.3164979107677936553955078125">
        <ele>4.400000095367431640625</ele>
        <time>2026-07-27T17:45:24.000Z</time>
        <extensions>
          <ns3:TrackPointExtension>
            <ns3:hr>121</ns3:hr>
            <ns3:cad>89</ns3:cad>
          </ns3:TrackPointExtension>
        </extensions>
      </trkpt>
      <trkpt lat="52.07982891239225864410400390625" lon="4.31652112863957881927490234375">
        <ele>4.599999904632568359375</ele>
        <time>2026-07-27T17:45:25.000Z</time>
        <extensions>
          <ns3:TrackPointExtension>
            <ns3:hr>122</ns3:hr>
            <ns3:cad>89</ns3:cad>
          </ns3:TrackPointExtension>
        </extensions>
      </trkpt>
      <trkpt lat="52.07979052327573299407958984375" lon="4.3165527284145355224609375">
        <ele>4.599999904632568359375</ele>
        <time>2026-07-27T17:45:26.000Z</time>
        <extensions>
          <ns3:TrackPointExtension>
            <ns3:hr>124</ns3:hr>
            <ns3:cad>89</ns3:cad>
          </ns3:TrackPointExtension>
        </extensions>
      </trkpt>
      <trkpt lat="52.07975766621530055999755859375" lon="4.31658181361854076385498046875">
        <ele>4.599999904632568359375</ele>
        <time>2026-07-27T17:45:27.000Z</time>
        <extensions>
          <ns3:TrackPointExtension>
            <ns3:hr>124</ns3:hr>
            <ns3:cad>89</ns3:cad>
          </ns3:TrackPointExtension>
        </extensions>
      </trkpt>
      <trkpt lat="52.07972891628742218017578125" lon="4.3166165985167026519775390625">
        <ele>4.599999904632568359375</ele>
        <time>2026-07-27T17:45:28.000Z</time>
        <extensions>
          <ns3:TrackPointExtension>
            <ns3:hr>124</ns3:hr>
            <ns3:cad>89</ns3:cad>
          </ns3:TrackPointExtension>
        </extensions>
      </trkpt>
      <trkpt lat="52.0797160081565380096435546875" lon="4.3166692368686199188232421875">
        <ele>4.599999904632568359375</ele>
        <time>2026-07-27T17:45:29.000Z</time>
        <extensions>
          <ns3:TrackPointExtension>
            <ns3:hr>125</ns3:hr>
            <ns3:cad>90</ns3:cad>
          </ns3:TrackPointExtension>
        </extensions>
      </trkpt>
      <trkpt lat="52.07971910946071147918701171875" lon="4.31673067621886730194091796875">
        <ele>4.599999904632568359375</ele>
        <time>2026-07-27T17:45:30.000Z</time>
        <extensions>
          <ns3:TrackPointExtension>
            <ns3:hr>126</ns3:hr>
            <ns3:cad>90</ns3:cad>
          </ns3:TrackPointExtension>
        </extensions>
      </trkpt>
      <trkpt lat="52.07973067648708820343017578125" lon="4.31677996180951595306396484375">
        <ele>4.599999904632568359375</ele>
        <time>2026-07-27T17:45:31.000Z</time>
        <extensions>
          <ns3:TrackPointExtension>
            <ns3:hr>131</ns3:hr>
            <ns3:cad>90</ns3:cad>
          </ns3:TrackPointExtension>
        </extensions>
      </trkpt>
      <trkpt lat="52.07974643446505069732666015625" lon="4.3168437480926513671875">
        <ele>4.599999904632568359375</ele>
        <time>2026-07-27T17:45:32.000Z</time>
        <extensions>
          <ns3:TrackPointExtension>
            <ns3:hr>142</ns3:hr>
            <ns3:cad>90</ns3:cad>
          </ns3:TrackPointExtension>
        </extensions>
      </trkpt>
      <trkpt lat="52.07976051606237888336181640625" lon="4.31690216995775699615478515625">
        <ele>4.599999904632568359375</ele>
        <time>2026-07-27T17:45:33.000Z</time>
        <extensions>
          <ns3:TrackPointExtension>
            <ns3:hr>146</ns3:hr>
            <ns3:cad>90</ns3:cad>
          </ns3:TrackPointExtension>
        </extensions>
      </trkpt>
      <trkpt lat="52.07978180609643459320068359375" lon="4.3169723264873027801513671875">
        <ele>4.599999904632568359375</ele>
        <time>2026-07-27T17:45:34.000Z</time>
        <extensions>
          <ns3:TrackPointExtension>
            <ns3:hr>147</ns3:hr>
            <ns3:cad>90</ns3:cad>
          </ns3:TrackPointExtension>
        </extensions>
      </trkpt>
      <trkpt lat="52.07980024628341197967529296875" lon="4.3170373700559139251708984375">
        <ele>4.400000095367431640625</ele>
        <time>2026-07-27T17:45:35.000Z</time>
        <extensions>
          <ns3:TrackPointExtension>
            <ns3:hr>147</ns3:hr>
            <ns3:cad>90</ns3:cad>
          </ns3:TrackPointExtension>
        </extensions>
      </trkpt>
      <trkpt lat="52.0798236317932605743408203125" lon="4.31710232980549335479736328125">
        <ele>4.599999904632568359375</ele>
        <time>2026-07-27T17:45:36.000Z</time>
        <extensions>
          <ns3:TrackPointExtension>
            <ns3:hr>148</ns3:hr>
            <ns3:cad>89</ns3:cad>
          </ns3:TrackPointExtension>
        </extensions>
      </trkpt>
      <trkpt lat="52.07984869368374347686767578125" lon="4.317178018391132354736328125">
        <ele>4.400000095367431640625</ele>
        <time>2026-07-27T17:45:37.000Z</time>
        <extensions>
          <ns3:TrackPointExtension>
            <ns3:hr>150</ns3:hr>
            <ns3:cad>89</ns3:cad>
          </ns3:TrackPointExtension>
        </extensions>
      </trkpt>
      <trkpt lat="52.07987308502197265625" lon="4.317237026989459991455078125">
        <ele>4.400000095367431640625</ele>
        <time>2026-07-27T17:45:38.000Z</time>
        <extensions>
          <ns3:TrackPointExtension>
            <ns3:hr>151</ns3:hr>
            <ns3:cad>89</ns3:cad>
          </ns3:TrackPointExtension>
        </extensions>
      </trkpt>
      <trkpt lat="52.0799114741384983062744140625" lon="4.31730735115706920623779296875">
        <ele>4.400000095367431640625</ele>
        <time>2026-07-27T17:45:39.000Z</time>
        <extensions>
          <ns3:TrackPointExtension>
            <ns3:hr>152</ns3:hr>
            <ns3:cad>89</ns3:cad>
          </ns3:TrackPointExtension>
        </extensions>
      </trkpt>
      <trkpt lat="52.0799356140196323394775390625" lon="4.31736283935606479644775390625">
        <ele>4.400000095367431640625</ele>
        <time>2026-07-27T17:45:40.000Z</time>
        <extensions>
          <ns3:TrackPointExtension>
            <ns3:hr>153</ns3:hr>
            <ns3:cad>89</ns3:cad>
          </ns3:TrackPointExtension>
        </extensions>
      </trkpt>
      <trkpt lat="52.07995849661529064178466796875" lon="4.317439533770084381103515625">
        <ele>4.400000095367431640625</ele>
        <time>2026-07-27T17:45:41.000Z</time>
        <extensions>
          <ns3:TrackPointExtension>
            <ns3:hr>154</ns3:hr>
            <ns3:cad>89</ns3:cad>
          </ns3:TrackPointExtension>
        </extensions>
      </trkpt>
      <trkpt lat="52.07999085076153278350830078125" lon="4.31748873554170131683349609375">
        <ele>4.19999980926513671875</ele>
        <time>2026-07-27T17:45:42.000Z</time>
        <extensions>
          <ns3:TrackPointExtension>
            <ns3:hr>155</ns3:hr>
            <ns3:cad>89</ns3:cad>
          </ns3:TrackPointExtension>
        </extensions>
      </trkpt>
      <trkpt lat="52.08001649938523769378662109375" lon="4.31754539720714092254638671875">
        <ele>4</ele>
        <time>2026-07-27T17:45:43.000Z</time>
        <extensions>
          <ns3:TrackPointExtension>
            <ns3:hr>156</ns3:hr>
            <ns3:cad>89</ns3:cad>
          </ns3:TrackPointExtension>
        </extensions>
      </trkpt>
      <trkpt lat="52.08005011081695556640625" lon="4.31758697144687175750732421875">
        <ele>4</ele>
        <time>2026-07-27T17:45:44.000Z</time>
        <extensions>
          <ns3:TrackPointExtension>
            <ns3:hr>157</ns3:hr>
            <ns3:cad>89</ns3:cad>
          </ns3:TrackPointExtension>
        </extensions>
      </trkpt>
      <trkpt lat="52.0800824649631977081298828125" lon="4.31764497421681880950927734375">
        <ele>4</ele>
        <time>2026-07-27T17:45:45.000Z</time>
        <extensions>
          <ns3:TrackPointExtension>
            <ns3:hr>158</ns3:hr>
            <ns3:cad>89</ns3:cad>
          </ns3:TrackPointExtension>
        </extensions>
      </trkpt>
      <trkpt lat="52.080107443034648895263671875" lon="4.31769828312098979949951171875">
        <ele>4</ele>
        <time>2026-07-27T17:45:46.000Z</time>
        <extensions>
          <ns3:TrackPointExtension>
            <ns3:hr>159</ns3:hr>
            <ns3:cad>89</ns3:cad>
          </ns3:TrackPointExtension>
        </extensions>
      </trkpt>
      <trkpt lat="52.0801357738673686981201171875" lon="4.31775544770061969757080078125">
        <ele>4</ele>
        <time>2026-07-27T17:45:47.000Z</time>
        <extensions>
          <ns3:TrackPointExtension>
            <ns3:hr>160</ns3:hr>
            <ns3:cad>89</ns3:cad>
          </ns3:TrackPointExtension>
        </extensions>
      </trkpt>
      <trkpt lat="52.08016703836619853973388671875" lon="4.3178095109760761260986328125">
        <ele>4.19999980926513671875</ele>
        <time>2026-07-27T17:45:48.000Z</time>
        <extensions>
          <ns3:TrackPointExtension>
            <ns3:hr>160</ns3:hr>
            <ns3:cad>89</ns3:cad>
          </ns3:TrackPointExtension>
        </extensions>
      </trkpt>
      <trkpt lat="52.080192603170871734619140625" lon="4.31787363253533840179443359375">
        <ele>4.19999980926513671875</ele>
        <time>2026-07-27T17:45:49.000Z</time>
        <extensions>
          <ns3:TrackPointExtension>
            <ns3:hr>161</ns3:hr>
            <ns3:cad>93</ns3:cad>
          </ns3:TrackPointExtension>
        </extensions>
      </trkpt>
      <trkpt lat="52.0802231132984161376953125" lon="4.31793213821947574615478515625">
        <ele>4.400000095367431640625</ele>
        <time>2026-07-27T17:45:50.000Z</time>
        <extensions>
          <ns3:TrackPointExtension>
            <ns3:hr>162</ns3:hr>
            <ns3:cad>93</ns3:cad>
          </ns3:TrackPointExtension>
        </extensions>
      </trkpt>
      <trkpt lat="52.0802526175975799560546875" lon="4.31798310019075870513916015625">
        <ele>4.19999980926513671875</ele>
        <time>2026-07-27T17:45:51.000Z</time>
        <extensions>
          <ns3:TrackPointExtension>
            <ns3:hr>162</ns3:hr>
            <ns3:cad>93</ns3:cad>
          </ns3:TrackPointExtension>
        </extensions>
      </trkpt>
      <trkpt lat="52.0802832953631877899169921875" lon="4.318048395216464996337890625">
        <ele>4.19999980926513671875</ele>
        <time>2026-07-27T17:45:52.000Z</time>
        <extensions>
          <ns3:TrackPointExtension>
            <ns3:hr>163</ns3:hr>
            <ns3:cad>93</ns3:cad>
          </ns3:TrackPointExtension>
        </extensions>
      </trkpt>
      <trkpt lat="52.08031070418655872344970703125" lon="4.31808787398040294647216796875">
        <ele>4.400000095367431640625</ele>
        <time>2026-07-27T17:45:53.000Z</time>
        <extensions>
          <ns3:TrackPointExtension>
            <ns3:hr>163</ns3:hr>
            <ns3:cad>93</ns3:cad>
          </ns3:TrackPointExtension>
        </extensions>
      </trkpt>
      <trkpt lat="52.080332078039646148681640625" lon="4.318142272531986236572265625">
        <ele>4.400000095367431640625</ele>
        <time>2026-07-27T17:45:54.000Z</time>
        <extensions>
          <ns3:TrackPointExtension>
            <ns3:hr>164</ns3:hr>
            <ns3:cad>93</ns3:cad>
          </ns3:TrackPointExtension>
        </extensions>
      </trkpt>
      <trkpt lat="52.08035630173981189727783203125" lon="4.31818795390427112579345703125">
        <ele>4.400000095367431640625</ele>
        <time>2026-07-27T17:45:55.000Z</time>
        <extensions>
          <ns3:TrackPointExtension>
            <ns3:hr>164</ns3:hr>
            <ns3:cad>93</ns3:cad>
          </ns3:TrackPointExtension>
        </extensions>
      </trkpt>
      <trkpt lat="52.0803771726787090301513671875" lon="4.31822902522981166839599609375">
        <ele>4.400000095367431640625</ele>
        <time>2026-07-27T17:45:56.000Z</time>
        <extensions>
          <ns3:TrackPointExtension>
            <ns3:hr>164</ns3:hr>
            <ns3:cad>93</ns3:cad>
          </ns3:TrackPointExtension>
        </extensions>
      </trkpt>
      <trkpt lat="52.08039603196084499359130859375" lon="4.318287111818790435791015625">
        <ele>4.400000095367431640625</ele>
        <time>2026-07-27T17:45:57.000Z</time>
        <extensions>
          <ns3:TrackPointExtension>
            <ns3:hr>162</ns3:hr>
            <ns3:cad>93</ns3:cad>
          </ns3:TrackPointExtension>
        </extensions>
      </trkpt>
      <trkpt lat="52.0804143883287906646728515625" lon="4.318321980535984039306640625">
        <ele>4.400000095367431640625</ele>
        <time>2026-07-27T17:45:58.000Z</time>
        <extensions>
          <ns3:TrackPointExtension>
            <ns3:hr>161</ns3:hr>
            <ns3:cad>93</ns3:cad>
          </ns3:TrackPointExtension>
        </extensions>
      </trkpt>
      <trkpt lat="52.0804376900196075439453125" lon="4.318367578089237213134765625">
        <ele>4.400000095367431640625</ele>
        <time>2026-07-27T17:45:59.000Z</time>
        <extensions>
          <ns3:TrackPointExtension>
            <ns3:hr>161</ns3:hr>
            <ns3:cad>93</ns3:cad>
          </ns3:TrackPointExtension>
        </extensions>
      </trkpt>
      <trkpt lat="52.0804618299007415771484375" lon="4.3184032849967479705810546875">
        <ele>4.19999980926513671875</ele>
        <time>2026-07-27T17:46:00.000Z</time>
        <extensions>
          <ns3:TrackPointExtension>
            <ns3:hr>161</ns3:hr>
            <ns3:cad>93</ns3:cad>
          </ns3:TrackPointExtension>
        </extensions>
      </trkpt>
      <trkpt lat="52.0804827846586704254150390625" lon="4.31845600716769695281982421875">
        <ele>4</ele>
        <time>2026-07-27T17:46:01.000Z</time>
        <extensions>
          <ns3:TrackPointExtension>
            <ns3:hr>161</ns3:hr>
            <ns3:cad>93</ns3:cad>
          </ns3:TrackPointExtension>
        </extensions>
      </trkpt>
      <trkpt lat="52.08050063811242580413818359375" lon="4.3185015209019184112548828125">
        <ele>3.7999999523162841796875</ele>
        <time>2026-07-27T17:46:02.000Z</time>
        <extensions>
          <ns3:TrackPointExtension>
            <ns3:hr>162</ns3:hr>
            <ns3:cad>86</ns3:cad>
          </ns3:TrackPointExtension>
        </extensions>
      </trkpt>
      <trkpt lat="52.08051924593746662139892578125" lon="4.31855139322578907012939453125">
        <ele>3.599999904632568359375</ele>
        <time>2026-07-27T17:46:03.000Z</time>
        <extensions>
          <ns3:TrackPointExtension>
            <ns3:hr>162</ns3:hr>
            <ns3:cad>86</ns3:cad>
          </ns3:TrackPointExtension>
        </extensions>
      </trkpt>
      <trkpt lat="52.08053969778120517730712890625" lon="4.318595230579376220703125">
        <ele>3.599999904632568359375</ele>
        <time>2026-07-27T17:46:04.000Z</time>
        <extensions>
          <ns3:TrackPointExtension>
            <ns3:hr>162</ns3:hr>
            <ns3:cad>87</ns3:cad>
          </ns3:TrackPointExtension>
        </extensions>
      </trkpt>
      <trkpt lat="52.080558724701404571533203125" lon="4.31863479316234588623046875">
        <ele>3.599999904632568359375</ele>
        <time>2026-07-27T17:46:05.000Z</time>
        <extensions>
          <ns3:TrackPointExtension>
            <ns3:hr>162</ns3:hr>
            <ns3:cad>88</ns3:cad>
          </ns3:TrackPointExtension>
        </extensions>
      </trkpt>
      <trkpt lat="52.0805753208696842193603515625" lon="4.31868349201977252960205078125">
        <ele>3.400000095367431640625</ele>
        <time>2026-07-27T17:46:06.000Z</time>
        <extensions>
          <ns3:TrackPointExtension>
            <ns3:hr>161</ns3:hr>
            <ns3:cad>88</ns3:cad>
          </ns3:TrackPointExtension>
        </extensions>
      </trkpt>
      <trkpt lat="52.08059468306601047515869140625" lon="4.3187204562127590179443359375">
        <ele>3.400000095367431640625</ele>
        <time>2026-07-27T17:46:07.000Z</time>
        <extensions>
          <ns3:TrackPointExtension>
            <ns3:hr>161</ns3:hr>
            <ns3:cad>88</ns3:cad>
          </ns3:TrackPointExtension>
        </extensions>
      </trkpt>
      <trkpt lat="52.08061094395816326141357421875" lon="4.31877099908888339996337890625">
        <ele>3.400000095367431640625</ele>
        <time>2026-07-27T17:46:08.000Z</time>
        <extensions>
          <ns3:TrackPointExtension>
            <ns3:hr>161</ns3:hr>
            <ns3:cad>87</ns3:cad>
          </ns3:TrackPointExtension>
        </extensions>
      </trkpt>
      <trkpt lat="52.0806262828409671783447265625" lon="4.31881525553762912750244140625">
        <ele>3.400000095367431640625</ele>
        <time>2026-07-27T17:46:09.000Z</time>
        <extensions>
          <ns3:TrackPointExtension>
            <ns3:hr>161</ns3:hr>
            <ns3:cad>86</ns3:cad>
          </ns3:TrackPointExtension>
        </extensions>
      </trkpt>
      <trkpt lat="52.08064564503729343414306640625" lon="4.31885498575866222381591796875">
        <ele>3.400000095367431640625</ele>
        <time>2026-07-27T17:46:10.000Z</time>
        <extensions>
          <ns3:TrackPointExtension>
            <ns3:hr>161</ns3:hr>
            <ns3:cad>86</ns3:cad>
          </ns3:TrackPointExtension>
        </extensions>
      </trkpt>
      <trkpt lat="52.080663330852985382080078125" lon="4.318897314369678497314453125">
        <ele>3.400000095367431640625</ele>
        <time>2026-07-27T17:46:11.000Z</time>
        <extensions>
          <ns3:TrackPointExtension>
            <ns3:hr>161</ns3:hr>
            <ns3:cad>85</ns3:cad>
          </ns3:TrackPointExtension>
        </extensions>
      </trkpt>
      <trkpt lat="52.0806822739541530609130859375" lon="4.31892489083111286163330078125">
        <ele>3.2000000476837158203125</ele>
        <time>2026-07-27T17:46:12.000Z</time>
        <extensions>
          <ns3:TrackPointExtension>
            <ns3:hr>161</ns3:hr>
            <ns3:cad>85</ns3:cad>
          </ns3:TrackPointExtension>
        </extensions>
      </trkpt>
      <trkpt lat="52.08069442771375179290771484375" lon="4.31894601322710514068603515625">
        <ele>3.2000000476837158203125</ele>
        <time>2026-07-27T17:46:13.000Z</time>
        <extensions>
          <ns3:TrackPointExtension>
            <ns3:hr>161</ns3:hr>
            <ns3:cad>84</ns3:cad>
          </ns3:TrackPointExtension>
        </extensions>
      </trkpt>
      <trkpt lat="52.08070716820657253265380859375" lon="4.3189652077853679656982421875">
        <ele>3.2000000476837158203125</ele>
        <time>2026-07-27T17:46:14.000Z</time>
        <extensions>
          <ns3:TrackPointExtension>
            <ns3:hr>161</ns3:hr>
            <ns3:cad>84</ns3:cad>
          </ns3:TrackPointExtension>
        </extensions>
      </trkpt>
      <trkpt lat="52.080714963376522064208984375" lon="4.3189853243529796600341796875">
        <ele>3.2000000476837158203125</ele>
        <time>2026-07-27T17:46:15.000Z</time>
        <extensions>
          <ns3:TrackPointExtension>
            <ns3:hr>160</ns3:hr>
            <ns3:cad>83</ns3:cad>
          </ns3:TrackPointExtension>
        </extensions>
      </trkpt>
      <trkpt lat="52.0807211659848690032958984375" lon="4.31900518946349620819091796875">
        <ele>3.2000000476837158203125</ele>
        <time>2026-07-27T17:46:16.000Z</time>
        <extensions>
          <ns3:TrackPointExtension>
            <ns3:hr>160</ns3:hr>
            <ns3:cad>83</ns3:cad>
          </ns3:TrackPointExtension>
        </extensions>
      </trkpt>
      <trkpt lat="52.080729044973850250244140625" lon="4.31902413256466388702392578125">
        <ele>3.2000000476837158203125</ele>
        <time>2026-07-27T17:46:17.000Z</time>
        <extensions>
          <ns3:TrackPointExtension>
            <ns3:hr>159</ns3:hr>
            <ns3:cad>83</ns3:cad>
          </ns3:TrackPointExtension>
        </extensions>
      </trkpt>
      <trkpt lat="52.080734409391880035400390625" lon="4.31904424913227558135986328125">
        <ele>3.2000000476837158203125</ele>
        <time>2026-07-27T17:46:18.000Z</time>
        <extensions>
          <ns3:TrackPointExtension>
            <ns3:hr>158</ns3:hr>
            <ns3:cad>65</ns3:cad>
          </ns3:TrackPointExtension>
        </extensions>
      </trkpt>
      <trkpt lat="52.08074153400957584381103515625" lon="4.3190631084144115447998046875">
        <ele>3.2000000476837158203125</ele>
        <time>2026-07-27T17:46:19.000Z</time>
        <extensions>
          <ns3:TrackPointExtension>
            <ns3:hr>157</ns3:hr>
            <ns3:cad>64</ns3:cad>
          </ns3:TrackPointExtension>
        </extensions>
      </trkpt>
      <trkpt lat="52.0807473175227642059326171875" lon="4.3190822191536426544189453125">
        <ele>3.2000000476837158203125</ele>
        <time>2026-07-27T17:46:20.000Z</time>
        <extensions>
          <ns3:TrackPointExtension>
            <ns3:hr>157</ns3:hr>
            <ns3:cad>62</ns3:cad>
          </ns3:TrackPointExtension>
        </extensions>
      </trkpt>
      <trkpt lat="52.08075352013111114501953125" lon="4.3191009946167469024658203125">
        <ele>3</ele>
        <time>2026-07-27T17:46:21.000Z</time>
        <extensions>
          <ns3:TrackPointExtension>
            <ns3:hr>159</ns3:hr>
            <ns3:cad>62</ns3:cad>
          </ns3:TrackPointExtension>
        </extensions>
      </trkpt>
      <trkpt lat="52.08076047711074352264404296875" lon="4.31912035681307315826416015625">
        <ele>3</ele>
        <time>2026-07-27T17:46:22.000Z</time>
        <extensions>
          <ns3:TrackPointExtension>
            <ns3:hr>171</ns3:hr>
            <ns3:cad>61</ns3:cad>
          </ns3:TrackPointExtension>
        </extensions>
      </trkpt>
      <trkpt lat="52.080767266452312469482421875" lon="4.31914038956165313720703125">
        <ele>3</ele>
        <time>2026-07-27T17:46:23.000Z</time>
        <extensions>
          <ns3:TrackPointExtension>
            <ns3:hr>174</ns3:hr>
            <ns3:cad>61</ns3:cad>
          </ns3:TrackPointExtension>
        </extensions>
      </trkpt>
      <trkpt lat="52.08077556453645229339599609375" lon="4.31915924884378910064697265625">
        <ele>3</ele>
        <time>2026-07-27T17:46:24.000Z</time>
        <extensions>
          <ns3:TrackPointExtension>
            <ns3:hr>174</ns3:hr>
            <ns3:cad>61</ns3:cad>
          </ns3:TrackPointExtension>
        </extensions>
      </trkpt>
      <trkpt lat="52.08078377880156040191650390625" lon="4.3191759288311004638671875">
        <ele>3</ele>
        <time>2026-07-27T17:46:25.000Z</time>
        <extensions>
          <ns3:TrackPointExtension>
            <ns3:hr>175</ns3:hr>
            <ns3:cad>61</ns3:cad>
          </ns3:TrackPointExtension>
        </extensions>
      </trkpt>
      <trkpt lat="52.08079165779054164886474609375" lon="4.3191938661038875579833984375">
        <ele>3</ele>
        <time>2026-07-27T17:46:26.000Z</time>
        <extensions>
          <ns3:TrackPointExtension>
            <ns3:hr>175</ns3:hr>
            <ns3:cad>61</ns3:cad>
          </ns3:TrackPointExtension>
        </extensions>
      </trkpt>
      <trkpt lat="52.08080272190272808074951171875" lon="4.319223202764987945556640625">
        <ele>2.7999999523162841796875</ele>
        <time>2026-07-27T17:46:27.000Z</time>
        <extensions>
          <ns3:TrackPointExtension>
            <ns3:hr>174</ns3:hr>
            <ns3:cad>61</ns3:cad>
          </ns3:TrackPointExtension>
        </extensions>
      </trkpt>
      <trkpt lat="52.08081252872943878173828125" lon="4.31925195269286632537841796875">
        <ele>2.7999999523162841796875</ele>
        <time>2026-07-27T17:46:28.000Z</time>
        <extensions>
          <ns3:TrackPointExtension>
            <ns3:hr>174</ns3:hr>
            <ns3:cad>61</ns3:cad>
          </ns3:TrackPointExtension>
        </extensions>
      </trkpt>
      <trkpt lat="52.08082216791808605194091796875" lon="4.31927424855530261993408203125">
        <ele>2.599999904632568359375</ele>
        <time>2026-07-27T17:46:29.000Z</time>
        <extensions>
          <ns3:TrackPointExtension>
            <ns3:hr>173</ns3:hr>
            <ns3:cad>61</ns3:cad>
          </ns3:TrackPointExtension>
        </extensions>
      </trkpt>
      <trkpt lat="52.08082870580255985260009765625" lon="4.31929302401840686798095703125">
        <ele>2.599999904632568359375</ele>
        <time>2026-07-27T17:46:30.000Z</time>
        <extensions>
          <ns3:TrackPointExtension>
            <ns3:hr>172</ns3:hr>
            <ns3:cad>61</ns3:cad>
          </ns3:TrackPointExtension>
        </extensions>
      </trkpt>
      <trkpt lat="52.08083390258252620697021484375" lon="4.3193095363676548004150390625">
        <ele>2.599999904632568359375</ele>
        <time>2026-07-27T17:46:31.000Z</time>
        <extensions>
          <ns3:TrackPointExtension>
            <ns3:hr>171</ns3:hr>
            <ns3:cad>61</ns3:cad>
          </ns3:TrackPointExtension>
        </extensions>
      </trkpt>
      <trkpt lat="52.080838344991207122802734375" lon="4.3193263001739978790283203125">
        <ele>2.599999904632568359375</ele>
        <time>2026-07-27T17:46:32.000Z</time>
        <extensions>
          <ns3:TrackPointExtension>
            <ns3:hr>170</ns3:hr>
            <ns3:cad>56</ns3:cad>
          </ns3:TrackPointExtension>
        </extensions>
      </trkpt>
      <trkpt lat="52.08084127865731716156005859375" lon="4.3193413875997066497802734375">
        <ele>2.7999999523162841796875</ele>
        <time>2026-07-27T17:46:33.000Z</time>
        <extensions>
          <ns3:TrackPointExtension>
            <ns3:hr>169</ns3:hr>
            <ns3:cad>55</ns3:cad>
          </ns3:TrackPointExtension>
        </extensions>
      </trkpt>
      <trkpt lat="52.08084530197083950042724609375" lon="4.31936108507215976715087890625">
        <ele>2.7999999523162841796875</ele>
        <time>2026-07-27T17:46:34.000Z</time>
        <extensions>
          <ns3:TrackPointExtension>
            <ns3:hr>169</ns3:hr>
            <ns3:cad>55</ns3:cad>
          </ns3:TrackPointExtension>
        </extensions>
      </trkpt>
      <trkpt lat="52.08085142076015472412109375" lon="4.31937776505947113037109375">
        <ele>2.7999999523162841796875</ele>
        <time>2026-07-27T17:46:35.000Z</time>
        <extensions>
          <ns3:TrackPointExtension>
            <ns3:hr>168</ns3:hr>
            <ns3:cad>55</ns3:cad>
          </ns3:TrackPointExtension>
        </extensions>
      </trkpt>
      <trkpt lat="52.080859132111072540283203125" lon="4.31939427740871906280517578125">
        <ele>2.7999999523162841796875</ele>
        <time>2026-07-27T17:46:36.000Z</time>
        <extensions>
          <ns3:TrackPointExtension>
            <ns3:hr>167</ns3:hr>
            <ns3:cad>57</ns3:cad>
          </ns3:TrackPointExtension>
        </extensions>
      </trkpt>
      <trkpt lat="52.0808703638613224029541015625" lon="4.31940970011055469512939453125">
        <ele>2.7999999523162841796875</ele>
        <time>2026-07-27T17:46:37.000Z</time>
        <extensions>
          <ns3:TrackPointExtension>
            <ns3:hr>166</ns3:hr>
            <ns3:cad>57</ns3:cad>
          </ns3:TrackPointExtension>
        </extensions>
      </trkpt>
      <trkpt lat="52.08088000304996967315673828125" lon="4.31943182833492755889892578125">
        <ele>2.7999999523162841796875</ele>
        <time>2026-07-27T17:46:38.000Z</time>
        <extensions>
          <ns3:TrackPointExtension>
            <ns3:hr>165</ns3:hr>
            <ns3:cad>57</ns3:cad>
          </ns3:TrackPointExtension>
        </extensions>
      </trkpt>
      <trkpt lat="52.0808901451528072357177734375" lon="4.31945429183542728424072265625">
        <ele>2.7999999523162841796875</ele>
        <time>2026-07-27T17:46:39.000Z</time>
        <extensions>
          <ns3:TrackPointExtension>
            <ns3:hr>164</ns3:hr>
            <ns3:cad>57</ns3:cad>
          </ns3:TrackPointExtension>
        </extensions>
      </trkpt>
      <trkpt lat="52.0809008739888668060302734375" lon="4.31947692297399044036865234375">
        <ele>2.7999999523162841796875</ele>
        <time>2026-07-27T17:46:40.000Z</time>
        <extensions>
          <ns3:TrackPointExtension>
            <ns3:hr>163</ns3:hr>
            <ns3:cad>61</ns3:cad>
          </ns3:TrackPointExtension>
        </extensions>
      </trkpt>
      <trkpt lat="52.0809176377952098846435546875" lon="4.319518245756626129150390625">
        <ele>2.7999999523162841796875</ele>
        <time>2026-07-27T17:46:41.000Z</time>
        <extensions>
          <ns3:TrackPointExtension>
            <ns3:hr>162</ns3:hr>
            <ns3:cad>61</ns3:cad>
          </ns3:TrackPointExtension>
        </extensions>
      </trkpt>
      <trkpt lat="52.0809364132583141326904296875" lon="4.3195596523582935333251953125">
        <ele>2.599999904632568359375</ele>
        <time>2026-07-27T17:46:42.000Z</time>
        <extensions>
          <ns3:TrackPointExtension>
            <ns3:hr>161</ns3:hr>
            <ns3:cad>61</ns3:cad>
          </ns3:TrackPointExtension>
        </extensions>
      </trkpt>
      <trkpt lat="52.0809521712362766265869140625" lon="4.319608099758625030517578125">
        <ele>2.599999904632568359375</ele>
        <time>2026-07-27T17:46:43.000Z</time>
        <extensions>
          <ns3:TrackPointExtension>
            <ns3:hr>161</ns3:hr>
            <ns3:cad>61</ns3:cad>
          </ns3:TrackPointExtension>
        </extensions>
      </trkpt>
      <trkpt lat="52.08096834830939769744873046875" lon="4.31965411640703678131103515625">
        <ele>2.400000095367431640625</ele>
        <time>2026-07-27T17:46:44.000Z</time>
        <extensions>
          <ns3:TrackPointExtension>
            <ns3:hr>160</ns3:hr>
            <ns3:cad>61</ns3:cad>
          </ns3:TrackPointExtension>
        </extensions>
      </trkpt>
      <trkpt lat="52.0809856988489627838134765625" lon="4.31970139034092426300048828125">
        <ele>2.400000095367431640625</ele>
        <time>2026-07-27T17:46:45.000Z</time>
        <extensions>
          <ns3:TrackPointExtension>
            <ns3:hr>160</ns3:hr>
            <ns3:cad>83</ns3:cad>
          </ns3:TrackPointExtension>
        </extensions>
      </trkpt>
      <trkpt lat="52.0810011215507984161376953125" lon="4.319746904075145721435546875">
        <ele>2.400000095367431640625</ele>
        <time>2026-07-27T17:46:46.000Z</time>
        <extensions>
          <ns3:TrackPointExtension>
            <ns3:hr>159</ns3:hr>
            <ns3:cad>87</ns3:cad>
          </ns3:TrackPointExtension>
        </extensions>
      </trkpt>
      <trkpt lat="52.0810192264616489410400390625" lon="4.3197889812290668487548828125">
        <ele>2.400000095367431640625</ele>
        <time>2026-07-27T17:46:47.000Z</time>
        <extensions>
          <ns3:TrackPointExtension>
            <ns3:hr>159</ns3:hr>
            <ns3:cad>87</ns3:cad>
          </ns3:TrackPointExtension>
        </extensions>
      </trkpt>
      <trkpt lat="52.08104093559086322784423828125" lon="4.319840110838413238525390625">
        <ele>2.599999904632568359375</ele>
        <time>2026-07-27T17:46:48.000Z</time>
        <extensions>
          <ns3:TrackPointExtension>
            <ns3:hr>159</ns3:hr>
            <ns3:cad>87</ns3:cad>
          </ns3:TrackPointExtension>
        </extensions>
      </trkpt>
      <trkpt lat="52.081072032451629638671875" lon="4.3198667652904987335205078125">
        <ele>2.7999999523162841796875</ele>
        <time>2026-07-27T17:46:49.000Z</time>
        <extensions>
          <ns3:TrackPointExtension>
            <ns3:hr>159</ns3:hr>
            <ns3:cad>86</ns3:cad>
          </ns3:TrackPointExtension>
        </extensions>
      </trkpt>
      <trkpt lat="52.081098519265651702880859375" lon="4.31993088684976100921630859375">
        <ele>3</ele>
        <time>2026-07-27T17:46:50.000Z</time>
        <extensions>
          <ns3:TrackPointExtension>
            <ns3:hr>159</ns3:hr>
            <ns3:cad>86</ns3:cad>
          </ns3:TrackPointExtension>
        </extensions>
      </trkpt>
      <trkpt lat="52.08112366497516632080078125" lon="4.3199814297258853912353515625">
        <ele>3.400000095367431640625</ele>
        <time>2026-07-27T17:46:51.000Z</time>
        <extensions>
          <ns3:TrackPointExtension>
            <ns3:hr>160</ns3:hr>
            <ns3:cad>87</ns3:cad>
          </ns3:TrackPointExtension>
        </extensions>
      </trkpt>
      <trkpt lat="52.08114755339920520782470703125" lon="4.3200407736003398895263671875">
        <ele>3.599999904632568359375</ele>
        <time>2026-07-27T17:46:52.000Z</time>
        <extensions>
          <ns3:TrackPointExtension>
            <ns3:hr>161</ns3:hr>
            <ns3:cad>87</ns3:cad>
          </ns3:TrackPointExtension>
        </extensions>
      </trkpt>
      <trkpt lat="52.08117538131773471832275390625" lon="4.320084862411022186279296875">
        <ele>3.7999999523162841796875</ele>
        <time>2026-07-27T17:46:53.000Z</time>
        <extensions>
          <ns3:TrackPointExtension>
            <ns3:hr>162</ns3:hr>
            <ns3:cad>88</ns3:cad>
          </ns3:TrackPointExtension>
        </extensions>
      </trkpt>
      <trkpt lat="52.081195414066314697265625" lon="4.3201530911028385162353515625">
        <ele>4</ele>
        <time>2026-07-27T17:46:54.000Z</time>
        <extensions>
          <ns3:TrackPointExtension>
            <ns3:hr>163</ns3:hr>
            <ns3:cad>88</ns3:cad>
          </ns3:TrackPointExtension>
        </extensions>
      </trkpt>
      <trkpt lat="52.08122114650905132293701171875" lon="4.32018854655325412750244140625">
        <ele>4</ele>
        <time>2026-07-27T17:46:55.000Z</time>
        <extensions>
          <ns3:TrackPointExtension>
            <ns3:hr>164</ns3:hr>
            <ns3:cad>88</ns3:cad>
          </ns3:TrackPointExtension>
        </extensions>
      </trkpt>
      <trkpt lat="52.0812492258846759796142578125" lon="4.3202479742467403411865234375">
        <ele>4.19999980926513671875</ele>
        <time>2026-07-27T17:46:56.000Z</time>
        <extensions>
          <ns3:TrackPointExtension>
            <ns3:hr>165</ns3:hr>
            <ns3:cad>88</ns3:cad>
          </ns3:TrackPointExtension>
        </extensions>
      </trkpt>
      <trkpt lat="52.0812730304896831512451171875" lon="4.32028845883905887603759765625">
        <ele>4.400000095367431640625</ele>
        <time>2026-07-27T17:46:57.000Z</time>
        <extensions>
          <ns3:TrackPointExtension>
            <ns3:hr>166</ns3:hr>
            <ns3:cad>88</ns3:cad>
          </ns3:TrackPointExtension>
        </extensions>
      </trkpt>
      <trkpt lat="52.0812978409230709075927734375" lon="4.3203626386821269989013671875">
        <ele>4.599999904632568359375</ele>
        <time>2026-07-27T17:46:58.000Z</time>
        <extensions>
          <ns3:TrackPointExtension>
            <ns3:hr>167</ns3:hr>
            <ns3:cad>88</ns3:cad>
          </ns3:TrackPointExtension>
        </extensions>
      </trkpt>
      <trkpt lat="52.081321142613887786865234375" lon="4.3204189650714397430419921875">
        <ele>4.80000019073486328125</ele>
        <time>2026-07-27T17:46:59.000Z</time>
        <extensions>
          <ns3:TrackPointExtension>
            <ns3:hr>168</ns3:hr>
            <ns3:cad>88</ns3:cad>
          </ns3:TrackPointExtension>
        </extensions>
      </trkpt>
      <trkpt lat="52.0813427679240703582763671875" lon="4.320499598979949951171875">
        <ele>4.80000019073486328125</ele>
        <time>2026-07-27T17:47:00.000Z</time>
        <extensions>
          <ns3:TrackPointExtension>
            <ns3:hr>169</ns3:hr>
            <ns3:cad>88</ns3:cad>
          </ns3:TrackPointExtension>
        </extensions>
      </trkpt>
      <trkpt lat="52.08136632107198238372802734375" lon="4.32055802084505558013916015625">
        <ele>5.19999980926513671875</ele>
        <time>2026-07-27T17:47:01.000Z</time>
        <extensions>
          <ns3:TrackPointExtension>
            <ns3:hr>170</ns3:hr>
            <ns3:cad>88</ns3:cad>
          </ns3:TrackPointExtension>
        </extensions>
      </trkpt>
      <trkpt lat="52.08139666356146335601806640625" lon="4.3206348828971385955810546875">
        <ele>5.19999980926513671875</ele>
        <time>2026-07-27T17:47:02.000Z</time>
        <extensions>
          <ns3:TrackPointExtension>
            <ns3:hr>171</ns3:hr>
            <ns3:cad>90</ns3:cad>
          </ns3:TrackPointExtension>
        </extensions>
      </trkpt>
      <trkpt lat="52.08142415620386600494384765625" lon="4.320687688887119293212890625">
        <ele>5</ele>
        <time>2026-07-27T17:47:03.000Z</time>
        <extensions>
          <ns3:TrackPointExtension>
            <ns3:hr>173</ns3:hr>
            <ns3:cad>90</ns3:cad>
          </ns3:TrackPointExtension>
        </extensions>
      </trkpt>
      <trkpt lat="52.0814517326653003692626953125" lon="4.32075415737926959991455078125">
        <ele>5</ele>
        <time>2026-07-27T17:47:04.000Z</time>
        <extensions>
          <ns3:TrackPointExtension>
            <ns3:hr>174</ns3:hr>
            <ns3:cad>91</ns3:cad>
          </ns3:TrackPointExtension>
        </extensions>
      </trkpt>
      <trkpt lat="52.081485092639923095703125" lon="4.320826493203639984130859375">
        <ele>4.80000019073486328125</ele>
        <time>2026-07-27T17:47:05.000Z</time>
        <extensions>
          <ns3:TrackPointExtension>
            <ns3:hr>175</ns3:hr>
            <ns3:cad>91</ns3:cad>
          </ns3:TrackPointExtension>
        </extensions>
      </trkpt>
      <trkpt lat="52.081518284976482391357421875" lon="4.32089027948677539825439453125">
        <ele>4.599999904632568359375</ele>
        <time>2026-07-27T17:47:06.000Z</time>
        <extensions>
          <ns3:TrackPointExtension>
            <ns3:hr>176</ns3:hr>
            <ns3:cad>90</ns3:cad>
          </ns3:TrackPointExtension>
        </extensions>
      </trkpt>
      <trkpt lat="52.08155038766562938690185546875" lon="4.3209664709866046905517578125">
        <ele>4.599999904632568359375</ele>
        <time>2026-07-27T17:47:07.000Z</time>
        <extensions>
          <ns3:TrackPointExtension>
            <ns3:hr>177</ns3:hr>
            <ns3:cad>90</ns3:cad>
          </ns3:TrackPointExtension>
        </extensions>
      </trkpt>
      <trkpt lat="52.081578634679317474365234375" lon="4.32102262973785400390625">
        <ele>4.599999904632568359375</ele>
        <time>2026-07-27T17:47:08.000Z</time>
        <extensions>
          <ns3:TrackPointExtension>
            <ns3:hr>178</ns3:hr>
            <ns3:cad>90</ns3:cad>
          </ns3:TrackPointExtension>
        </extensions>
      </trkpt>
      <trkpt lat="52.08160780370235443115234375" lon="4.321089684963226318359375">
        <ele>4.599999904632568359375</ele>
        <time>2026-07-27T17:47:09.000Z</time>
        <extensions>
          <ns3:TrackPointExtension>
            <ns3:hr>179</ns3:hr>
            <ns3:cad>90</ns3:cad>
          </ns3:TrackPointExtension>
        </extensions>
      </trkpt>
      <trkpt lat="52.08163269795477390289306640625" lon="4.32115011848509311676025390625">
        <ele>4.400000095367431640625</ele>
        <time>2026-07-27T17:47:10.000Z</time>
        <extensions>
          <ns3:TrackPointExtension>
            <ns3:hr>180</ns3:hr>
            <ns3:cad>95</ns3:cad>
          </ns3:TrackPointExtension>
        </extensions>
      </trkpt>
      <trkpt lat="52.08165851421654224395751953125" lon="4.32120510376989841461181640625">
        <ele>4.400000095367431640625</ele>
        <time>2026-07-27T17:47:11.000Z</time>
        <extensions>
          <ns3:TrackPointExtension>
            <ns3:hr>181</ns3:hr>
            <ns3:cad>95</ns3:cad>
          </ns3:TrackPointExtension>
        </extensions>
      </trkpt>
      <trkpt lat="52.08167779259383678436279296875" lon="4.32125690393149852752685546875">
        <ele>4.19999980926513671875</ele>
        <time>2026-07-27T17:47:12.000Z</time>
        <extensions>
          <ns3:TrackPointExtension>
            <ns3:hr>182</ns3:hr>
            <ns3:cad>92</ns3:cad>
          </ns3:TrackPointExtension>
        </extensions>
      </trkpt>
      <trkpt lat="52.08169908262789249420166015625" lon="4.3212933652102947235107421875">
        <ele>4.19999980926513671875</ele>
        <time>2026-07-27T17:47:13.000Z</time>
        <extensions>
          <ns3:TrackPointExtension>
            <ns3:hr>183</ns3:hr>
            <ns3:cad>91</ns3:cad>
          </ns3:TrackPointExtension>
        </extensions>
      </trkpt>
      <trkpt lat="52.0817192830145359039306640625" lon="4.32134944014251232147216796875">
        <ele>4</ele>
        <time>2026-07-27T17:47:14.000Z</time>
        <extensions>
          <ns3:TrackPointExtension>
            <ns3:hr>184</ns3:hr>
            <ns3:cad>90</ns3:cad>
          </ns3:TrackPointExtension>
        </extensions>
      </trkpt>
      <trkpt lat="52.081732191145420074462890625" lon="4.32138263247907161712646484375">
        <ele>4</ele>
        <time>2026-07-27T17:47:15.000Z</time>
        <extensions>
          <ns3:TrackPointExtension>
            <ns3:hr>185</ns3:hr>
            <ns3:cad>90</ns3:cad>
          </ns3:TrackPointExtension>
        </extensions>
      </trkpt>
      <trkpt lat="52.08174836821854114532470703125" lon="4.32143728248775005340576171875">
        <ele>4</ele>
        <time>2026-07-27T17:47:16.000Z</time>
        <extensions>
          <ns3:TrackPointExtension>
            <ns3:hr>185</ns3:hr>
            <ns3:cad>90</ns3:cad>
          </ns3:TrackPointExtension>
        </extensions>
      </trkpt>
      <trkpt lat="52.0817601867020130157470703125" lon="4.32148304767906665802001953125">
        <ele>3.7999999523162841796875</ele>
        <time>2026-07-27T17:47:17.000Z</time>
        <extensions>
          <ns3:TrackPointExtension>
            <ns3:hr>185</ns3:hr>
            <ns3:cad>90</ns3:cad>
          </ns3:TrackPointExtension>
        </extensions>
      </trkpt>
      <trkpt lat="52.081767730414867401123046875" lon="4.3215210177004337310791015625">
        <ele>3.7999999523162841796875</ele>
        <time>2026-07-27T17:47:18.000Z</time>
        <extensions>
          <ns3:TrackPointExtension>
            <ns3:hr>186</ns3:hr>
            <ns3:cad>87</ns3:cad>
          </ns3:TrackPointExtension>
        </extensions>
      </trkpt>
      <trkpt lat="52.08177636377513408660888671875" lon="4.32157172821462154388427734375">
        <ele>3.7999999523162841796875</ele>
        <time>2026-07-27T17:47:19.000Z</time>
        <extensions>
          <ns3:TrackPointExtension>
            <ns3:hr>186</ns3:hr>
            <ns3:cad>87</ns3:cad>
          </ns3:TrackPointExtension>
        </extensions>
      </trkpt>
      <trkpt lat="52.081787176430225372314453125" lon="4.32161548174917697906494140625">
        <ele>3.7999999523162841796875</ele>
        <time>2026-07-27T17:47:20.000Z</time>
        <extensions>
          <ns3:TrackPointExtension>
            <ns3:hr>186</ns3:hr>
            <ns3:cad>87</ns3:cad>
          </ns3:TrackPointExtension>
        </extensions>
      </trkpt>
      <trkpt lat="52.08178843371570110321044921875" lon="4.3216423876583576202392578125">
        <ele>3.599999904632568359375</ele>
        <time>2026-07-27T17:47:21.000Z</time>
        <extensions>
          <ns3:TrackPointExtension>
            <ns3:hr>186</ns3:hr>
            <ns3:cad>84</ns3:cad>
          </ns3:TrackPointExtension>
        </extensions>
      </trkpt>
      <trkpt lat="52.08178474567830562591552734375" lon="4.321666024625301361083984375">
        <ele>3.7999999523162841796875</ele>
        <time>2026-07-27T17:47:22.000Z</time>
        <extensions>
          <ns3:TrackPointExtension>
            <ns3:hr>185</ns3:hr>
            <ns3:cad>84</ns3:cad>
          </ns3:TrackPointExtension>
        </extensions>
      </trkpt>
      <trkpt lat="52.0817766152322292327880859375" lon="4.321684800088405609130859375">
        <ele>3.7999999523162841796875</ele>
        <time>2026-07-27T17:47:23.000Z</time>
        <extensions>
          <ns3:TrackPointExtension>
            <ns3:hr>185</ns3:hr>
            <ns3:cad>83</ns3:cad>
          </ns3:TrackPointExtension>
        </extensions>
      </trkpt>
      <trkpt lat="52.081767730414867401123046875" lon="4.3217030726373195648193359375">
        <ele>3.7999999523162841796875</ele>
        <time>2026-07-27T17:47:24.000Z</time>
        <extensions>
          <ns3:TrackPointExtension>
            <ns3:hr>184</ns3:hr>
            <ns3:cad>83</ns3:cad>
          </ns3:TrackPointExtension>
        </extensions>
      </trkpt>
      <trkpt lat="52.0817627012729644775390625" lon="4.32172126136720180511474609375">
        <ele>3.7999999523162841796875</ele>
        <time>2026-07-27T17:47:25.000Z</time>
        <extensions>
          <ns3:TrackPointExtension>
            <ns3:hr>184</ns3:hr>
            <ns3:cad>83</ns3:cad>
          </ns3:TrackPointExtension>
        </extensions>
      </trkpt>
      <trkpt lat="52.08175825886428356170654296875" lon="4.32173785753548145294189453125">
        <ele>3.7999999523162841796875</ele>
        <time>2026-07-27T17:47:26.000Z</time>
        <extensions>
          <ns3:TrackPointExtension>
            <ns3:hr>184</ns3:hr>
            <ns3:cad>83</ns3:cad>
          </ns3:TrackPointExtension>
        </extensions>
      </trkpt>
      <trkpt lat="52.08174996078014373779296875" lon="4.321755878627300262451171875">
        <ele>3.7999999523162841796875</ele>
        <time>2026-07-27T17:47:27.000Z</time>
        <extensions>
          <ns3:TrackPointExtension>
            <ns3:hr>183</ns3:hr>
            <ns3:cad>83</ns3:cad>
          </ns3:TrackPointExtension>
        </extensions>
      </trkpt>
      <trkpt lat="52.08174015395343303680419921875" lon="4.32177431881427764892578125">
        <ele>3.599999904632568359375</ele>
        <time>2026-07-27T17:47:28.000Z</time>
        <extensions>
          <ns3:TrackPointExtension>
            <ns3:hr>182</ns3:hr>
            <ns3:cad>83</ns3:cad>
          </ns3:TrackPointExtension>
        </extensions>
      </trkpt>
      <trkpt lat="52.0817249827086925506591796875" lon="4.3217962794005870819091796875">
        <ele>3.599999904632568359375</ele>
        <time>2026-07-27T17:47:29.000Z</time>
        <extensions>
          <ns3:TrackPointExtension>
            <ns3:hr>181</ns3:hr>
            <ns3:cad>60</ns3:cad>
          </ns3:TrackPointExtension>
        </extensions>
      </trkpt>
      <trkpt lat="52.081695981323719024658203125" lon="4.321834333240985870361328125">
        <ele>3.599999904632568359375</ele>
        <time>2026-07-27T17:47:30.000Z</time>
        <extensions>
          <ns3:TrackPointExtension>
            <ns3:hr>180</ns3:hr>
            <ns3:cad>60</ns3:cad>
          </ns3:TrackPointExtension>
        </extensions>
      </trkpt>
      <trkpt lat="52.0816830731928348541259765625" lon="4.32186291553080081939697265625">
        <ele>3.599999904632568359375</ele>
        <time>2026-07-27T17:47:31.000Z</time>
        <extensions>
          <ns3:TrackPointExtension>
            <ns3:hr>179</ns3:hr>
            <ns3:cad>60</ns3:cad>
          </ns3:TrackPointExtension>
        </extensions>
      </trkpt>
      <trkpt lat="52.08165851421654224395751953125" lon="4.3219042383134365081787109375">
        <ele>3.599999904632568359375</ele>
        <time>2026-07-27T17:47:32.000Z</time>
        <extensions>
          <ns3:TrackPointExtension>
            <ns3:hr>178</ns3:hr>
            <ns3:cad>0</ns3:cad>
          </ns3:TrackPointExtension>
        </extensions>
      </trkpt>
      <trkpt lat="52.08163320086896419525146484375" lon="4.3219484947621822357177734375">
        <ele>3.7999999523162841796875</ele>
        <time>2026-07-27T17:47:33.000Z</time>
        <extensions>
          <ns3:TrackPointExtension>
            <ns3:hr>178</ns3:hr>
            <ns3:cad>0</ns3:cad>
          </ns3:TrackPointExtension>
        </extensions>
      </trkpt>
      <trkpt lat="52.0816049538552761077880859375" lon="4.32199149392545223236083984375">
        <ele>3.7999999523162841796875</ele>
        <time>2026-07-27T17:47:34.000Z</time>
        <extensions>
          <ns3:TrackPointExtension>
            <ns3:hr>177</ns3:hr>
            <ns3:cad>0</ns3:cad>
          </ns3:TrackPointExtension>
        </extensions>
      </trkpt>
      <trkpt lat="52.08157536573708057403564453125" lon="4.32203583419322967529296875">
        <ele>3.7999999523162841796875</ele>
        <time>2026-07-27T17:47:35.000Z</time>
        <extensions>
          <ns3:TrackPointExtension>
            <ns3:hr>176</ns3:hr>
            <ns3:cad>0</ns3:cad>
          </ns3:TrackPointExtension>
        </extensions>
      </trkpt>
      <trkpt lat="52.08154753781855106353759765625" lon="4.3220772407948970794677734375">
        <ele>3.7999999523162841796875</ele>
        <time>2026-07-27T17:47:36.000Z</time>
        <extensions>
          <ns3:TrackPointExtension>
            <ns3:hr>176</ns3:hr>
            <ns3:cad>83</ns3:cad>
          </ns3:TrackPointExtension>
        </extensions>
      </trkpt>
      <trkpt lat="52.08151551894843578338623046875" lon="4.32212241925299167633056640625">
        <ele>3.7999999523162841796875</ele>
        <time>2026-07-27T17:47:37.000Z</time>
        <extensions>
          <ns3:TrackPointExtension>
            <ns3:hr>176</ns3:hr>
            <ns3:cad>84</ns3:cad>
          </ns3:TrackPointExtension>
        </extensions>
      </trkpt>
      <trkpt lat="52.08148576319217681884765625" lon="4.3221603892743587493896484375">
        <ele>3.7999999523162841796875</ele>
        <time>2026-07-27T17:47:38.000Z</time>
        <extensions>
          <ns3:TrackPointExtension>
            <ns3:hr>176</ns3:hr>
            <ns3:cad>85</ns3:cad>
          </ns3:TrackPointExtension>
        </extensions>
      </trkpt>
      <trkpt lat="52.081447876989841461181640625" lon="4.32219718582928180694580078125">
        <ele>3.7999999523162841796875</ele>
        <time>2026-07-27T17:47:39.000Z</time>
        <extensions>
          <ns3:TrackPointExtension>
            <ns3:hr>175</ns3:hr>
            <ns3:cad>85</ns3:cad>
          </ns3:TrackPointExtension>
        </extensions>
      </trkpt>
      <trkpt lat="52.08141845650970935821533203125" lon="4.32221998460590839385986328125">
        <ele>3.7999999523162841796875</ele>
        <time>2026-07-27T17:47:40.000Z</time>
        <extensions>
          <ns3:TrackPointExtension>
            <ns3:hr>175</ns3:hr>
            <ns3:cad>87</ns3:cad>
          </ns3:TrackPointExtension>
        </extensions>
      </trkpt>
      <trkpt lat="52.08139012567698955535888671875" lon="4.32225770317018032073974609375">
        <ele>4</ele>
        <time>2026-07-27T17:47:41.000Z</time>
        <extensions>
          <ns3:TrackPointExtension>
            <ns3:hr>175</ns3:hr>
            <ns3:cad>87</ns3:cad>
          </ns3:TrackPointExtension>
        </extensions>
      </trkpt>
      <trkpt lat="52.081360705196857452392578125" lon="4.32228737510740756988525390625">
        <ele>4</ele>
        <time>2026-07-27T17:47:42.000Z</time>
        <extensions>
          <ns3:TrackPointExtension>
            <ns3:hr>174</ns3:hr>
            <ns3:cad>88</ns3:cad>
          </ns3:TrackPointExtension>
        </extensions>
      </trkpt>
      <trkpt lat="52.0813362300395965576171875" lon="4.3223223276436328887939453125">
        <ele>4</ele>
        <time>2026-07-27T17:47:43.000Z</time>
        <extensions>
          <ns3:TrackPointExtension>
            <ns3:hr>174</ns3:hr>
            <ns3:cad>88</ns3:cad>
          </ns3:TrackPointExtension>
        </extensions>
      </trkpt>
      <trkpt lat="52.08131485618650913238525390625" lon="4.32234772481024265289306640625">
        <ele>4</ele>
        <time>2026-07-27T17:47:44.000Z</time>
        <extensions>
          <ns3:TrackPointExtension>
            <ns3:hr>174</ns3:hr>
            <ns3:cad>87</ns3:cad>
          </ns3:TrackPointExtension>
        </extensions>
      </trkpt>
      <trkpt lat="52.08129306323826313018798828125" lon="4.32236733846366405487060546875">
        <ele>4</ele>
        <time>2026-07-27T17:47:45.000Z</time>
        <extensions>
          <ns3:TrackPointExtension>
            <ns3:hr>174</ns3:hr>
            <ns3:cad>85</ns3:cad>
          </ns3:TrackPointExtension>
        </extensions>
      </trkpt>
    </trkseg>
  </trk>
</gpx>
