<gpx xmlns:ns3="http://www.garmin.com/xmlschemas/TrackPointExtension/v1" xmlns="http://www.topografix.com/GPX/1/1" xmlns:xsi="http://www.w3.org/2001/XMLSchema-instance" xmlns:ns2="http://www.garmin.com/xmlschemas/GpxExtensions/v3" creator="Garmin Connect" version="1.1" xsi:schemaLocation="http://www.topografix.com/GPX/1/1 http://www.topografix.com/GPX/11.xsd">
  <extensions>
<distance>594.85</distance>
<average_hr>118.0</average_hr>
<average_speed>2.7239999771118164</average_speed>
<start_time>2026-08-06T03:10:22+00:00</start_time>
<end_time>2026-08-06T03:14:00.382000+00:00</end_time>
<moving_time>218.0</moving_time>
<elapsed_time>265.813</elapsed_time>
</extensions>
<metadata>
    <link href="connect.garmin.com">
      <text>Garmin Connect</text>
    </link>
    <time>2026-08-06T03:10:22.000Z</time>
  </metadata>
  <trk>
    <name>呼伦贝尔市 跑步</name>
    <type>running</type>
    <trkseg>
      <trkpt lat="49.4946943223476409912109375" lon="118.04337291978299617767333984375">
        <ele>544.20001220703125</ele>
        <time>2026-08-06T03:10:22.000Z</time>
        <extensions>
          <ns3:TrackPointExtension>
            <ns3:hr>92</ns3:hr>
            <ns3:cad>51</ns3:cad>
          </ns3:TrackPointExtension>
        </extensions>
      </trkpt>
      <trkpt lat="49.49473581276834011077880859375" lon="118.0433902703225612640380859375">
        <ele>544</ele>
        <time>2026-08-06T03:10:23.000Z</time>
        <extensions>
          <ns3:TrackPointExtension>
            <ns3:hr>92</ns3:hr>
            <ns3:cad>51</ns3:cad>
          </ns3:TrackPointExtension>
        </extensions>
      </trkpt>
      <trkpt lat="49.4947571866214275360107421875" lon="118.0433637835085391998291015625">
        <ele>544</ele>
        <time>2026-08-06T03:10:24.000Z</time>
        <extensions>
          <ns3:TrackPointExtension>
            <ns3:hr>92</ns3:hr>
            <ns3:cad>51</ns3:cad>
          </ns3:TrackPointExtension>
        </extensions>
      </trkpt>
      <trkpt lat="49.49477822519838809967041015625" lon="118.043339811265468597412109375">
        <ele>543.79998779296875</ele>
        <time>2026-08-06T03:10:25.000Z</time>
        <extensions>
          <ns3:TrackPointExtension>
            <ns3:hr>92</ns3:hr>
            <ns3:cad>51</ns3:cad>
          </ns3:TrackPointExtension>
        </extensions>
      </trkpt>
      <trkpt lat="49.4948054663836956024169921875" lon="118.04332933388650417327880859375">
        <ele>543.79998779296875</ele>
        <time>2026-08-06T03:10:26.000Z</time>
        <extensions>
          <ns3:TrackPointExtension>
            <ns3:hr>91</ns3:hr>
            <ns3:cad>51</ns3:cad>
          </ns3:TrackPointExtension>
        </extensions>
      </trkpt>
      <trkpt lat="49.49483186937868595123291015625" lon="118.04332673549652099609375">
        <ele>543.5999755859375</ele>
        <time>2026-08-06T03:10:27.000Z</time>
        <extensions>
          <ns3:TrackPointExtension>
            <ns3:hr>91</ns3:hr>
            <ns3:cad>51</ns3:cad>
          </ns3:TrackPointExtension>
        </extensions>
      </trkpt>
      <trkpt lat="49.494858272373676300048828125" lon="118.04331131279468536376953125">
        <ele>543.79998779296875</ele>
        <time>2026-08-06T03:10:28.000Z</time>
        <extensions>
          <ns3:TrackPointExtension>
            <ns3:hr>91</ns3:hr>
            <ns3:cad>83</ns3:cad>
          </ns3:TrackPointExtension>
        </extensions>
      </trkpt>
      <trkpt lat="49.4948788918554782867431640625" lon="118.04328675381839275360107421875">
        <ele>544.20001220703125</ele>
        <time>2026-08-06T03:10:29.000Z</time>
        <extensions>
          <ns3:TrackPointExtension>
            <ns3:hr>91</ns3:hr>
            <ns3:cad>83</ns3:cad>
          </ns3:TrackPointExtension>
        </extensions>
      </trkpt>
      <trkpt lat="49.49488249607384204864501953125" lon="118.04326663725078105926513671875">
        <ele>544.5999755859375</ele>
        <time>2026-08-06T03:10:30.000Z</time>
        <extensions>
          <ns3:TrackPointExtension>
            <ns3:hr>92</ns3:hr>
            <ns3:cad>85</ns3:cad>
          </ns3:TrackPointExtension>
        </extensions>
      </trkpt>
      <trkpt lat="49.4948745332658290863037109375" lon="118.043231852352619171142578125">
        <ele>544.79998779296875</ele>
        <time>2026-08-06T03:10:31.000Z</time>
        <extensions>
          <ns3:TrackPointExtension>
            <ns3:hr>94</ns3:hr>
            <ns3:cad>85</ns3:cad>
          </ns3:TrackPointExtension>
        </extensions>
      </trkpt>
      <trkpt lat="49.494880735874176025390625" lon="118.0431834049522876739501953125">
        <ele>545</ele>
        <time>2026-08-06T03:10:32.000Z</time>
        <extensions>
          <ns3:TrackPointExtension>
            <ns3:hr>96</ns3:hr>
            <ns3:cad>84</ns3:cad>
          </ns3:TrackPointExtension>
        </extensions>
      </trkpt>
      <trkpt lat="49.4948835857212543487548828125" lon="118.043144010007381439208984375">
        <ele>545</ele>
        <time>2026-08-06T03:10:33.000Z</time>
        <extensions>
          <ns3:TrackPointExtension>
            <ns3:hr>97</ns3:hr>
            <ns3:cad>84</ns3:cad>
          </ns3:TrackPointExtension>
        </extensions>
      </trkpt>
      <trkpt lat="49.4948882795870304107666015625" lon="118.0430985800921916961669921875">
        <ele>545</ele>
        <time>2026-08-06T03:10:34.000Z</time>
        <extensions>
          <ns3:TrackPointExtension>
            <ns3:hr>97</ns3:hr>
            <ns3:cad>83</ns3:cad>
          </ns3:TrackPointExtension>
        </extensions>
      </trkpt>
      <trkpt lat="49.494890458881855010986328125" lon="118.0430519767105579376220703125">
        <ele>545</ele>
        <time>2026-08-06T03:10:35.000Z</time>
        <extensions>
          <ns3:TrackPointExtension>
            <ns3:hr>98</ns3:hr>
            <ns3:cad>83</ns3:cad>
          </ns3:TrackPointExtension>
        </extensions>
      </trkpt>
      <trkpt lat="49.49488584883511066436767578125" lon="118.0430144257843494415283203125">
        <ele>544.79998779296875</ele>
        <time>2026-08-06T03:10:36.000Z</time>
        <extensions>
          <ns3:TrackPointExtension>
            <ns3:hr>98</ns3:hr>
            <ns3:cad>83</ns3:cad>
          </ns3:TrackPointExtension>
        </extensions>
      </trkpt>
      <trkpt lat="49.494892470538616180419921875" lon="118.04296153597533702850341796875">
        <ele>545</ele>
        <time>2026-08-06T03:10:37.000Z</time>
        <extensions>
          <ns3:TrackPointExtension>
            <ns3:hr>99</ns3:hr>
            <ns3:cad>83</ns3:cad>
          </ns3:TrackPointExtension>
        </extensions>
      </trkpt>
      <trkpt lat="49.49489389546215534210205078125" lon="118.0429215542972087860107421875">
        <ele>545</ele>
        <time>2026-08-06T03:10:38.000Z</time>
        <extensions>
          <ns3:TrackPointExtension>
            <ns3:hr>100</ns3:hr>
            <ns3:cad>81</ns3:cad>
          </ns3:TrackPointExtension>
        </extensions>
      </trkpt>
      <trkpt lat="49.4948953203856945037841796875" lon="118.0428866855800151824951171875">
        <ele>545</ele>
        <time>2026-08-06T03:10:39.000Z</time>
        <extensions>
          <ns3:TrackPointExtension>
            <ns3:hr>101</ns3:hr>
            <ns3:cad>83</ns3:cad>
          </ns3:TrackPointExtension>
        </extensions>
      </trkpt>
      <trkpt lat="49.4949013553559780120849609375" lon="118.0428394116461277008056640625">
        <ele>545.20001220703125</ele>
        <time>2026-08-06T03:10:40.000Z</time>
        <extensions>
          <ns3:TrackPointExtension>
            <ns3:hr>102</ns3:hr>
            <ns3:cad>83</ns3:cad>
          </ns3:TrackPointExtension>
        </extensions>
      </trkpt>
      <trkpt lat="49.494899846613407135009765625" lon="118.04280865006148815155029296875">
        <ele>545.4000244140625</ele>
        <time>2026-08-06T03:10:41.000Z</time>
        <extensions>
          <ns3:TrackPointExtension>
            <ns3:hr>104</ns3:hr>
            <ns3:cad>83</ns3:cad>
          </ns3:TrackPointExtension>
        </extensions>
      </trkpt>
      <trkpt lat="49.49489205144345760345458984375" lon="118.04277093149721622467041015625">
        <ele>545.5999755859375</ele>
        <time>2026-08-06T03:10:42.000Z</time>
        <extensions>
          <ns3:TrackPointExtension>
            <ns3:hr>105</ns3:hr>
            <ns3:cad>82</ns3:cad>
          </ns3:TrackPointExtension>
        </extensions>
      </trkpt>
      <trkpt lat="49.4948855973780155181884765625" lon="118.042724244296550750732421875">
        <ele>545.79998779296875</ele>
        <time>2026-08-06T03:10:43.000Z</time>
        <extensions>
          <ns3:TrackPointExtension>
            <ns3:hr>105</ns3:hr>
            <ns3:cad>81</ns3:cad>
          </ns3:TrackPointExtension>
        </extensions>
      </trkpt>
      <trkpt lat="49.494877718389034271240234375" lon="118.0426885373890399932861328125">
        <ele>545.79998779296875</ele>
        <time>2026-08-06T03:10:44.000Z</time>
        <extensions>
          <ns3:TrackPointExtension>
            <ns3:hr>106</ns3:hr>
            <ns3:cad>80</ns3:cad>
          </ns3:TrackPointExtension>
        </extensions>
      </trkpt>
      <trkpt lat="49.49487277306616306304931640625" lon="118.04263296537101268768310546875">
        <ele>546</ele>
        <time>2026-08-06T03:10:45.000Z</time>
        <extensions>
          <ns3:TrackPointExtension>
            <ns3:hr>107</ns3:hr>
            <ns3:cad>80</ns3:cad>
          </ns3:TrackPointExtension>
        </extensions>
      </trkpt>
      <trkpt lat="49.4948641397058963775634765625" lon="118.04259457625448703765869140625">
        <ele>545.79998779296875</ele>
        <time>2026-08-06T03:10:46.000Z</time>
        <extensions>
          <ns3:TrackPointExtension>
            <ns3:hr>108</ns3:hr>
            <ns3:cad>83</ns3:cad>
          </ns3:TrackPointExtension>
        </extensions>
      </trkpt>
      <trkpt lat="49.494859278202056884765625" lon="118.042538166046142578125">
        <ele>545.79998779296875</ele>
        <time>2026-08-06T03:10:47.000Z</time>
        <extensions>
          <ns3:TrackPointExtension>
            <ns3:hr>109</ns3:hr>
            <ns3:cad>84</ns3:cad>
          </ns3:TrackPointExtension>
        </extensions>
      </trkpt>
      <trkpt lat="49.4948560930788516998291015625" lon="118.04249189794063568115234375">
        <ele>546</ele>
        <time>2026-08-06T03:10:48.000Z</time>
        <extensions>
          <ns3:TrackPointExtension>
            <ns3:hr>111</ns3:hr>
            <ns3:cad>84</ns3:cad>
          </ns3:TrackPointExtension>
        </extensions>
      </trkpt>
      <trkpt lat="49.494855590164661407470703125" lon="118.04243917576968669891357421875">
        <ele>546</ele>
        <time>2026-08-06T03:10:49.000Z</time>
        <extensions>
          <ns3:TrackPointExtension>
            <ns3:hr>112</ns3:hr>
            <ns3:cad>84</ns3:cad>
          </ns3:TrackPointExtension>
        </extensions>
      </trkpt>
      <trkpt lat="49.49485584162175655364990234375" lon="118.04238687269389629364013671875">
        <ele>546.20001220703125</ele>
        <time>2026-08-06T03:10:50.000Z</time>
        <extensions>
          <ns3:TrackPointExtension>
            <ns3:hr>114</ns3:hr>
            <ns3:cad>85</ns3:cad>
          </ns3:TrackPointExtension>
        </extensions>
      </trkpt>
      <trkpt lat="49.49484762735664844512939453125" lon="118.04234764538705348968505859375">
        <ele>546.20001220703125</ele>
        <time>2026-08-06T03:10:51.000Z</time>
        <extensions>
          <ns3:TrackPointExtension>
            <ns3:hr>115</ns3:hr>
            <ns3:cad>86</ns3:cad>
          </ns3:TrackPointExtension>
        </extensions>
      </trkpt>
      <trkpt lat="49.49484511278569698333740234375" lon="118.042291738092899322509765625">
        <ele>546.4000244140625</ele>
        <time>2026-08-06T03:10:52.000Z</time>
        <extensions>
          <ns3:TrackPointExtension>
            <ns3:hr>116</ns3:hr>
            <ns3:cad>86</ns3:cad>
          </ns3:TrackPointExtension>
        </extensions>
      </trkpt>
      <trkpt lat="49.49483740143477916717529296875" lon="118.04225678555667400360107421875">
        <ele>546.5999755859375</ele>
        <time>2026-08-06T03:10:53.000Z</time>
        <extensions>
          <ns3:TrackPointExtension>
            <ns3:hr>118</ns3:hr>
            <ns3:cad>87</ns3:cad>
          </ns3:TrackPointExtension>
        </extensions>
      </trkpt>
      <trkpt lat="49.494831450283527374267578125" lon="118.04219660349190235137939453125">
        <ele>546.5999755859375</ele>
        <time>2026-08-06T03:10:54.000Z</time>
        <extensions>
          <ns3:TrackPointExtension>
            <ns3:hr>119</ns3:hr>
            <ns3:cad>87</ns3:cad>
          </ns3:TrackPointExtension>
        </extensions>
      </trkpt>
      <trkpt lat="49.49482533149421215057373046875" lon="118.04215452633798122406005859375">
        <ele>546.79998779296875</ele>
        <time>2026-08-06T03:10:55.000Z</time>
        <extensions>
          <ns3:TrackPointExtension>
            <ns3:hr>120</ns3:hr>
            <ns3:cad>87</ns3:cad>
          </ns3:TrackPointExtension>
        </extensions>
      </trkpt>
      <trkpt lat="49.49481778778135776519775390625" lon="118.04210339672863483428955078125">
        <ele>546.79998779296875</ele>
        <time>2026-08-06T03:10:56.000Z</time>
        <extensions>
          <ns3:TrackPointExtension>
            <ns3:hr>121</ns3:hr>
            <ns3:cad>86</ns3:cad>
          </ns3:TrackPointExtension>
        </extensions>
      </trkpt>
      <trkpt lat="49.49480605311691761016845703125" lon="118.0420565418899059295654296875">
        <ele>546.79998779296875</ele>
        <time>2026-08-06T03:10:57.000Z</time>
        <extensions>
          <ns3:TrackPointExtension>
            <ns3:hr>122</ns3:hr>
            <ns3:cad>86</ns3:cad>
          </ns3:TrackPointExtension>
        </extensions>
      </trkpt>
      <trkpt lat="49.49479197151958942413330078125" lon="118.042034246027469635009765625">
        <ele>546.79998779296875</ele>
        <time>2026-08-06T03:10:58.000Z</time>
        <extensions>
          <ns3:TrackPointExtension>
            <ns3:hr>122</ns3:hr>
            <ns3:cad>85</ns3:cad>
          </ns3:TrackPointExtension>
        </extensions>
      </trkpt>
      <trkpt lat="49.49475861154496669769287109375" lon="118.04201421327888965606689453125">
        <ele>547</ele>
        <time>2026-08-06T03:10:59.000Z</time>
        <extensions>
          <ns3:TrackPointExtension>
            <ns3:hr>123</ns3:hr>
            <ns3:cad>85</ns3:cad>
          </ns3:TrackPointExtension>
        </extensions>
      </trkpt>
      <trkpt lat="49.49472709558904170989990234375" lon="118.04200935177505016326904296875">
        <ele>547</ele>
        <time>2026-08-06T03:11:00.000Z</time>
        <extensions>
          <ns3:TrackPointExtension>
            <ns3:hr>124</ns3:hr>
            <ns3:cad>84</ns3:cad>
          </ns3:TrackPointExtension>
        </extensions>
      </trkpt>
      <trkpt lat="49.49470027349889278411865234375" lon="118.04201538674533367156982421875">
        <ele>546.79998779296875</ele>
        <time>2026-08-06T03:11:01.000Z</time>
        <extensions>
          <ns3:TrackPointExtension>
            <ns3:hr>125</ns3:hr>
            <ns3:cad>84</ns3:cad>
          </ns3:TrackPointExtension>
        </extensions>
      </trkpt>
      <trkpt lat="49.49466858990490436553955078125" lon="118.04202443920075893402099609375">
        <ele>546.79998779296875</ele>
        <time>2026-08-06T03:11:02.000Z</time>
        <extensions>
          <ns3:TrackPointExtension>
            <ns3:hr>125</ns3:hr>
            <ns3:cad>83</ns3:cad>
          </ns3:TrackPointExtension>
        </extensions>
      </trkpt>
      <trkpt lat="49.49466087855398654937744140625" lon="118.04204673506319522857666015625">
        <ele>546.5999755859375</ele>
        <time>2026-08-06T03:11:03.000Z</time>
        <extensions>
          <ns3:TrackPointExtension>
            <ns3:hr>126</ns3:hr>
            <ns3:cad>83</ns3:cad>
          </ns3:TrackPointExtension>
        </extensions>
      </trkpt>
      <trkpt lat="49.49465601705014705657958984375" lon="118.0420888960361480712890625">
        <ele>546.5999755859375</ele>
        <time>2026-08-06T03:11:04.000Z</time>
        <extensions>
          <ns3:TrackPointExtension>
            <ns3:hr>126</ns3:hr>
            <ns3:cad>83</ns3:cad>
          </ns3:TrackPointExtension>
        </extensions>
      </trkpt>
      <trkpt lat="49.494655765593051910400390625" lon="118.0421306379139423370361328125">
        <ele>546.4000244140625</ele>
        <time>2026-08-06T03:11:05.000Z</time>
        <extensions>
          <ns3:TrackPointExtension>
            <ns3:hr>127</ns3:hr>
            <ns3:cad>83</ns3:cad>
          </ns3:TrackPointExtension>
        </extensions>
      </trkpt>
      <trkpt lat="49.4946606270968914031982421875" lon="118.04217405617237091064453125">
        <ele>546.20001220703125</ele>
        <time>2026-08-06T03:11:06.000Z</time>
        <extensions>
          <ns3:TrackPointExtension>
            <ns3:hr>127</ns3:hr>
            <ns3:cad>83</ns3:cad>
          </ns3:TrackPointExtension>
        </extensions>
      </trkpt>
      <trkpt lat="49.494660459458827972412109375" lon="118.04222526960074901580810546875">
        <ele>546</ele>
        <time>2026-08-06T03:11:07.000Z</time>
        <extensions>
          <ns3:TrackPointExtension>
            <ns3:hr>128</ns3:hr>
            <ns3:cad>83</ns3:cad>
          </ns3:TrackPointExtension>
        </extensions>
      </trkpt>
      <trkpt lat="49.49466590769588947296142578125" lon="118.04225997067987918853759765625">
        <ele>545.79998779296875</ele>
        <time>2026-08-06T03:11:08.000Z</time>
        <extensions>
          <ns3:TrackPointExtension>
            <ns3:hr>128</ns3:hr>
            <ns3:cad>83</ns3:cad>
          </ns3:TrackPointExtension>
        </extensions>
      </trkpt>
      <trkpt lat="49.49467261321842670440673828125" lon="118.0423136986792087554931640625">
        <ele>545.5999755859375</ele>
        <time>2026-08-06T03:11:09.000Z</time>
        <extensions>
          <ns3:TrackPointExtension>
            <ns3:hr>128</ns3:hr>
            <ns3:cad>84</ns3:cad>
          </ns3:TrackPointExtension>
        </extensions>
      </trkpt>
      <trkpt lat="49.49467864818871021270751953125" lon="118.04235200397670269012451171875">
        <ele>545.4000244140625</ele>
        <time>2026-08-06T03:11:10.000Z</time>
        <extensions>
          <ns3:TrackPointExtension>
            <ns3:hr>127</ns3:hr>
            <ns3:cad>84</ns3:cad>
          </ns3:TrackPointExtension>
        </extensions>
      </trkpt>
      <trkpt lat="49.49468216858804225921630859375" lon="118.0424082465469837188720703125">
        <ele>545.4000244140625</ele>
        <time>2026-08-06T03:11:11.000Z</time>
        <extensions>
          <ns3:TrackPointExtension>
            <ns3:hr>127</ns3:hr>
            <ns3:cad>84</ns3:cad>
          </ns3:TrackPointExtension>
        </extensions>
      </trkpt>
      <trkpt lat="49.49468535371124744415283203125" lon="118.04245443083345890045166015625">
        <ele>545.4000244140625</ele>
        <time>2026-08-06T03:11:12.000Z</time>
        <extensions>
          <ns3:TrackPointExtension>
            <ns3:hr>127</ns3:hr>
            <ns3:cad>84</ns3:cad>
          </ns3:TrackPointExtension>
        </extensions>
      </trkpt>
      <trkpt lat="49.49468920938670635223388671875" lon="118.04250522516667842864990234375">
        <ele>545.4000244140625</ele>
        <time>2026-08-06T03:11:13.000Z</time>
        <extensions>
          <ns3:TrackPointExtension>
            <ns3:hr>127</ns3:hr>
            <ns3:cad>85</ns3:cad>
          </ns3:TrackPointExtension>
        </extensions>
      </trkpt>
      <trkpt lat="49.4946877844631671905517578125" lon="118.04255551658570766448974609375">
        <ele>545.4000244140625</ele>
        <time>2026-08-06T03:11:14.000Z</time>
        <extensions>
          <ns3:TrackPointExtension>
            <ns3:hr>128</ns3:hr>
            <ns3:cad>85</ns3:cad>
          </ns3:TrackPointExtension>
        </extensions>
      </trkpt>
      <trkpt lat="49.49469591490924358367919921875" lon="118.0425949953496456146240234375">
        <ele>545.4000244140625</ele>
        <time>2026-08-06T03:11:15.000Z</time>
        <extensions>
          <ns3:TrackPointExtension>
            <ns3:hr>127</ns3:hr>
            <ns3:cad>86</ns3:cad>
          </ns3:TrackPointExtension>
        </extensions>
      </trkpt>
      <trkpt lat="49.4946991838514804840087890625" lon="118.04265148937702178955078125">
        <ele>545.4000244140625</ele>
        <time>2026-08-06T03:11:16.000Z</time>
        <extensions>
          <ns3:TrackPointExtension>
            <ns3:hr>127</ns3:hr>
            <ns3:cad>86</ns3:cad>
          </ns3:TrackPointExtension>
        </extensions>
      </trkpt>
      <trkpt lat="49.49470597319304943084716796875" lon="118.042691387236118316650390625">
        <ele>545.20001220703125</ele>
        <time>2026-08-06T03:11:17.000Z</time>
        <extensions>
          <ns3:TrackPointExtension>
            <ns3:hr>128</ns3:hr>
            <ns3:cad>87</ns3:cad>
          </ns3:TrackPointExtension>
        </extensions>
      </trkpt>
      <trkpt lat="49.494717456400394439697265625" lon="118.0427361465990543365478515625">
        <ele>545.20001220703125</ele>
        <time>2026-08-06T03:11:18.000Z</time>
        <extensions>
          <ns3:TrackPointExtension>
            <ns3:hr>127</ns3:hr>
            <ns3:cad>87</ns3:cad>
          </ns3:TrackPointExtension>
        </extensions>
      </trkpt>
      <trkpt lat="49.49471913278102874755859375" lon="118.04278559982776641845703125">
        <ele>545.20001220703125</ele>
        <time>2026-08-06T03:11:19.000Z</time>
        <extensions>
          <ns3:TrackPointExtension>
            <ns3:hr>127</ns3:hr>
            <ns3:cad>87</ns3:cad>
          </ns3:TrackPointExtension>
        </extensions>
      </trkpt>
      <trkpt lat="49.49472449719905853271484375" lon="118.0428256653249263763427734375">
        <ele>545.4000244140625</ele>
        <time>2026-08-06T03:11:20.000Z</time>
        <extensions>
          <ns3:TrackPointExtension>
            <ns3:hr>128</ns3:hr>
            <ns3:cad>87</ns3:cad>
          </ns3:TrackPointExtension>
        </extensions>
      </trkpt>
      <trkpt lat="49.49472374282777309417724609375" lon="118.04288190789520740509033203125">
        <ele>545.4000244140625</ele>
        <time>2026-08-06T03:11:21.000Z</time>
        <extensions>
          <ns3:TrackPointExtension>
            <ns3:hr>128</ns3:hr>
            <ns3:cad>84</ns3:cad>
          </ns3:TrackPointExtension>
        </extensions>
      </trkpt>
      <trkpt lat="49.4947273470461368560791015625" lon="118.04292331449687480926513671875">
        <ele>545.4000244140625</ele>
        <time>2026-08-06T03:11:22.000Z</time>
        <extensions>
          <ns3:TrackPointExtension>
            <ns3:hr>128</ns3:hr>
            <ns3:cad>84</ns3:cad>
          </ns3:TrackPointExtension>
        </extensions>
      </trkpt>
      <trkpt lat="49.4947333820164203643798828125" lon="118.04297067224979400634765625">
        <ele>545.20001220703125</ele>
        <time>2026-08-06T03:11:23.000Z</time>
        <extensions>
          <ns3:TrackPointExtension>
            <ns3:hr>127</ns3:hr>
            <ns3:cad>83</ns3:cad>
          </ns3:TrackPointExtension>
        </extensions>
      </trkpt>
      <trkpt lat="49.49473346583545207977294921875" lon="118.043024651706218719482421875">
        <ele>545.20001220703125</ele>
        <time>2026-08-06T03:11:24.000Z</time>
        <extensions>
          <ns3:TrackPointExtension>
            <ns3:hr>128</ns3:hr>
            <ns3:cad>83</ns3:cad>
          </ns3:TrackPointExtension>
        </extensions>
      </trkpt>
      <trkpt lat="49.4947404228150844573974609375" lon="118.043058849871158599853515625">
        <ele>545</ele>
        <time>2026-08-06T03:11:25.000Z</time>
        <extensions>
          <ns3:TrackPointExtension>
            <ns3:hr>128</ns3:hr>
            <ns3:cad>84</ns3:cad>
          </ns3:TrackPointExtension>
        </extensions>
      </trkpt>
      <trkpt lat="49.49474251829087734222412109375" lon="118.0431129969656467437744140625">
        <ele>544.79998779296875</ele>
        <time>2026-08-06T03:11:26.000Z</time>
        <extensions>
          <ns3:TrackPointExtension>
            <ns3:hr>127</ns3:hr>
            <ns3:cad>84</ns3:cad>
          </ns3:TrackPointExtension>
        </extensions>
      </trkpt>
      <trkpt lat="49.4947518222033977508544921875" lon="118.043147027492523193359375">
        <ele>544.79998779296875</ele>
        <time>2026-08-06T03:11:27.000Z</time>
        <extensions>
          <ns3:TrackPointExtension>
            <ns3:hr>127</ns3:hr>
            <ns3:cad>84</ns3:cad>
          </ns3:TrackPointExtension>
        </extensions>
      </trkpt>
      <trkpt lat="49.49475928209722042083740234375" lon="118.04318868555128574371337890625">
        <ele>544.4000244140625</ele>
        <time>2026-08-06T03:11:28.000Z</time>
        <extensions>
          <ns3:TrackPointExtension>
            <ns3:hr>127</ns3:hr>
            <ns3:cad>84</ns3:cad>
          </ns3:TrackPointExtension>
        </extensions>
      </trkpt>
      <trkpt lat="49.49475802481174468994140625" lon="118.0432368814945220947265625">
        <ele>544.4000244140625</ele>
        <time>2026-08-06T03:11:29.000Z</time>
        <extensions>
          <ns3:TrackPointExtension>
            <ns3:hr>126</ns3:hr>
            <ns3:cad>84</ns3:cad>
          </ns3:TrackPointExtension>
        </extensions>
      </trkpt>
      <trkpt lat="49.494763053953647613525390625" lon="118.04327401332557201385498046875">
        <ele>544.20001220703125</ele>
        <time>2026-08-06T03:11:30.000Z</time>
        <extensions>
          <ns3:TrackPointExtension>
            <ns3:hr>127</ns3:hr>
            <ns3:cad>84</ns3:cad>
          </ns3:TrackPointExtension>
        </extensions>
      </trkpt>
      <trkpt lat="49.4947685860097408294677734375" lon="118.0433061160147190093994140625">
        <ele>544</ele>
        <time>2026-08-06T03:11:31.000Z</time>
        <extensions>
          <ns3:TrackPointExtension>
            <ns3:hr>127</ns3:hr>
            <ns3:cad>83</ns3:cad>
          </ns3:TrackPointExtension>
        </extensions>
      </trkpt>
      <trkpt lat="49.4947716034948825836181640625" lon="118.04334341548383235931396484375">
        <ele>544.20001220703125</ele>
        <time>2026-08-06T03:11:32.000Z</time>
        <extensions>
          <ns3:TrackPointExtension>
            <ns3:hr>126</ns3:hr>
            <ns3:cad>82</ns3:cad>
          </ns3:TrackPointExtension>
        </extensions>
      </trkpt>
      <trkpt lat="49.49478375725448131561279296875" lon="118.04336722008883953094482421875">
        <ele>544.4000244140625</ele>
        <time>2026-08-06T03:11:33.000Z</time>
        <extensions>
          <ns3:TrackPointExtension>
            <ns3:hr>126</ns3:hr>
            <ns3:cad>82</ns3:cad>
          </ns3:TrackPointExtension>
        </extensions>
      </trkpt>
      <trkpt lat="49.494795911014080047607421875" lon="118.04341265000402927398681640625">
        <ele>544.5999755859375</ele>
        <time>2026-08-06T03:11:34.000Z</time>
        <extensions>
          <ns3:TrackPointExtension>
            <ns3:hr>126</ns3:hr>
            <ns3:cad>82</ns3:cad>
          </ns3:TrackPointExtension>
        </extensions>
      </trkpt>
      <trkpt lat="49.494805634021759033203125" lon="118.043453805148601531982421875">
        <ele>544.79998779296875</ele>
        <time>2026-08-06T03:11:35.000Z</time>
        <extensions>
          <ns3:TrackPointExtension>
            <ns3:hr>127</ns3:hr>
            <ns3:cad>81</ns3:cad>
          </ns3:TrackPointExtension>
        </extensions>
      </trkpt>
      <trkpt lat="49.49481611140072345733642578125" lon="118.0434930324554443359375">
        <ele>544.79998779296875</ele>
        <time>2026-08-06T03:11:36.000Z</time>
        <extensions>
          <ns3:TrackPointExtension>
            <ns3:hr>127</ns3:hr>
            <ns3:cad>81</ns3:cad>
          </ns3:TrackPointExtension>
        </extensions>
      </trkpt>
      <trkpt lat="49.49482466094195842742919921875" lon="118.0435471795499324798583984375">
        <ele>545</ele>
        <time>2026-08-06T03:11:37.000Z</time>
        <extensions>
          <ns3:TrackPointExtension>
            <ns3:hr>127</ns3:hr>
            <ns3:cad>81</ns3:cad>
          </ns3:TrackPointExtension>
        </extensions>
      </trkpt>
      <trkpt lat="49.4948235712945461273193359375" lon="118.0435954593122005462646484375">
        <ele>544.79998779296875</ele>
        <time>2026-08-06T03:11:38.000Z</time>
        <extensions>
          <ns3:TrackPointExtension>
            <ns3:hr>126</ns3:hr>
            <ns3:cad>81</ns3:cad>
          </ns3:TrackPointExtension>
        </extensions>
      </trkpt>
      <trkpt lat="49.49481192044913768768310546875" lon="118.043646253645420074462890625">
        <ele>544.79998779296875</ele>
        <time>2026-08-06T03:11:39.000Z</time>
        <extensions>
          <ns3:TrackPointExtension>
            <ns3:hr>126</ns3:hr>
            <ns3:cad>81</ns3:cad>
          </ns3:TrackPointExtension>
        </extensions>
      </trkpt>
      <trkpt lat="49.49481259100139141082763671875" lon="118.04368975572288036346435546875">
        <ele>544.79998779296875</ele>
        <time>2026-08-06T03:11:40.000Z</time>
        <extensions>
          <ns3:TrackPointExtension>
            <ns3:hr>126</ns3:hr>
            <ns3:cad>84</ns3:cad>
          </ns3:TrackPointExtension>
        </extensions>
      </trkpt>
      <trkpt lat="49.49482516385614871978759765625" lon="118.04372563026845455169677734375">
        <ele>544.79998779296875</ele>
        <time>2026-08-06T03:11:41.000Z</time>
        <extensions>
          <ns3:TrackPointExtension>
            <ns3:hr>127</ns3:hr>
            <ns3:cad>85</ns3:cad>
          </ns3:TrackPointExtension>
        </extensions>
      </trkpt>
      <trkpt lat="49.49483488686382770538330078125" lon="118.0437570624053478240966796875">
        <ele>544.79998779296875</ele>
        <time>2026-08-06T03:11:42.000Z</time>
        <extensions>
          <ns3:TrackPointExtension>
            <ns3:hr>127</ns3:hr>
            <ns3:cad>86</ns3:cad>
          </ns3:TrackPointExtension>
        </extensions>
      </trkpt>
      <trkpt lat="49.49484653770923614501953125" lon="118.04378631524741649627685546875">
        <ele>544.79998779296875</ele>
        <time>2026-08-06T03:11:43.000Z</time>
        <extensions>
          <ns3:TrackPointExtension>
            <ns3:hr>127</ns3:hr>
            <ns3:cad>86</ns3:cad>
          </ns3:TrackPointExtension>
        </extensions>
      </trkpt>
      <trkpt lat="49.4948445260524749755859375" lon="118.04382755421102046966552734375">
        <ele>544.79998779296875</ele>
        <time>2026-08-06T03:11:44.000Z</time>
        <extensions>
          <ns3:TrackPointExtension>
            <ns3:hr>127</ns3:hr>
            <ns3:cad>86</ns3:cad>
          </ns3:TrackPointExtension>
        </extensions>
      </trkpt>
      <trkpt lat="49.49484192766249179840087890625" lon="118.043859489262104034423828125">
        <ele>544.5999755859375</ele>
        <time>2026-08-06T03:11:45.000Z</time>
        <extensions>
          <ns3:TrackPointExtension>
            <ns3:hr>127</ns3:hr>
            <ns3:cad>86</ns3:cad>
          </ns3:TrackPointExtension>
        </extensions>
      </trkpt>
      <trkpt lat="49.49483446776866912841796875" lon="118.0438998900353908538818359375">
        <ele>544.5999755859375</ele>
        <time>2026-08-06T03:11:46.000Z</time>
        <extensions>
          <ns3:TrackPointExtension>
            <ns3:hr>127</ns3:hr>
            <ns3:cad>85</ns3:cad>
          </ns3:TrackPointExtension>
        </extensions>
      </trkpt>
      <trkpt lat="49.4948225654661655426025390625" lon="118.04393802769482135772705078125">
        <ele>544.5999755859375</ele>
        <time>2026-08-06T03:11:47.000Z</time>
        <extensions>
          <ns3:TrackPointExtension>
            <ns3:hr>127</ns3:hr>
            <ns3:cad>85</ns3:cad>
          </ns3:TrackPointExtension>
        </extensions>
      </trkpt>
      <trkpt lat="49.4948111660778522491455078125" lon="118.04397381842136383056640625">
        <ele>544.79998779296875</ele>
        <time>2026-08-06T03:11:48.000Z</time>
        <extensions>
          <ns3:TrackPointExtension>
            <ns3:hr>126</ns3:hr>
            <ns3:cad>84</ns3:cad>
          </ns3:TrackPointExtension>
        </extensions>
      </trkpt>
      <trkpt lat="49.4947887025773525238037109375" lon="118.0440105311572551727294921875">
        <ele>544.79998779296875</ele>
        <time>2026-08-06T03:11:49.000Z</time>
        <extensions>
          <ns3:TrackPointExtension>
            <ns3:hr>127</ns3:hr>
            <ns3:cad>84</ns3:cad>
          </ns3:TrackPointExtension>
        </extensions>
      </trkpt>
      <trkpt lat="49.49477889575064182281494140625" lon="118.04403676651418209075927734375">
        <ele>544.79998779296875</ele>
        <time>2026-08-06T03:11:50.000Z</time>
        <extensions>
          <ns3:TrackPointExtension>
            <ns3:hr>126</ns3:hr>
            <ns3:cad>83</ns3:cad>
          </ns3:TrackPointExtension>
        </extensions>
      </trkpt>
      <trkpt lat="49.49477554298937320709228515625" lon="118.04407264105975627899169921875">
        <ele>544.79998779296875</ele>
        <time>2026-08-06T03:11:51.000Z</time>
        <extensions>
          <ns3:TrackPointExtension>
            <ns3:hr>126</ns3:hr>
            <ns3:cad>83</ns3:cad>
          </ns3:TrackPointExtension>
        </extensions>
      </trkpt>
      <trkpt lat="49.4947799853980541229248046875" lon="118.04411019198596477508544921875">
        <ele>544.5999755859375</ele>
        <time>2026-08-06T03:11:52.000Z</time>
        <extensions>
          <ns3:TrackPointExtension>
            <ns3:hr>126</ns3:hr>
            <ns3:cad>83</ns3:cad>
          </ns3:TrackPointExtension>
        </extensions>
      </trkpt>
      <trkpt lat="49.494787193834781646728515625" lon="118.044137768447399139404296875">
        <ele>544.5999755859375</ele>
        <time>2026-08-06T03:11:53.000Z</time>
        <extensions>
          <ns3:TrackPointExtension>
            <ns3:hr>126</ns3:hr>
            <ns3:cad>84</ns3:cad>
          </ns3:TrackPointExtension>
        </extensions>
      </trkpt>
      <trkpt lat="49.49479959905147552490234375" lon="118.04417221806943416595458984375">
        <ele>544.5999755859375</ele>
        <time>2026-08-06T03:11:54.000Z</time>
        <extensions>
          <ns3:TrackPointExtension>
            <ns3:hr>126</ns3:hr>
            <ns3:cad>84</ns3:cad>
          </ns3:TrackPointExtension>
        </extensions>
      </trkpt>
      <trkpt lat="49.49481342919170856475830078125" lon="118.044203482568264007568359375">
        <ele>544.79998779296875</ele>
        <time>2026-08-06T03:11:55.000Z</time>
        <extensions>
          <ns3:TrackPointExtension>
            <ns3:hr>126</ns3:hr>
            <ns3:cad>84</ns3:cad>
          </ns3:TrackPointExtension>
        </extensions>
      </trkpt>
      <trkpt lat="49.49482298456132411956787109375" lon="118.0442277900874614715576171875">
        <ele>544.79998779296875</ele>
        <time>2026-08-06T03:11:56.000Z</time>
        <extensions>
          <ns3:TrackPointExtension>
            <ns3:hr>126</ns3:hr>
            <ns3:cad>83</ns3:cad>
          </ns3:TrackPointExtension>
        </extensions>
      </trkpt>
      <trkpt lat="49.4948343001306056976318359375" lon="118.04425670765340328216552734375">
        <ele>544.79998779296875</ele>
        <time>2026-08-06T03:11:57.000Z</time>
        <extensions>
          <ns3:TrackPointExtension>
            <ns3:hr>126</ns3:hr>
            <ns3:cad>83</ns3:cad>
          </ns3:TrackPointExtension>
        </extensions>
      </trkpt>
      <trkpt lat="49.494856931269168853759765625" lon="118.044265173375606536865234375">
        <ele>544.79998779296875</ele>
        <time>2026-08-06T03:11:58.000Z</time>
        <extensions>
          <ns3:TrackPointExtension>
            <ns3:hr>125</ns3:hr>
            <ns3:cad>83</ns3:cad>
          </ns3:TrackPointExtension>
        </extensions>
      </trkpt>
      <trkpt lat="49.49487830512225627899169921875" lon="118.04427213035523891448974609375">
        <ele>544.79998779296875</ele>
        <time>2026-08-06T03:11:59.000Z</time>
        <extensions>
          <ns3:TrackPointExtension>
            <ns3:hr>125</ns3:hr>
            <ns3:cad>83</ns3:cad>
          </ns3:TrackPointExtension>
        </extensions>
      </trkpt>
      <trkpt lat="49.4948956556618213653564453125" lon="118.04429811425507068634033203125">
        <ele>544.79998779296875</ele>
        <time>2026-08-06T03:12:00.000Z</time>
        <extensions>
          <ns3:TrackPointExtension>
            <ns3:hr>125</ns3:hr>
            <ns3:cad>81</ns3:cad>
          </ns3:TrackPointExtension>
        </extensions>
      </trkpt>
      <trkpt lat="49.49490479193627834320068359375" lon="118.04432024247944355010986328125">
        <ele>544.79998779296875</ele>
        <time>2026-08-06T03:12:01.000Z</time>
        <extensions>
          <ns3:TrackPointExtension>
            <ns3:hr>125</ns3:hr>
            <ns3:cad>80</ns3:cad>
          </ns3:TrackPointExtension>
        </extensions>
      </trkpt>
      <trkpt lat="49.494909234344959259033203125" lon="118.04434002377092838287353515625">
        <ele>544.5999755859375</ele>
        <time>2026-08-06T03:12:02.000Z</time>
        <extensions>
          <ns3:TrackPointExtension>
            <ns3:hr>126</ns3:hr>
            <ns3:cad>79</ns3:cad>
          </ns3:TrackPointExtension>
        </extensions>
      </trkpt>
      <trkpt lat="49.4949124194681644439697265625" lon="118.04436734877526760101318359375">
        <ele>544.5999755859375</ele>
        <time>2026-08-06T03:12:03.000Z</time>
        <extensions>
          <ns3:TrackPointExtension>
            <ns3:hr>125</ns3:hr>
            <ns3:cad>79</ns3:cad>
          </ns3:TrackPointExtension>
        </extensions>
      </trkpt>
      <trkpt lat="49.4949151016771793365478515625" lon="118.04440942592918872833251953125">
        <ele>544.5999755859375</ele>
        <time>2026-08-06T03:12:04.000Z</time>
        <extensions>
          <ns3:TrackPointExtension>
            <ns3:hr>125</ns3:hr>
            <ns3:cad>81</ns3:cad>
          </ns3:TrackPointExtension>
        </extensions>
      </trkpt>
      <trkpt lat="49.49492122046649456024169921875" lon="118.0444484017789363861083984375">
        <ele>544.5999755859375</ele>
        <time>2026-08-06T03:12:05.000Z</time>
        <extensions>
          <ns3:TrackPointExtension>
            <ns3:hr>125</ns3:hr>
            <ns3:cad>81</ns3:cad>
          </ns3:TrackPointExtension>
        </extensions>
      </trkpt>
      <trkpt lat="49.49493060819804668426513671875" lon="118.04448251612484455108642578125">
        <ele>544.4000244140625</ele>
        <time>2026-08-06T03:12:06.000Z</time>
        <extensions>
          <ns3:TrackPointExtension>
            <ns3:hr>126</ns3:hr>
            <ns3:cad>81</ns3:cad>
          </ns3:TrackPointExtension>
        </extensions>
      </trkpt>
      <trkpt lat="49.494936056435108184814453125" lon="118.0445295386016368865966796875">
        <ele>544.5999755859375</ele>
        <time>2026-08-06T03:12:07.000Z</time>
        <extensions>
          <ns3:TrackPointExtension>
            <ns3:hr>126</ns3:hr>
            <ns3:cad>81</ns3:cad>
          </ns3:TrackPointExtension>
        </extensions>
      </trkpt>
      <trkpt lat="49.49494988657534122467041015625" lon="118.04456214420497417449951171875">
        <ele>544.5999755859375</ele>
        <time>2026-08-06T03:12:08.000Z</time>
        <extensions>
          <ns3:TrackPointExtension>
            <ns3:hr>126</ns3:hr>
            <ns3:cad>81</ns3:cad>
          </ns3:TrackPointExtension>
        </extensions>
      </trkpt>
      <trkpt lat="49.4949590228497982025146484375" lon="118.0445872060954570770263671875">
        <ele>544.79998779296875</ele>
        <time>2026-08-06T03:12:09.000Z</time>
        <extensions>
          <ns3:TrackPointExtension>
            <ns3:hr>126</ns3:hr>
            <ns3:cad>81</ns3:cad>
          </ns3:TrackPointExtension>
        </extensions>
      </trkpt>
      <trkpt lat="49.4949630461633205413818359375" lon="118.0446101725101470947265625">
        <ele>544.79998779296875</ele>
        <time>2026-08-06T03:12:10.000Z</time>
        <extensions>
          <ns3:TrackPointExtension>
            <ns3:hr>126</ns3:hr>
            <ns3:cad>81</ns3:cad>
          </ns3:TrackPointExtension>
        </extensions>
      </trkpt>
      <trkpt lat="49.494966231286525726318359375" lon="118.04463364183902740478515625">
        <ele>545</ele>
        <time>2026-08-06T03:12:11.000Z</time>
        <extensions>
          <ns3:TrackPointExtension>
            <ns3:hr>126</ns3:hr>
            <ns3:cad>81</ns3:cad>
          </ns3:TrackPointExtension>
        </extensions>
      </trkpt>
      <trkpt lat="49.49496463872492313385009765625" lon="118.04466993547976016998291015625">
        <ele>545</ele>
        <time>2026-08-06T03:12:12.000Z</time>
        <extensions>
          <ns3:TrackPointExtension>
            <ns3:hr>125</ns3:hr>
            <ns3:cad>81</ns3:cad>
          </ns3:TrackPointExtension>
        </extensions>
      </trkpt>
      <trkpt lat="49.49497184716165065765380859375" lon="118.04470212198793888092041015625">
        <ele>545</ele>
        <time>2026-08-06T03:12:13.000Z</time>
        <extensions>
          <ns3:TrackPointExtension>
            <ns3:hr>125</ns3:hr>
            <ns3:cad>82</ns3:cad>
          </ns3:TrackPointExtension>
        </extensions>
      </trkpt>
      <trkpt lat="49.494981653988361358642578125" lon="118.04473481141030788421630859375">
        <ele>545.20001220703125</ele>
        <time>2026-08-06T03:12:14.000Z</time>
        <extensions>
          <ns3:TrackPointExtension>
            <ns3:hr>125</ns3:hr>
            <ns3:cad>82</ns3:cad>
          </ns3:TrackPointExtension>
        </extensions>
      </trkpt>
      <trkpt lat="49.4949791394174098968505859375" lon="118.04476498626172542572021484375">
        <ele>545</ele>
        <time>2026-08-06T03:12:15.000Z</time>
        <extensions>
          <ns3:TrackPointExtension>
            <ns3:hr>125</ns3:hr>
            <ns3:cad>82</ns3:cad>
          </ns3:TrackPointExtension>
        </extensions>
      </trkpt>
      <trkpt lat="49.4949687458574771881103515625" lon="118.04478426463901996612548828125">
        <ele>545</ele>
        <time>2026-08-06T03:12:16.000Z</time>
        <extensions>
          <ns3:TrackPointExtension>
            <ns3:hr>125</ns3:hr>
            <ns3:cad>82</ns3:cad>
          </ns3:TrackPointExtension>
        </extensions>
      </trkpt>
      <trkpt lat="49.4949586875736713409423828125" lon="118.04481108672916889190673828125">
        <ele>544.79998779296875</ele>
        <time>2026-08-06T03:12:17.000Z</time>
        <extensions>
          <ns3:TrackPointExtension>
            <ns3:hr>125</ns3:hr>
            <ns3:cad>82</ns3:cad>
          </ns3:TrackPointExtension>
        </extensions>
      </trkpt>
      <trkpt lat="49.49494284577667713165283203125" lon="118.044845201075077056884765625">
        <ele>544.5999755859375</ele>
        <time>2026-08-06T03:12:18.000Z</time>
        <extensions>
          <ns3:TrackPointExtension>
            <ns3:hr>125</ns3:hr>
            <ns3:cad>81</ns3:cad>
          </ns3:TrackPointExtension>
        </extensions>
      </trkpt>
      <trkpt lat="49.4949305243790149688720703125" lon="118.0448701791465282440185546875">
        <ele>544.5999755859375</ele>
        <time>2026-08-06T03:12:19.000Z</time>
        <extensions>
          <ns3:TrackPointExtension>
            <ns3:hr>124</ns3:hr>
            <ns3:cad>80</ns3:cad>
          </ns3:TrackPointExtension>
        </extensions>
      </trkpt>
      <trkpt lat="49.49490831233561038970947265625" lon="118.0448799021542072296142578125">
        <ele>544.5999755859375</ele>
        <time>2026-08-06T03:12:20.000Z</time>
        <extensions>
          <ns3:TrackPointExtension>
            <ns3:hr>124</ns3:hr>
            <ns3:cad>80</ns3:cad>
          </ns3:TrackPointExtension>
        </extensions>
      </trkpt>
      <trkpt lat="49.49488542973995208740234375" lon="118.0448845960199832916259765625">
        <ele>544.79998779296875</ele>
        <time>2026-08-06T03:12:21.000Z</time>
        <extensions>
          <ns3:TrackPointExtension>
            <ns3:hr>124</ns3:hr>
            <ns3:cad>80</ns3:cad>
          </ns3:TrackPointExtension>
        </extensions>
      </trkpt>
      <trkpt lat="49.494870007038116455078125" lon="118.044902198016643524169921875">
        <ele>544.79998779296875</ele>
        <time>2026-08-06T03:12:22.000Z</time>
        <extensions>
          <ns3:TrackPointExtension>
            <ns3:hr>124</ns3:hr>
            <ns3:cad>80</ns3:cad>
          </ns3:TrackPointExtension>
        </extensions>
      </trkpt>
      <trkpt lat="49.4948450289666652679443359375" lon="118.04492105729877948760986328125">
        <ele>544.79998779296875</ele>
        <time>2026-08-06T03:12:23.000Z</time>
        <extensions>
          <ns3:TrackPointExtension>
            <ns3:hr>124</ns3:hr>
            <ns3:cad>80</ns3:cad>
          </ns3:TrackPointExtension>
        </extensions>
      </trkpt>
      <trkpt lat="49.494825415313243865966796875" lon="118.0449281819164752960205078125">
        <ele>544.79998779296875</ele>
        <time>2026-08-06T03:12:24.000Z</time>
        <extensions>
          <ns3:TrackPointExtension>
            <ns3:hr>123</ns3:hr>
            <ns3:cad>81</ns3:cad>
          </ns3:TrackPointExtension>
        </extensions>
      </trkpt>
      <trkpt lat="49.4948098249733448028564453125" lon="118.0449214763939380645751953125">
        <ele>544.79998779296875</ele>
        <time>2026-08-06T03:12:25.000Z</time>
        <extensions>
          <ns3:TrackPointExtension>
            <ns3:hr>123</ns3:hr>
            <ns3:cad>81</ns3:cad>
          </ns3:TrackPointExtension>
        </extensions>
      </trkpt>
      <trkpt lat="49.49480035342276096343994140625" lon="118.04491854272782802581787109375">
        <ele>544.79998779296875</ele>
        <time>2026-08-06T03:12:26.000Z</time>
        <extensions>
          <ns3:TrackPointExtension>
            <ns3:hr>123</ns3:hr>
            <ns3:cad>81</ns3:cad>
          </ns3:TrackPointExtension>
        </extensions>
      </trkpt>
      <trkpt lat="49.49477822519838809967041015625" lon="118.0449248291552066802978515625">
        <ele>544.79998779296875</ele>
        <time>2026-08-06T03:12:27.000Z</time>
        <extensions>
          <ns3:TrackPointExtension>
            <ns3:hr>123</ns3:hr>
            <ns3:cad>82</ns3:cad>
          </ns3:TrackPointExtension>
        </extensions>
      </trkpt>
      <trkpt lat="49.49475659988820552825927734375" lon="118.04493882693350315093994140625">
        <ele>544.79998779296875</ele>
        <time>2026-08-06T03:12:28.000Z</time>
        <extensions>
          <ns3:TrackPointExtension>
            <ns3:hr>123</ns3:hr>
            <ns3:cad>82</ns3:cad>
          </ns3:TrackPointExtension>
        </extensions>
      </trkpt>
      <trkpt lat="49.49473279528319835662841796875" lon="118.04494184441864490509033203125">
        <ele>544.79998779296875</ele>
        <time>2026-08-06T03:12:29.000Z</time>
        <extensions>
          <ns3:TrackPointExtension>
            <ns3:hr>122</ns3:hr>
            <ns3:cad>81</ns3:cad>
          </ns3:TrackPointExtension>
        </extensions>
      </trkpt>
      <trkpt lat="49.49471552856266498565673828125" lon="118.0449308641254901885986328125">
        <ele>544.5999755859375</ele>
        <time>2026-08-06T03:12:30.000Z</time>
        <extensions>
          <ns3:TrackPointExtension>
            <ns3:hr>122</ns3:hr>
            <ns3:cad>80</ns3:cad>
          </ns3:TrackPointExtension>
        </extensions>
      </trkpt>
      <trkpt lat="49.49470865540206432342529296875" lon="118.04489255882799625396728515625">
        <ele>544.5999755859375</ele>
        <time>2026-08-06T03:12:31.000Z</time>
        <extensions>
          <ns3:TrackPointExtension>
            <ns3:hr>122</ns3:hr>
            <ns3:cad>80</ns3:cad>
          </ns3:TrackPointExtension>
        </extensions>
      </trkpt>
      <trkpt lat="49.494702704250812530517578125" lon="118.0448661558330059051513671875">
        <ele>544.4000244140625</ele>
        <time>2026-08-06T03:12:32.000Z</time>
        <extensions>
          <ns3:TrackPointExtension>
            <ns3:hr>122</ns3:hr>
            <ns3:cad>80</ns3:cad>
          </ns3:TrackPointExtension>
        </extensions>
      </trkpt>
      <trkpt lat="49.49469901621341705322265625" lon="118.0448265932500362396240234375">
        <ele>544.4000244140625</ele>
        <time>2026-08-06T03:12:33.000Z</time>
        <extensions>
          <ns3:TrackPointExtension>
            <ns3:hr>121</ns3:hr>
            <ns3:cad>80</ns3:cad>
          </ns3:TrackPointExtension>
        </extensions>
      </trkpt>
      <trkpt lat="49.4946988485753536224365234375" lon="118.04479180835187435150146484375">
        <ele>544.20001220703125</ele>
        <time>2026-08-06T03:12:34.000Z</time>
        <extensions>
          <ns3:TrackPointExtension>
            <ns3:hr>121</ns3:hr>
            <ns3:cad>80</ns3:cad>
          </ns3:TrackPointExtension>
        </extensions>
      </trkpt>
      <trkpt lat="49.4946961663663387298583984375" lon="118.04477018304169178009033203125">
        <ele>544.20001220703125</ele>
        <time>2026-08-06T03:12:35.000Z</time>
        <extensions>
          <ns3:TrackPointExtension>
            <ns3:hr>121</ns3:hr>
            <ns3:cad>82</ns3:cad>
          </ns3:TrackPointExtension>
        </extensions>
      </trkpt>
      <trkpt lat="49.494698345661163330078125" lon="118.04473799653351306915283203125">
        <ele>544.4000244140625</ele>
        <time>2026-08-06T03:12:36.000Z</time>
        <extensions>
          <ns3:TrackPointExtension>
            <ns3:hr>120</ns3:hr>
            <ns3:cad>82</ns3:cad>
          </ns3:TrackPointExtension>
        </extensions>
      </trkpt>
      <trkpt lat="49.4946995191276073455810546875" lon="118.04471083916723728179931640625">
        <ele>544.4000244140625</ele>
        <time>2026-08-06T03:12:37.000Z</time>
        <extensions>
          <ns3:TrackPointExtension>
            <ns3:hr>120</ns3:hr>
            <ns3:cad>82</ns3:cad>
          </ns3:TrackPointExtension>
        </extensions>
      </trkpt>
      <trkpt lat="49.49469457380473613739013671875" lon="118.0446861125528812408447265625">
        <ele>544.4000244140625</ele>
        <time>2026-08-06T03:12:38.000Z</time>
        <extensions>
          <ns3:TrackPointExtension>
            <ns3:hr>119</ns3:hr>
            <ns3:cad>81</ns3:cad>
          </ns3:TrackPointExtension>
        </extensions>
      </trkpt>
      <trkpt lat="49.49468535371124744415283203125" lon="118.04465183056890964508056640625">
        <ele>544.4000244140625</ele>
        <time>2026-08-06T03:12:39.000Z</time>
        <extensions>
          <ns3:TrackPointExtension>
            <ns3:hr>119</ns3:hr>
            <ns3:cad>81</ns3:cad>
          </ns3:TrackPointExtension>
        </extensions>
      </trkpt>
      <trkpt lat="49.49467395432293415069580078125" lon="118.04461880587041378021240234375">
        <ele>544.4000244140625</ele>
        <time>2026-08-06T03:12:40.000Z</time>
        <extensions>
          <ns3:TrackPointExtension>
            <ns3:hr>119</ns3:hr>
            <ns3:cad>80</ns3:cad>
          </ns3:TrackPointExtension>
        </extensions>
      </trkpt>
      <trkpt lat="49.49466121383011341094970703125" lon="118.0445905588567256927490234375">
        <ele>544.5999755859375</ele>
        <time>2026-08-06T03:12:41.000Z</time>
        <extensions>
          <ns3:TrackPointExtension>
            <ns3:hr>119</ns3:hr>
            <ns3:cad>78</ns3:cad>
          </ns3:TrackPointExtension>
        </extensions>
      </trkpt>
      <trkpt lat="49.4946529157459735870361328125" lon="118.04455158300697803497314453125">
        <ele>544.5999755859375</ele>
        <time>2026-08-06T03:12:42.000Z</time>
        <extensions>
          <ns3:TrackPointExtension>
            <ns3:hr>119</ns3:hr>
            <ns3:cad>78</ns3:cad>
          </ns3:TrackPointExtension>
        </extensions>
      </trkpt>
      <trkpt lat="49.4946445338428020477294921875" lon="118.04452140815556049346923828125">
        <ele>544.5999755859375</ele>
        <time>2026-08-06T03:12:43.000Z</time>
        <extensions>
          <ns3:TrackPointExtension>
            <ns3:hr>118</ns3:hr>
            <ns3:cad>80</ns3:cad>
          </ns3:TrackPointExtension>
        </extensions>
      </trkpt>
      <trkpt lat="49.4946304522454738616943359375" lon="118.04448821581900119781494140625">
        <ele>544.4000244140625</ele>
        <time>2026-08-06T03:12:44.000Z</time>
        <extensions>
          <ns3:TrackPointExtension>
            <ns3:hr>118</ns3:hr>
            <ns3:cad>82</ns3:cad>
          </ns3:TrackPointExtension>
        </extensions>
      </trkpt>
      <trkpt lat="49.49461544863879680633544921875" lon="118.044448904693126678466796875">
        <ele>544.20001220703125</ele>
        <time>2026-08-06T03:12:45.000Z</time>
        <extensions>
          <ns3:TrackPointExtension>
            <ns3:hr>118</ns3:hr>
            <ns3:cad>82</ns3:cad>
          </ns3:TrackPointExtension>
        </extensions>
      </trkpt>
      <trkpt lat="49.49459633789956569671630859375" lon="118.04442384280264377593994140625">
        <ele>544.20001220703125</ele>
        <time>2026-08-06T03:12:46.000Z</time>
        <extensions>
          <ns3:TrackPointExtension>
            <ns3:hr>117</ns3:hr>
            <ns3:cad>82</ns3:cad>
          </ns3:TrackPointExtension>
        </extensions>
      </trkpt>
      <trkpt lat="49.49456817470490932464599609375" lon="118.04441378451883792877197265625">
        <ele>544</ele>
        <time>2026-08-06T03:12:47.000Z</time>
        <extensions>
          <ns3:TrackPointExtension>
            <ns3:hr>117</ns3:hr>
            <ns3:cad>82</ns3:cad>
          </ns3:TrackPointExtension>
        </extensions>
      </trkpt>
      <trkpt lat="49.49454437009990215301513671875" lon="118.04442518390715122222900390625">
        <ele>544</ele>
        <time>2026-08-06T03:12:48.000Z</time>
        <extensions>
          <ns3:TrackPointExtension>
            <ns3:hr>117</ns3:hr>
            <ns3:cad>82</ns3:cad>
          </ns3:TrackPointExtension>
        </extensions>
      </trkpt>
      <trkpt lat="49.4945241697132587432861328125" lon="118.044440858066082000732421875">
        <ele>543.79998779296875</ele>
        <time>2026-08-06T03:12:49.000Z</time>
        <extensions>
          <ns3:TrackPointExtension>
            <ns3:hr>116</ns3:hr>
            <ns3:cad>82</ns3:cad>
          </ns3:TrackPointExtension>
        </extensions>
      </trkpt>
      <trkpt lat="49.49450044892728328704833984375" lon="118.04445871151983737945556640625">
        <ele>543.79998779296875</ele>
        <time>2026-08-06T03:12:50.000Z</time>
        <extensions>
          <ns3:TrackPointExtension>
            <ns3:hr>116</ns3:hr>
            <ns3:cad>82</ns3:cad>
          </ns3:TrackPointExtension>
        </extensions>
      </trkpt>
      <trkpt lat="49.49448737315833568572998046875" lon="118.04448033683001995086669921875">
        <ele>543.79998779296875</ele>
        <time>2026-08-06T03:12:51.000Z</time>
        <extensions>
          <ns3:TrackPointExtension>
            <ns3:hr>116</ns3:hr>
            <ns3:cad>83</ns3:cad>
          </ns3:TrackPointExtension>
        </extensions>
      </trkpt>
      <trkpt lat="49.4944644905626773834228515625" lon="118.04450087249279022216796875">
        <ele>543.79998779296875</ele>
        <time>2026-08-06T03:12:52.000Z</time>
        <extensions>
          <ns3:TrackPointExtension>
            <ns3:hr>116</ns3:hr>
            <ns3:cad>84</ns3:cad>
          </ns3:TrackPointExtension>
        </extensions>
      </trkpt>
      <trkpt lat="49.49444227851927280426025390625" lon="118.04451922886073589324951171875">
        <ele>543.79998779296875</ele>
        <time>2026-08-06T03:12:53.000Z</time>
        <extensions>
          <ns3:TrackPointExtension>
            <ns3:hr>115</ns3:hr>
            <ns3:cad>84</ns3:cad>
          </ns3:TrackPointExtension>
        </extensions>
      </trkpt>
      <trkpt lat="49.49442316778004169464111328125" lon="118.044536747038364410400390625">
        <ele>543.79998779296875</ele>
        <time>2026-08-06T03:12:54.000Z</time>
        <extensions>
          <ns3:TrackPointExtension>
            <ns3:hr>115</ns3:hr>
            <ns3:cad>84</ns3:cad>
          </ns3:TrackPointExtension>
        </extensions>
      </trkpt>
      <trkpt lat="49.494398273527622222900390625" lon="118.04454420693218708038330078125">
        <ele>543.79998779296875</ele>
        <time>2026-08-06T03:12:55.000Z</time>
        <extensions>
          <ns3:TrackPointExtension>
            <ns3:hr>115</ns3:hr>
            <ns3:cad>84</ns3:cad>
          </ns3:TrackPointExtension>
        </extensions>
      </trkpt>
      <trkpt lat="49.49437581002712249755859375" lon="118.04454118944704532623291015625">
        <ele>543.79998779296875</ele>
        <time>2026-08-06T03:12:56.000Z</time>
        <extensions>
          <ns3:TrackPointExtension>
            <ns3:hr>115</ns3:hr>
            <ns3:cad>83</ns3:cad>
          </ns3:TrackPointExtension>
        </extensions>
      </trkpt>
      <trkpt lat="49.49436399154365062713623046875" lon="118.0445466376841068267822265625">
        <ele>544</ele>
        <time>2026-08-06T03:12:57.000Z</time>
        <extensions>
          <ns3:TrackPointExtension>
            <ns3:hr>115</ns3:hr>
            <ns3:cad>82</ns3:cad>
          </ns3:TrackPointExtension>
        </extensions>
      </trkpt>
      <trkpt lat="49.4943421147763729095458984375" lon="118.04458200931549072265625">
        <ele>544</ele>
        <time>2026-08-06T03:12:58.000Z</time>
        <extensions>
          <ns3:TrackPointExtension>
            <ns3:hr>115</ns3:hr>
            <ns3:cad>82</ns3:cad>
          </ns3:TrackPointExtension>
        </extensions>
      </trkpt>
      <trkpt lat="49.49434018693864345550537109375" lon="118.044613189995288848876953125">
        <ele>543.79998779296875</ele>
        <time>2026-08-06T03:12:59.000Z</time>
        <extensions>
          <ns3:TrackPointExtension>
            <ns3:hr>115</ns3:hr>
            <ns3:cad>81</ns3:cad>
          </ns3:TrackPointExtension>
        </extensions>
      </trkpt>
      <trkpt lat="49.494343288242816925048828125" lon="118.04464328102767467498779296875">
        <ele>543.5999755859375</ele>
        <time>2026-08-06T03:13:00.000Z</time>
        <extensions>
          <ns3:TrackPointExtension>
            <ns3:hr>114</ns3:hr>
            <ns3:cad>80</ns3:cad>
          </ns3:TrackPointExtension>
        </extensions>
      </trkpt>
      <trkpt lat="49.49434638954699039459228515625" lon="118.044678233563899993896484375">
        <ele>543.4000244140625</ele>
        <time>2026-08-06T03:13:01.000Z</time>
        <extensions>
          <ns3:TrackPointExtension>
            <ns3:hr>114</ns3:hr>
            <ns3:cad>80</ns3:cad>
          </ns3:TrackPointExtension>
        </extensions>
      </trkpt>
      <trkpt lat="49.4943568669259548187255859375" lon="118.0447015352547168731689453125">
        <ele>543.20001220703125</ele>
        <time>2026-08-06T03:13:02.000Z</time>
        <extensions>
          <ns3:TrackPointExtension>
            <ns3:hr>114</ns3:hr>
            <ns3:cad>80</ns3:cad>
          </ns3:TrackPointExtension>
        </extensions>
      </trkpt>
      <trkpt lat="49.49436935596168041229248046875" lon="118.04471972398459911346435546875">
        <ele>543</ele>
        <time>2026-08-06T03:13:03.000Z</time>
        <extensions>
          <ns3:TrackPointExtension>
            <ns3:hr>114</ns3:hr>
            <ns3:cad>80</ns3:cad>
          </ns3:TrackPointExtension>
        </extensions>
      </trkpt>
      <trkpt lat="49.49436801485717296600341796875" lon="118.04475090466439723968505859375">
        <ele>543</ele>
        <time>2026-08-06T03:13:04.000Z</time>
        <extensions>
          <ns3:TrackPointExtension>
            <ns3:hr>114</ns3:hr>
            <ns3:cad>81</ns3:cad>
          </ns3:TrackPointExtension>
        </extensions>
      </trkpt>
      <trkpt lat="49.49435778893530368804931640625" lon="118.044756352901458740234375">
        <ele>543.20001220703125</ele>
        <time>2026-08-06T03:13:05.000Z</time>
        <extensions>
          <ns3:TrackPointExtension>
            <ns3:hr>113</ns3:hr>
            <ns3:cad>81</ns3:cad>
          </ns3:TrackPointExtension>
        </extensions>
      </trkpt>
      <trkpt lat="49.49434974230825901031494140625" lon="118.04476280696690082550048828125">
        <ele>543.20001220703125</ele>
        <time>2026-08-06T03:13:06.000Z</time>
        <extensions>
          <ns3:TrackPointExtension>
            <ns3:hr>113</ns3:hr>
            <ns3:cad>81</ns3:cad>
          </ns3:TrackPointExtension>
        </extensions>
      </trkpt>
      <trkpt lat="49.49434236623346805572509765625" lon="118.04476951248943805694580078125">
        <ele>543.4000244140625</ele>
        <time>2026-08-06T03:13:07.000Z</time>
        <extensions>
          <ns3:TrackPointExtension>
            <ns3:hr>113</ns3:hr>
            <ns3:cad>80</ns3:cad>
          </ns3:TrackPointExtension>
        </extensions>
      </trkpt>
      <trkpt lat="49.494326524436473846435546875" lon="118.04478384554386138916015625">
        <ele>543.4000244140625</ele>
        <time>2026-08-06T03:13:08.000Z</time>
        <extensions>
          <ns3:TrackPointExtension>
            <ns3:hr>113</ns3:hr>
            <ns3:cad>79</ns3:cad>
          </ns3:TrackPointExtension>
        </extensions>
      </trkpt>
      <trkpt lat="49.49428905732929706573486328125" lon="118.04479599930346012115478515625">
        <ele>543.5999755859375</ele>
        <time>2026-08-06T03:13:12.000Z</time>
        <extensions>
          <ns3:TrackPointExtension>
            <ns3:hr>111</ns3:hr>
            <ns3:cad>79</ns3:cad>
          </ns3:TrackPointExtension>
        </extensions>
      </trkpt>
      <trkpt lat="49.49429006315767765045166015625" lon="118.044778145849704742431640625">
        <ele>543.79998779296875</ele>
        <time>2026-08-06T03:13:13.000Z</time>
        <extensions>
          <ns3:TrackPointExtension>
            <ns3:hr>110</ns3:hr>
            <ns3:cad>79</ns3:cad>
          </ns3:TrackPointExtension>
        </extensions>
      </trkpt>
      <trkpt lat="49.49428863823413848876953125" lon="118.044752664864063262939453125">
        <ele>543.79998779296875</ele>
        <time>2026-08-06T03:13:14.000Z</time>
        <extensions>
          <ns3:TrackPointExtension>
            <ns3:hr>110</ns3:hr>
            <ns3:cad>79</ns3:cad>
          </ns3:TrackPointExtension>
        </extensions>
      </trkpt>
      <trkpt lat="49.4942851178348064422607421875" lon="118.04472173564136028289794921875">
        <ele>543.79998779296875</ele>
        <time>2026-08-06T03:13:15.000Z</time>
        <extensions>
          <ns3:TrackPointExtension>
            <ns3:hr>109</ns3:hr>
            <ns3:cad>0</ns3:cad>
          </ns3:TrackPointExtension>
        </extensions>
      </trkpt>
      <trkpt lat="49.49428302235901355743408203125" lon="118.0446817539632320404052734375">
        <ele>543.79998779296875</ele>
        <time>2026-08-06T03:13:16.000Z</time>
        <extensions>
          <ns3:TrackPointExtension>
            <ns3:hr>109</ns3:hr>
            <ns3:cad>0</ns3:cad>
          </ns3:TrackPointExtension>
        </extensions>
      </trkpt>
      <trkpt lat="49.4942678511142730712890625" lon="118.0446545965969562530517578125">
        <ele>543.5999755859375</ele>
        <time>2026-08-06T03:13:17.000Z</time>
        <extensions>
          <ns3:TrackPointExtension>
            <ns3:hr>109</ns3:hr>
            <ns3:cad>0</ns3:cad>
          </ns3:TrackPointExtension>
        </extensions>
      </trkpt>
      <trkpt lat="49.494242370128631591796875" lon="118.04462618194520473480224609375">
        <ele>543.5999755859375</ele>
        <time>2026-08-06T03:13:18.000Z</time>
        <extensions>
          <ns3:TrackPointExtension>
            <ns3:hr>108</ns3:hr>
            <ns3:cad>80</ns3:cad>
          </ns3:TrackPointExtension>
        </extensions>
      </trkpt>
      <trkpt lat="49.4942204095423221588134765625" lon="118.04460438899695873260498046875">
        <ele>543.5999755859375</ele>
        <time>2026-08-06T03:13:19.000Z</time>
        <extensions>
          <ns3:TrackPointExtension>
            <ns3:hr>107</ns3:hr>
            <ns3:cad>80</ns3:cad>
          </ns3:TrackPointExtension>
        </extensions>
      </trkpt>
      <trkpt lat="49.49419937096536159515380859375" lon="118.04456750862300395965576171875">
        <ele>543.5999755859375</ele>
        <time>2026-08-06T03:13:20.000Z</time>
        <extensions>
          <ns3:TrackPointExtension>
            <ns3:hr>106</ns3:hr>
            <ns3:cad>83</ns3:cad>
          </ns3:TrackPointExtension>
        </extensions>
      </trkpt>
      <trkpt lat="49.49419015087187290191650390625" lon="118.04451772011816501617431640625">
        <ele>543.5999755859375</ele>
        <time>2026-08-06T03:13:21.000Z</time>
        <extensions>
          <ns3:TrackPointExtension>
            <ns3:hr>107</ns3:hr>
            <ns3:cad>83</ns3:cad>
          </ns3:TrackPointExtension>
        </extensions>
      </trkpt>
      <trkpt lat="49.4941831938922405242919921875" lon="118.0444760620594024658203125">
        <ele>543.5999755859375</ele>
        <time>2026-08-06T03:13:22.000Z</time>
        <extensions>
          <ns3:TrackPointExtension>
            <ns3:hr>108</ns3:hr>
            <ns3:cad>84</ns3:cad>
          </ns3:TrackPointExtension>
        </extensions>
      </trkpt>
      <trkpt lat="49.49417204596102237701416015625" lon="118.04442786611616611480712890625">
        <ele>543.4000244140625</ele>
        <time>2026-08-06T03:13:23.000Z</time>
        <extensions>
          <ns3:TrackPointExtension>
            <ns3:hr>109</ns3:hr>
            <ns3:cad>85</ns3:cad>
          </ns3:TrackPointExtension>
        </extensions>
      </trkpt>
      <trkpt lat="49.4941610656678676605224609375" lon="118.04439584724605083465576171875">
        <ele>543.20001220703125</ele>
        <time>2026-08-06T03:13:24.000Z</time>
        <extensions>
          <ns3:TrackPointExtension>
            <ns3:hr>110</ns3:hr>
            <ns3:cad>86</ns3:cad>
          </ns3:TrackPointExtension>
        </extensions>
      </trkpt>
      <trkpt lat="49.49414824135601520538330078125" lon="118.0443473160266876220703125">
        <ele>543.20001220703125</ele>
        <time>2026-08-06T03:13:25.000Z</time>
        <extensions>
          <ns3:TrackPointExtension>
            <ns3:hr>110</ns3:hr>
            <ns3:cad>86</ns3:cad>
          </ns3:TrackPointExtension>
        </extensions>
      </trkpt>
      <trkpt lat="49.49414187110960483551025390625" lon="118.04431471042335033416748046875">
        <ele>543.20001220703125</ele>
        <time>2026-08-06T03:13:26.000Z</time>
        <extensions>
          <ns3:TrackPointExtension>
            <ns3:hr>111</ns3:hr>
            <ns3:cad>86</ns3:cad>
          </ns3:TrackPointExtension>
        </extensions>
      </trkpt>
      <trkpt lat="49.49414421804249286651611328125" lon="118.04427213035523891448974609375">
        <ele>543</ele>
        <time>2026-08-06T03:13:27.000Z</time>
        <extensions>
          <ns3:TrackPointExtension>
            <ns3:hr>112</ns3:hr>
            <ns3:cad>86</ns3:cad>
          </ns3:TrackPointExtension>
        </extensions>
      </trkpt>
      <trkpt lat="49.49415377341210842132568359375" lon="118.04424338042736053466796875">
        <ele>543</ele>
        <time>2026-08-06T03:13:28.000Z</time>
        <extensions>
          <ns3:TrackPointExtension>
            <ns3:hr>113</ns3:hr>
            <ns3:cad>86</ns3:cad>
          </ns3:TrackPointExtension>
        </extensions>
      </trkpt>
      <trkpt lat="49.4941587187349796295166015625" lon="118.04421932436525821685791015625">
        <ele>543</ele>
        <time>2026-08-06T03:13:29.000Z</time>
        <extensions>
          <ns3:TrackPointExtension>
            <ns3:hr>113</ns3:hr>
            <ns3:cad>86</ns3:cad>
          </ns3:TrackPointExtension>
        </extensions>
      </trkpt>
      <trkpt lat="49.4941607303917407989501953125" lon="118.04418973624706268310546875">
        <ele>543</ele>
        <time>2026-08-06T03:13:30.000Z</time>
        <extensions>
          <ns3:TrackPointExtension>
            <ns3:hr>114</ns3:hr>
            <ns3:cad>86</ns3:cad>
          </ns3:TrackPointExtension>
        </extensions>
      </trkpt>
      <trkpt lat="49.49416785500943660736083984375" lon="118.0441557057201862335205078125">
        <ele>543</ele>
        <time>2026-08-06T03:13:31.000Z</time>
        <extensions>
          <ns3:TrackPointExtension>
            <ns3:hr>114</ns3:hr>
            <ns3:cad>86</ns3:cad>
          </ns3:TrackPointExtension>
        </extensions>
      </trkpt>
      <trkpt lat="49.4941717945039272308349609375" lon="118.04413047619163990020751953125">
        <ele>543.20001220703125</ele>
        <time>2026-08-06T03:13:32.000Z</time>
        <extensions>
          <ns3:TrackPointExtension>
            <ns3:hr>114</ns3:hr>
            <ns3:cad>83</ns3:cad>
          </ns3:TrackPointExtension>
        </extensions>
      </trkpt>
      <trkpt lat="49.49417690746486186981201171875" lon="118.0441131256520748138427734375">
        <ele>543.20001220703125</ele>
        <time>2026-08-06T03:13:33.000Z</time>
        <extensions>
          <ns3:TrackPointExtension>
            <ns3:hr>114</ns3:hr>
            <ns3:cad>78</ns3:cad>
          </ns3:TrackPointExtension>
        </extensions>
      </trkpt>
      <trkpt lat="49.49418797157704830169677734375" lon="118.0440940149128437042236328125">
        <ele>543.4000244140625</ele>
        <time>2026-08-06T03:13:34.000Z</time>
        <extensions>
          <ns3:TrackPointExtension>
            <ns3:hr>114</ns3:hr>
            <ns3:cad>78</ns3:cad>
          </ns3:TrackPointExtension>
        </extensions>
      </trkpt>
      <trkpt lat="49.494206495583057403564453125" lon="118.04445234127342700958251953125">
        <ele>543.20001220703125</ele>
        <time>2026-08-06T03:14:17.000Z</time>
        <extensions>
          <ns3:TrackPointExtension>
            <ns3:hr>110</ns3:hr>
            <ns3:cad>55</ns3:cad>
          </ns3:TrackPointExtension>
        </extensions>
      </trkpt>
      <trkpt lat="49.49420473538339138031005859375" lon="118.04449223913252353668212890625">
        <ele>543.4000244140625</ele>
        <time>2026-08-06T03:14:18.000Z</time>
        <extensions>
          <ns3:TrackPointExtension>
            <ns3:hr>110</ns3:hr>
            <ns3:cad>55</ns3:cad>
          </ns3:TrackPointExtension>
        </extensions>
      </trkpt>
      <trkpt lat="49.4942056573927402496337890625" lon="118.04454202763736248016357421875">
        <ele>543.20001220703125</ele>
        <time>2026-08-06T03:14:19.000Z</time>
        <extensions>
          <ns3:TrackPointExtension>
            <ns3:hr>110</ns3:hr>
            <ns3:cad>55</ns3:cad>
          </ns3:TrackPointExtension>
        </extensions>
      </trkpt>
      <trkpt lat="49.494207836687564849853515625" lon="118.0446002818644046783447265625">
        <ele>543</ele>
        <time>2026-08-06T03:14:20.000Z</time>
        <extensions>
          <ns3:TrackPointExtension>
            <ns3:hr>110</ns3:hr>
            <ns3:cad>85</ns3:cad>
          </ns3:TrackPointExtension>
        </extensions>
      </trkpt>
      <trkpt lat="49.4942043162882328033447265625" lon="118.04466088302433490753173828125">
        <ele>543</ele>
        <time>2026-08-06T03:14:21.000Z</time>
        <extensions>
          <ns3:TrackPointExtension>
            <ns3:hr>111</ns3:hr>
            <ns3:cad>88</ns3:cad>
          </ns3:TrackPointExtension>
        </extensions>
      </trkpt>
      <trkpt lat="49.49420205317437648773193359375" lon="118.044724501669406890869140625">
        <ele>542.79998779296875</ele>
        <time>2026-08-06T03:14:22.000Z</time>
        <extensions>
          <ns3:TrackPointExtension>
            <ns3:hr>111</ns3:hr>
            <ns3:cad>88</ns3:cad>
          </ns3:TrackPointExtension>
        </extensions>
      </trkpt>
      <trkpt lat="49.49419333599507808685302734375" lon="118.04478007368743419647216796875">
        <ele>542.79998779296875</ele>
        <time>2026-08-06T03:14:23.000Z</time>
        <extensions>
          <ns3:TrackPointExtension>
            <ns3:hr>112</ns3:hr>
            <ns3:cad>88</ns3:cad>
          </ns3:TrackPointExtension>
        </extensions>
      </trkpt>
      <trkpt lat="49.4941955991089344024658203125" lon="118.04482215084135532379150390625">
        <ele>542.79998779296875</ele>
        <time>2026-08-06T03:14:24.000Z</time>
        <extensions>
          <ns3:TrackPointExtension>
            <ns3:hr>112</ns3:hr>
            <ns3:cad>88</ns3:cad>
          </ns3:TrackPointExtension>
        </extensions>
      </trkpt>
      <trkpt lat="49.49419015087187290191650390625" lon="118.044874034821987152099609375">
        <ele>543</ele>
        <time>2026-08-06T03:14:25.000Z</time>
        <extensions>
          <ns3:TrackPointExtension>
            <ns3:hr>113</ns3:hr>
            <ns3:cad>88</ns3:cad>
          </ns3:TrackPointExtension>
        </extensions>
      </trkpt>
      <trkpt lat="49.4941848702728748321533203125" lon="118.0449060536921024322509765625">
        <ele>543</ele>
        <time>2026-08-06T03:14:26.000Z</time>
        <extensions>
          <ns3:TrackPointExtension>
            <ns3:hr>114</ns3:hr>
            <ns3:cad>88</ns3:cad>
          </ns3:TrackPointExtension>
        </extensions>
      </trkpt>
      <trkpt lat="49.49418311007320880889892578125" lon="118.04494637064635753631591796875">
        <ele>543.20001220703125</ele>
        <time>2026-08-06T03:14:27.000Z</time>
        <extensions>
          <ns3:TrackPointExtension>
            <ns3:hr>116</ns3:hr>
            <ns3:cad>87</ns3:cad>
          </ns3:TrackPointExtension>
        </extensions>
      </trkpt>
      <trkpt lat="49.49418746866285800933837890625" lon="118.04497017525136470794677734375">
        <ele>543.20001220703125</ele>
        <time>2026-08-06T03:14:28.000Z</time>
        <extensions>
          <ns3:TrackPointExtension>
            <ns3:hr>117</ns3:hr>
            <ns3:cad>87</ns3:cad>
          </ns3:TrackPointExtension>
        </extensions>
      </trkpt>
      <trkpt lat="49.49420020915567874908447265625" lon="118.04498308338224887847900390625">
        <ele>543.4000244140625</ele>
        <time>2026-08-06T03:14:29.000Z</time>
        <extensions>
          <ns3:TrackPointExtension>
            <ns3:hr>116</ns3:hr>
            <ns3:cad>87</ns3:cad>
          </ns3:TrackPointExtension>
        </extensions>
      </trkpt>
      <trkpt lat="49.49421931989490985870361328125" lon="118.0450017750263214111328125">
        <ele>543.4000244140625</ele>
        <time>2026-08-06T03:14:30.000Z</time>
        <extensions>
          <ns3:TrackPointExtension>
            <ns3:hr>116</ns3:hr>
            <ns3:cad>86</ns3:cad>
          </ns3:TrackPointExtension>
        </extensions>
      </trkpt>
      <trkpt lat="49.49423407204449176788330078125" lon="118.0450190417468547821044921875">
        <ele>543</ele>
        <time>2026-08-06T03:14:31.000Z</time>
        <extensions>
          <ns3:TrackPointExtension>
            <ns3:hr>117</ns3:hr>
            <ns3:cad>86</ns3:cad>
          </ns3:TrackPointExtension>
        </extensions>
      </trkpt>
      <trkpt lat="49.49425150640308856964111328125" lon="118.04503840394318103790283203125">
        <ele>542.79998779296875</ele>
        <time>2026-08-06T03:14:32.000Z</time>
        <extensions>
          <ns3:TrackPointExtension>
            <ns3:hr>117</ns3:hr>
            <ns3:cad>86</ns3:cad>
          </ns3:TrackPointExtension>
        </extensions>
      </trkpt>
      <trkpt lat="49.49426894076168537139892578125" lon="118.04507310502231121063232421875">
        <ele>542.5999755859375</ele>
        <time>2026-08-06T03:14:33.000Z</time>
        <extensions>
          <ns3:TrackPointExtension>
            <ns3:hr>117</ns3:hr>
            <ns3:cad>84</ns3:cad>
          </ns3:TrackPointExtension>
        </extensions>
      </trkpt>
      <trkpt lat="49.4942874647676944732666015625" lon="118.04510009475052356719970703125">
        <ele>542.4000244140625</ele>
        <time>2026-08-06T03:14:34.000Z</time>
        <extensions>
          <ns3:TrackPointExtension>
            <ns3:hr>116</ns3:hr>
            <ns3:cad>83</ns3:cad>
          </ns3:TrackPointExtension>
        </extensions>
      </trkpt>
      <trkpt lat="49.494299702346324920654296875" lon="118.0451440997421741485595703125">
        <ele>542.5999755859375</ele>
        <time>2026-08-06T03:14:35.000Z</time>
        <extensions>
          <ns3:TrackPointExtension>
            <ns3:hr>116</ns3:hr>
            <ns3:cad>82</ns3:cad>
          </ns3:TrackPointExtension>
        </extensions>
      </trkpt>
      <trkpt lat="49.4943062402307987213134765625" lon="118.04518408142030239105224609375">
        <ele>542.5999755859375</ele>
        <time>2026-08-06T03:14:36.000Z</time>
        <extensions>
          <ns3:TrackPointExtension>
            <ns3:hr>117</ns3:hr>
            <ns3:cad>82</ns3:cad>
          </ns3:TrackPointExtension>
        </extensions>
      </trkpt>
      <trkpt lat="49.49431001208722591400146484375" lon="118.0452222190797328948974609375">
        <ele>543</ele>
        <time>2026-08-06T03:14:37.000Z</time>
        <extensions>
          <ns3:TrackPointExtension>
            <ns3:hr>119</ns3:hr>
            <ns3:cad>82</ns3:cad>
          </ns3:TrackPointExtension>
        </extensions>
      </trkpt>
      <trkpt lat="49.49431470595300197601318359375" lon="118.04526940919458866119384765625">
        <ele>543.4000244140625</ele>
        <time>2026-08-06T03:14:38.000Z</time>
        <extensions>
          <ns3:TrackPointExtension>
            <ns3:hr>119</ns3:hr>
            <ns3:cad>83</ns3:cad>
          </ns3:TrackPointExtension>
        </extensions>
      </trkpt>
      <trkpt lat="49.49432442896068096160888671875" lon="118.04530595429241657257080078125">
        <ele>543.4000244140625</ele>
        <time>2026-08-06T03:14:39.000Z</time>
        <extensions>
          <ns3:TrackPointExtension>
            <ns3:hr>120</ns3:hr>
            <ns3:cad>83</ns3:cad>
          </ns3:TrackPointExtension>
        </extensions>
      </trkpt>
      <trkpt lat="49.49433281086385250091552734375" lon="118.045335710048675537109375">
        <ele>543.4000244140625</ele>
        <time>2026-08-06T03:14:40.000Z</time>
        <extensions>
          <ns3:TrackPointExtension>
            <ns3:hr>121</ns3:hr>
            <ns3:cad>83</ns3:cad>
          </ns3:TrackPointExtension>
        </extensions>
      </trkpt>
      <trkpt lat="49.49433834291994571685791015625" lon="118.04535456933081150054931640625">
        <ele>543.20001220703125</ele>
        <time>2026-08-06T03:14:41.000Z</time>
        <extensions>
          <ns3:TrackPointExtension>
            <ns3:hr>121</ns3:hr>
            <ns3:cad>84</ns3:cad>
          </ns3:TrackPointExtension>
        </extensions>
      </trkpt>
      <trkpt lat="49.49434052221477031707763671875" lon="118.04536714218556880950927734375">
        <ele>543.20001220703125</ele>
        <time>2026-08-06T03:14:42.000Z</time>
        <extensions>
          <ns3:TrackPointExtension>
            <ns3:hr>121</ns3:hr>
            <ns3:cad>84</ns3:cad>
          </ns3:TrackPointExtension>
        </extensions>
      </trkpt>
      <trkpt lat="49.4943394325673580169677734375" lon="118.0453764460980892181396484375">
        <ele>543.20001220703125</ele>
        <time>2026-08-06T03:14:43.000Z</time>
        <extensions>
          <ns3:TrackPointExtension>
            <ns3:hr>121</ns3:hr>
            <ns3:cad>84</ns3:cad>
          </ns3:TrackPointExtension>
        </extensions>
      </trkpt>
      <trkpt lat="49.4943374209105968475341796875" lon="118.04538239724934101104736328125">
        <ele>543.4000244140625</ele>
        <time>2026-08-06T03:14:44.000Z</time>
        <extensions>
          <ns3:TrackPointExtension>
            <ns3:hr>121</ns3:hr>
            <ns3:cad>84</ns3:cad>
          </ns3:TrackPointExtension>
        </extensions>
      </trkpt>
      <trkpt lat="49.4943407736718654632568359375" lon="118.04541123099625110626220703125">
        <ele>543.5999755859375</ele>
        <time>2026-08-06T03:14:45.000Z</time>
        <extensions>
          <ns3:TrackPointExtension>
            <ns3:hr>121</ns3:hr>
            <ns3:cad>84</ns3:cad>
          </ns3:TrackPointExtension>
        </extensions>
      </trkpt>
      <trkpt lat="49.49434571899473667144775390625" lon="118.04544425569474697113037109375">
        <ele>543.79998779296875</ele>
        <time>2026-08-06T03:14:46.000Z</time>
        <extensions>
          <ns3:TrackPointExtension>
            <ns3:hr>121</ns3:hr>
            <ns3:cad>79</ns3:cad>
          </ns3:TrackPointExtension>
        </extensions>
      </trkpt>
      <trkpt lat="49.49435292743146419525146484375" lon="118.045469820499420166015625">
        <ele>543.79998779296875</ele>
        <time>2026-08-06T03:14:47.000Z</time>
        <extensions>
          <ns3:TrackPointExtension>
            <ns3:hr>120</ns3:hr>
            <ns3:cad>79</ns3:cad>
          </ns3:TrackPointExtension>
        </extensions>
      </trkpt>
    </trkseg>
  </trk>
</gpx>
