<gpx xmlns:ns3="http://www.garmin.com/xmlschemas/TrackPointExtension/v1" xmlns="http://www.topografix.com/GPX/1/1" xmlns:xsi="http://www.w3.org/2001/XMLSchema-instance" xmlns:ns2="http://www.garmin.com/xmlschemas/GpxExtensions/v3" creator="Garmin Connect" version="1.1" xsi:schemaLocation="http://www.topografix.com/GPX/1/1 http://www.topografix.com/GPX/11.xsd">
  <extensions>
<distance>315.41</distance>
<average_hr>152.0</average_hr>
<average_speed>2.5460000038146973</average_speed>
<start_time>2026-09-19T09:36:07+00:00</start_time>
<end_time>2026-09-19T09:38:10.868000+00:00</end_time>
<moving_time>122.433</moving_time>
<elapsed_time>123.868</elapsed_time>
</extensions>
<metadata>
    <link href="connect.garmin.com">
      <text>Garmin Connect</text>
    </link>
    <time>2026-09-19T09:36:07.000Z</time>
  </metadata>
  <trk>
    <name>怀柔区 跑步</name>
    <type>running</type>
    <trkseg>
      <trkpt lat="40.40430265478789806365966796875" lon="116.68359084986150264739990234375">
        <ele>80.1999969482421875</ele>
        <time>2026-09-19T09:36:07.000Z</time>
        <extensions>
          <ns3:TrackPointExtension>
            <ns3:hr>147</ns3:hr>
            <ns3:cad>0</ns3:cad>
          </ns3:TrackPointExtension>
        </extensions>
      </trkpt>
      <trkpt lat="40.4043069295585155487060546875" lon="116.68358850292861461639404296875">
        <ele>80.1999969482421875</ele>
        <time>2026-09-19T09:36:08.000Z</time>
        <extensions>
          <ns3:TrackPointExtension>
            <ns3:hr>144</ns3:hr>
            <ns3:cad>0</ns3:cad>
          </ns3:TrackPointExtension>
        </extensions>
      </trkpt>
      <trkpt lat="40.404264517128467559814453125" lon="116.6835850663483142852783203125">
        <ele>80.1999969482421875</ele>
        <time>2026-09-19T09:36:09.000Z</time>
        <extensions>
          <ns3:TrackPointExtension>
            <ns3:hr>143</ns3:hr>
            <ns3:cad>0</ns3:cad>
          </ns3:TrackPointExtension>
        </extensions>
      </trkpt>
      <trkpt lat="40.4042279720306396484375" lon="116.6835848987102508544921875">
        <ele>80.1999969482421875</ele>
        <time>2026-09-19T09:36:10.000Z</time>
        <extensions>
          <ns3:TrackPointExtension>
            <ns3:hr>141</ns3:hr>
            <ns3:cad>0</ns3:cad>
          </ns3:TrackPointExtension>
        </extensions>
      </trkpt>
      <trkpt lat="40.4041703045368194580078125" lon="116.683587245643138885498046875">
        <ele>80.1999969482421875</ele>
        <time>2026-09-19T09:36:11.000Z</time>
        <extensions>
          <ns3:TrackPointExtension>
            <ns3:hr>146</ns3:hr>
            <ns3:cad>0</ns3:cad>
          </ns3:TrackPointExtension>
        </extensions>
      </trkpt>
      <trkpt lat="40.40411238558590412139892578125" lon="116.68359135277569293975830078125">
        <ele>80.1999969482421875</ele>
        <time>2026-09-19T09:36:12.000Z</time>
        <extensions>
          <ns3:TrackPointExtension>
            <ns3:hr>146</ns3:hr>
            <ns3:cad>0</ns3:cad>
          </ns3:TrackPointExtension>
        </extensions>
      </trkpt>
      <trkpt lat="40.40406226180493831634521484375" lon="116.6835887543857097625732421875">
        <ele>80.40000152587890625</ele>
        <time>2026-09-19T09:36:13.000Z</time>
        <extensions>
          <ns3:TrackPointExtension>
            <ns3:hr>146</ns3:hr>
            <ns3:cad>94</ns3:cad>
          </ns3:TrackPointExtension>
        </extensions>
      </trkpt>
      <trkpt lat="40.40401004254817962646484375" lon="116.6835864074528217315673828125">
        <ele>80.59999847412109375</ele>
        <time>2026-09-19T09:36:14.000Z</time>
        <extensions>
          <ns3:TrackPointExtension>
            <ns3:hr>146</ns3:hr>
            <ns3:cad>94</ns3:cad>
          </ns3:TrackPointExtension>
        </extensions>
      </trkpt>
      <trkpt lat="40.403964109718799591064453125" lon="116.68358531780540943145751953125">
        <ele>80.8000030517578125</ele>
        <time>2026-09-19T09:36:15.000Z</time>
        <extensions>
          <ns3:TrackPointExtension>
            <ns3:hr>146</ns3:hr>
            <ns3:cad>97</ns3:cad>
          </ns3:TrackPointExtension>
        </extensions>
      </trkpt>
      <trkpt lat="40.4039129801094532012939453125" lon="116.6835890896618366241455078125">
        <ele>80.8000030517578125</ele>
        <time>2026-09-19T09:36:16.000Z</time>
        <extensions>
          <ns3:TrackPointExtension>
            <ns3:hr>152</ns3:hr>
            <ns3:cad>97</ns3:cad>
          </ns3:TrackPointExtension>
        </extensions>
      </trkpt>
      <trkpt lat="40.40386377833783626556396484375" lon="116.6835914365947246551513671875">
        <ele>80.8000030517578125</ele>
        <time>2026-09-19T09:36:17.000Z</time>
        <extensions>
          <ns3:TrackPointExtension>
            <ns3:hr>158</ns3:hr>
            <ns3:cad>97</ns3:cad>
          </ns3:TrackPointExtension>
        </extensions>
      </trkpt>
      <trkpt lat="40.4038170911371707916259765625" lon="116.6835929453372955322265625">
        <ele>80.8000030517578125</ele>
        <time>2026-09-19T09:36:18.000Z</time>
        <extensions>
          <ns3:TrackPointExtension>
            <ns3:hr>159</ns3:hr>
            <ns3:cad>97</ns3:cad>
          </ns3:TrackPointExtension>
        </extensions>
      </trkpt>
      <trkpt lat="40.40378197096288204193115234375" lon="116.68359738774597644805908203125">
        <ele>80.8000030517578125</ele>
        <time>2026-09-19T09:36:19.000Z</time>
        <extensions>
          <ns3:TrackPointExtension>
            <ns3:hr>161</ns3:hr>
            <ns3:cad>96</ns3:cad>
          </ns3:TrackPointExtension>
        </extensions>
      </trkpt>
      <trkpt lat="40.40374643169343471527099609375" lon="116.6835880838334560394287109375">
        <ele>80.8000030517578125</ele>
        <time>2026-09-19T09:36:20.000Z</time>
        <extensions>
          <ns3:TrackPointExtension>
            <ns3:hr>165</ns3:hr>
            <ns3:cad>48</ns3:cad>
          </ns3:TrackPointExtension>
        </extensions>
      </trkpt>
      <trkpt lat="40.40371944196522235870361328125" lon="116.6835911013185977935791015625">
        <ele>80.8000030517578125</ele>
        <time>2026-09-19T09:36:21.000Z</time>
        <extensions>
          <ns3:TrackPointExtension>
            <ns3:hr>165</ns3:hr>
            <ns3:cad>48</ns3:cad>
          </ns3:TrackPointExtension>
        </extensions>
      </trkpt>
      <trkpt lat="40.40369899012148380279541015625" lon="116.68359629809856414794921875">
        <ele>80.8000030517578125</ele>
        <time>2026-09-19T09:36:22.000Z</time>
        <extensions>
          <ns3:TrackPointExtension>
            <ns3:hr>166</ns3:hr>
            <ns3:cad>48</ns3:cad>
          </ns3:TrackPointExtension>
        </extensions>
      </trkpt>
      <trkpt lat="40.40368876419961452484130859375" lon="116.683605350553989410400390625">
        <ele>80.59999847412109375</ele>
        <time>2026-09-19T09:36:23.000Z</time>
        <extensions>
          <ns3:TrackPointExtension>
            <ns3:hr>165</ns3:hr>
            <ns3:cad>48</ns3:cad>
          </ns3:TrackPointExtension>
        </extensions>
      </trkpt>
      <trkpt lat="40.4036806337535381317138671875" lon="116.68361029587686061859130859375">
        <ele>80.59999847412109375</ele>
        <time>2026-09-19T09:36:24.000Z</time>
        <extensions>
          <ns3:TrackPointExtension>
            <ns3:hr>167</ns3:hr>
            <ns3:cad>48</ns3:cad>
          </ns3:TrackPointExtension>
        </extensions>
      </trkpt>
      <trkpt lat="40.40366831235587596893310546875" lon="116.683613397181034088134765625">
        <ele>80.8000030517578125</ele>
        <time>2026-09-19T09:36:25.000Z</time>
        <extensions>
          <ns3:TrackPointExtension>
            <ns3:hr>166</ns3:hr>
            <ns3:cad>48</ns3:cad>
          </ns3:TrackPointExtension>
        </extensions>
      </trkpt>
      <trkpt lat="40.40365607477724552154541015625" lon="116.6836108826100826263427734375">
        <ele>80.8000030517578125</ele>
        <time>2026-09-19T09:36:26.000Z</time>
        <extensions>
          <ns3:TrackPointExtension>
            <ns3:hr>165</ns3:hr>
            <ns3:cad>48</ns3:cad>
          </ns3:TrackPointExtension>
        </extensions>
      </trkpt>
      <trkpt lat="40.4036407358944416046142578125" lon="116.68360878713428974151611328125">
        <ele>80.8000030517578125</ele>
        <time>2026-09-19T09:36:27.000Z</time>
        <extensions>
          <ns3:TrackPointExtension>
            <ns3:hr>164</ns3:hr>
            <ns3:cad>48</ns3:cad>
          </ns3:TrackPointExtension>
        </extensions>
      </trkpt>
      <trkpt lat="40.40362640284001827239990234375" lon="116.68360426090657711029052734375">
        <ele>80.59999847412109375</ele>
        <time>2026-09-19T09:36:28.000Z</time>
        <extensions>
          <ns3:TrackPointExtension>
            <ns3:hr>164</ns3:hr>
            <ns3:cad>48</ns3:cad>
          </ns3:TrackPointExtension>
        </extensions>
      </trkpt>
      <trkpt lat="40.40361500345170497894287109375" lon="116.68360157869756221771240234375">
        <ele>80.59999847412109375</ele>
        <time>2026-09-19T09:36:29.000Z</time>
        <extensions>
          <ns3:TrackPointExtension>
            <ns3:hr>161</ns3:hr>
            <ns3:cad>48</ns3:cad>
          </ns3:TrackPointExtension>
        </extensions>
      </trkpt>
      <trkpt lat="40.403597988188266754150390625" lon="116.68360224924981594085693359375">
        <ele>80.59999847412109375</ele>
        <time>2026-09-19T09:36:30.000Z</time>
        <extensions>
          <ns3:TrackPointExtension>
            <ns3:hr>160</ns3:hr>
            <ns3:cad>48</ns3:cad>
          </ns3:TrackPointExtension>
        </extensions>
      </trkpt>
      <trkpt lat="40.40358784608542919158935546875" lon="116.68360233306884765625">
        <ele>80.59999847412109375</ele>
        <time>2026-09-19T09:36:31.000Z</time>
        <extensions>
          <ns3:TrackPointExtension>
            <ns3:hr>158</ns3:hr>
            <ns3:cad>55</ns3:cad>
          </ns3:TrackPointExtension>
        </extensions>
      </trkpt>
      <trkpt lat="40.40357812307775020599365234375" lon="116.68360543437302112579345703125">
        <ele>80.8000030517578125</ele>
        <time>2026-09-19T09:36:32.000Z</time>
        <extensions>
          <ns3:TrackPointExtension>
            <ns3:hr>158</ns3:hr>
            <ns3:cad>55</ns3:cad>
          </ns3:TrackPointExtension>
        </extensions>
      </trkpt>
      <trkpt lat="40.40357376448810100555419921875" lon="116.68360929004848003387451171875">
        <ele>80.8000030517578125</ele>
        <time>2026-09-19T09:36:33.000Z</time>
        <extensions>
          <ns3:TrackPointExtension>
            <ns3:hr>156</ns3:hr>
            <ns3:cad>55</ns3:cad>
          </ns3:TrackPointExtension>
        </extensions>
      </trkpt>
      <trkpt lat="40.4035585932433605194091796875" lon="116.68360727839171886444091796875">
        <ele>80.8000030517578125</ele>
        <time>2026-09-19T09:36:34.000Z</time>
        <extensions>
          <ns3:TrackPointExtension>
            <ns3:hr>156</ns3:hr>
            <ns3:cad>55</ns3:cad>
          </ns3:TrackPointExtension>
        </extensions>
      </trkpt>
      <trkpt lat="40.40354895405471324920654296875" lon="116.683606021106243133544921875">
        <ele>80.8000030517578125</ele>
        <time>2026-09-19T09:36:35.000Z</time>
        <extensions>
          <ns3:TrackPointExtension>
            <ns3:hr>155</ns3:hr>
            <ns3:cad>55</ns3:cad>
          </ns3:TrackPointExtension>
        </extensions>
      </trkpt>
      <trkpt lat="40.403536967933177947998046875" lon="116.68360157869756221771240234375">
        <ele>80.59999847412109375</ele>
        <time>2026-09-19T09:36:36.000Z</time>
        <extensions>
          <ns3:TrackPointExtension>
            <ns3:hr>154</ns3:hr>
            <ns3:cad>53</ns3:cad>
          </ns3:TrackPointExtension>
        </extensions>
      </trkpt>
      <trkpt lat="40.40352498181164264678955078125" lon="116.683596633374691009521484375">
        <ele>80.59999847412109375</ele>
        <time>2026-09-19T09:36:37.000Z</time>
        <extensions>
          <ns3:TrackPointExtension>
            <ns3:hr>153</ns3:hr>
            <ns3:cad>53</ns3:cad>
          </ns3:TrackPointExtension>
        </extensions>
      </trkpt>
      <trkpt lat="40.40351123549044132232666015625" lon="116.6835921071469783782958984375">
        <ele>80.59999847412109375</ele>
        <time>2026-09-19T09:36:38.000Z</time>
        <extensions>
          <ns3:TrackPointExtension>
            <ns3:hr>153</ns3:hr>
            <ns3:cad>53</ns3:cad>
          </ns3:TrackPointExtension>
        </extensions>
      </trkpt>
      <trkpt lat="40.4034989140927791595458984375" lon="116.683588586747646331787109375">
        <ele>80.59999847412109375</ele>
        <time>2026-09-19T09:36:39.000Z</time>
        <extensions>
          <ns3:TrackPointExtension>
            <ns3:hr>152</ns3:hr>
            <ns3:cad>53</ns3:cad>
          </ns3:TrackPointExtension>
        </extensions>
      </trkpt>
      <trkpt lat="40.403487347066402435302734375" lon="116.6835902631282806396484375">
        <ele>80.59999847412109375</ele>
        <time>2026-09-19T09:36:40.000Z</time>
        <extensions>
          <ns3:TrackPointExtension>
            <ns3:hr>150</ns3:hr>
            <ns3:cad>56</ns3:cad>
          </ns3:TrackPointExtension>
        </extensions>
      </trkpt>
      <trkpt lat="40.40347435511648654937744140625" lon="116.6835944540798664093017578125">
        <ele>80.40000152587890625</ele>
        <time>2026-09-19T09:36:41.000Z</time>
        <extensions>
          <ns3:TrackPointExtension>
            <ns3:hr>149</ns3:hr>
            <ns3:cad>56</ns3:cad>
          </ns3:TrackPointExtension>
        </extensions>
      </trkpt>
      <trkpt lat="40.403458178043365478515625" lon="116.683599315583705902099609375">
        <ele>80.40000152587890625</ele>
        <time>2026-09-19T09:36:42.000Z</time>
        <extensions>
          <ns3:TrackPointExtension>
            <ns3:hr>149</ns3:hr>
            <ns3:cad>55</ns3:cad>
          </ns3:TrackPointExtension>
        </extensions>
      </trkpt>
      <trkpt lat="40.4034449346363544464111328125" lon="116.683601327240467071533203125">
        <ele>80.40000152587890625</ele>
        <time>2026-09-19T09:36:43.000Z</time>
        <extensions>
          <ns3:TrackPointExtension>
            <ns3:hr>148</ns3:hr>
            <ns3:cad>55</ns3:cad>
          </ns3:TrackPointExtension>
        </extensions>
      </trkpt>
      <trkpt lat="40.40343227796256542205810546875" lon="116.6835998184978961944580078125">
        <ele>80.40000152587890625</ele>
        <time>2026-09-19T09:36:44.000Z</time>
        <extensions>
          <ns3:TrackPointExtension>
            <ns3:hr>146</ns3:hr>
            <ns3:cad>55</ns3:cad>
          </ns3:TrackPointExtension>
        </extensions>
      </trkpt>
      <trkpt lat="40.40342129766941070556640625" lon="116.68359705246984958648681640625">
        <ele>80.40000152587890625</ele>
        <time>2026-09-19T09:36:45.000Z</time>
        <extensions>
          <ns3:TrackPointExtension>
            <ns3:hr>145</ns3:hr>
            <ns3:cad>55</ns3:cad>
          </ns3:TrackPointExtension>
        </extensions>
      </trkpt>
      <trkpt lat="40.40341132320463657379150390625" lon="116.6835951246321201324462890625">
        <ele>80.40000152587890625</ele>
        <time>2026-09-19T09:36:46.000Z</time>
        <extensions>
          <ns3:TrackPointExtension>
            <ns3:hr>144</ns3:hr>
            <ns3:cad>55</ns3:cad>
          </ns3:TrackPointExtension>
        </extensions>
      </trkpt>
      <trkpt lat="40.403401851654052734375" lon="116.683595962822437286376953125">
        <ele>80.40000152587890625</ele>
        <time>2026-09-19T09:36:47.000Z</time>
        <extensions>
          <ns3:TrackPointExtension>
            <ns3:hr>143</ns3:hr>
            <ns3:cad>55</ns3:cad>
          </ns3:TrackPointExtension>
        </extensions>
      </trkpt>
      <trkpt lat="40.403392128646373748779296875" lon="116.68359772302210330963134765625">
        <ele>80.40000152587890625</ele>
        <time>2026-09-19T09:36:48.000Z</time>
        <extensions>
          <ns3:TrackPointExtension>
            <ns3:hr>142</ns3:hr>
            <ns3:cad>55</ns3:cad>
          </ns3:TrackPointExtension>
        </extensions>
      </trkpt>
      <trkpt lat="40.403380729258060455322265625" lon="116.68359898030757904052734375">
        <ele>80.40000152587890625</ele>
        <time>2026-09-19T09:36:49.000Z</time>
        <extensions>
          <ns3:TrackPointExtension>
            <ns3:hr>142</ns3:hr>
            <ns3:cad>55</ns3:cad>
          </ns3:TrackPointExtension>
        </extensions>
      </trkpt>
      <trkpt lat="40.40337192825973033905029296875" lon="116.6836014948785305023193359375">
        <ele>80.40000152587890625</ele>
        <time>2026-09-19T09:36:50.000Z</time>
        <extensions>
          <ns3:TrackPointExtension>
            <ns3:hr>142</ns3:hr>
            <ns3:cad>55</ns3:cad>
          </ns3:TrackPointExtension>
        </extensions>
      </trkpt>
      <trkpt lat="40.4033591039478778839111328125" lon="116.6836008243262767791748046875">
        <ele>80.40000152587890625</ele>
        <time>2026-09-19T09:36:51.000Z</time>
        <extensions>
          <ns3:TrackPointExtension>
            <ns3:hr>142</ns3:hr>
            <ns3:cad>55</ns3:cad>
          </ns3:TrackPointExtension>
        </extensions>
      </trkpt>
      <trkpt lat="40.40334753692150115966796875" lon="116.68360032141208648681640625">
        <ele>80.40000152587890625</ele>
        <time>2026-09-19T09:36:52.000Z</time>
        <extensions>
          <ns3:TrackPointExtension>
            <ns3:hr>142</ns3:hr>
            <ns3:cad>53</ns3:cad>
          </ns3:TrackPointExtension>
        </extensions>
      </trkpt>
      <trkpt lat="40.4033349640667438507080078125" lon="116.6835994832217693328857421875">
        <ele>80.40000152587890625</ele>
        <time>2026-09-19T09:36:53.000Z</time>
        <extensions>
          <ns3:TrackPointExtension>
            <ns3:hr>140</ns3:hr>
            <ns3:cad>53</ns3:cad>
          </ns3:TrackPointExtension>
        </extensions>
      </trkpt>
      <trkpt lat="40.40332482196390628814697265625" lon="116.68359856121242046356201171875">
        <ele>80.1999969482421875</ele>
        <time>2026-09-19T09:36:54.000Z</time>
        <extensions>
          <ns3:TrackPointExtension>
            <ns3:hr>139</ns3:hr>
            <ns3:cad>53</ns3:cad>
          </ns3:TrackPointExtension>
        </extensions>
      </trkpt>
      <trkpt lat="40.4033275879919528961181640625" lon="116.6835991479456424713134765625">
        <ele>80.1999969482421875</ele>
        <time>2026-09-19T09:36:55.000Z</time>
        <extensions>
          <ns3:TrackPointExtension>
            <ns3:hr>138</ns3:hr>
            <ns3:cad>53</ns3:cad>
          </ns3:TrackPointExtension>
        </extensions>
      </trkpt>
      <trkpt lat="40.40333286859095096588134765625" lon="116.683600656688213348388671875">
        <ele>80.1999969482421875</ele>
        <time>2026-09-19T09:36:56.000Z</time>
        <extensions>
          <ns3:TrackPointExtension>
            <ns3:hr>136</ns3:hr>
            <ns3:cad>53</ns3:cad>
          </ns3:TrackPointExtension>
        </extensions>
      </trkpt>
      <trkpt lat="40.403349883854389190673828125" lon="116.68360107578337192535400390625">
        <ele>80</ele>
        <time>2026-09-19T09:36:57.000Z</time>
        <extensions>
          <ns3:TrackPointExtension>
            <ns3:hr>135</ns3:hr>
            <ns3:cad>53</ns3:cad>
          </ns3:TrackPointExtension>
        </extensions>
      </trkpt>
      <trkpt lat="40.40338131599128246307373046875" lon="116.68359939940273761749267578125">
        <ele>80</ele>
        <time>2026-09-19T09:36:58.000Z</time>
        <extensions>
          <ns3:TrackPointExtension>
            <ns3:hr>135</ns3:hr>
            <ns3:cad>0</ns3:cad>
          </ns3:TrackPointExtension>
        </extensions>
      </trkpt>
      <trkpt lat="40.4034204594790935516357421875" lon="116.683597974479198455810546875">
        <ele>80</ele>
        <time>2026-09-19T09:36:59.000Z</time>
        <extensions>
          <ns3:TrackPointExtension>
            <ns3:hr>138</ns3:hr>
            <ns3:cad>0</ns3:cad>
          </ns3:TrackPointExtension>
        </extensions>
      </trkpt>
      <trkpt lat="40.4034754447638988494873046875" lon="116.6835974715650081634521484375">
        <ele>80</ele>
        <time>2026-09-19T09:37:00.000Z</time>
        <extensions>
          <ns3:TrackPointExtension>
            <ns3:hr>143</ns3:hr>
            <ns3:cad>0</ns3:cad>
          </ns3:TrackPointExtension>
        </extensions>
      </trkpt>
      <trkpt lat="40.40352883748710155487060546875" lon="116.68359537608921527862548828125">
        <ele>80</ele>
        <time>2026-09-19T09:37:01.000Z</time>
        <extensions>
          <ns3:TrackPointExtension>
            <ns3:hr>145</ns3:hr>
            <ns3:cad>0</ns3:cad>
          </ns3:TrackPointExtension>
        </extensions>
      </trkpt>
      <trkpt lat="40.4035834036767482757568359375" lon="116.683593280613422393798828125">
        <ele>80.1999969482421875</ele>
        <time>2026-09-19T09:37:02.000Z</time>
        <extensions>
          <ns3:TrackPointExtension>
            <ns3:hr>147</ns3:hr>
            <ns3:cad>0</ns3:cad>
          </ns3:TrackPointExtension>
        </extensions>
      </trkpt>
      <trkpt lat="40.40363981388509273529052734375" lon="116.6835902631282806396484375">
        <ele>80.40000152587890625</ele>
        <time>2026-09-19T09:37:03.000Z</time>
        <extensions>
          <ns3:TrackPointExtension>
            <ns3:hr>150</ns3:hr>
            <ns3:cad>0</ns3:cad>
          </ns3:TrackPointExtension>
        </extensions>
      </trkpt>
      <trkpt lat="40.40368893183767795562744140625" lon="116.6835864074528217315673828125">
        <ele>80.59999847412109375</ele>
        <time>2026-09-19T09:37:04.000Z</time>
        <extensions>
          <ns3:TrackPointExtension>
            <ns3:hr>152</ns3:hr>
            <ns3:cad>0</ns3:cad>
          </ns3:TrackPointExtension>
        </extensions>
      </trkpt>
      <trkpt lat="40.40374157018959522247314453125" lon="116.6835860721766948699951171875">
        <ele>80.59999847412109375</ele>
        <time>2026-09-19T09:37:05.000Z</time>
        <extensions>
          <ns3:TrackPointExtension>
            <ns3:hr>154</ns3:hr>
            <ns3:cad>97</ns3:cad>
          </ns3:TrackPointExtension>
        </extensions>
      </trkpt>
      <trkpt lat="40.40378876030445098876953125" lon="116.68358154594898223876953125">
        <ele>80.8000030517578125</ele>
        <time>2026-09-19T09:37:06.000Z</time>
        <extensions>
          <ns3:TrackPointExtension>
            <ns3:hr>154</ns3:hr>
            <ns3:cad>97</ns3:cad>
          </ns3:TrackPointExtension>
        </extensions>
      </trkpt>
      <trkpt lat="40.40383511222898960113525390625" lon="116.683579869568347930908203125">
        <ele>80.8000030517578125</ele>
        <time>2026-09-19T09:37:07.000Z</time>
        <extensions>
          <ns3:TrackPointExtension>
            <ns3:hr>158</ns3:hr>
            <ns3:cad>97</ns3:cad>
          </ns3:TrackPointExtension>
        </extensions>
      </trkpt>
      <trkpt lat="40.40388490073382854461669921875" lon="116.68357442133128643035888671875">
        <ele>80.8000030517578125</ele>
        <time>2026-09-19T09:37:08.000Z</time>
        <extensions>
          <ns3:TrackPointExtension>
            <ns3:hr>158</ns3:hr>
            <ns3:cad>97</ns3:cad>
          </ns3:TrackPointExtension>
        </extensions>
      </trkpt>
      <trkpt lat="40.4039270617067813873291015625" lon="116.68356888927519321441650390625">
        <ele>80.8000030517578125</ele>
        <time>2026-09-19T09:37:09.000Z</time>
        <extensions>
          <ns3:TrackPointExtension>
            <ns3:hr>161</ns3:hr>
            <ns3:cad>97</ns3:cad>
          </ns3:TrackPointExtension>
        </extensions>
      </trkpt>
      <trkpt lat="40.40396905504167079925537109375" lon="116.68357576243579387664794921875">
        <ele>80.8000030517578125</ele>
        <time>2026-09-19T09:37:10.000Z</time>
        <extensions>
          <ns3:TrackPointExtension>
            <ns3:hr>161</ns3:hr>
            <ns3:cad>96</ns3:cad>
          </ns3:TrackPointExtension>
        </extensions>
      </trkpt>
      <trkpt lat="40.40400677360594272613525390625" lon="116.68357442133128643035888671875">
        <ele>80.8000030517578125</ele>
        <time>2026-09-19T09:37:11.000Z</time>
        <extensions>
          <ns3:TrackPointExtension>
            <ns3:hr>163</ns3:hr>
            <ns3:cad>94</ns3:cad>
          </ns3:TrackPointExtension>
        </extensions>
      </trkpt>
      <trkpt lat="40.40404868312180042266845703125" lon="116.68356813490390777587890625">
        <ele>80.59999847412109375</ele>
        <time>2026-09-19T09:37:12.000Z</time>
        <extensions>
          <ns3:TrackPointExtension>
            <ns3:hr>163</ns3:hr>
            <ns3:cad>94</ns3:cad>
          </ns3:TrackPointExtension>
        </extensions>
      </trkpt>
      <trkpt lat="40.404087491333484649658203125" lon="116.68356813490390777587890625">
        <ele>80.59999847412109375</ele>
        <time>2026-09-19T09:37:13.000Z</time>
        <extensions>
          <ns3:TrackPointExtension>
            <ns3:hr>163</ns3:hr>
            <ns3:cad>94</ns3:cad>
          </ns3:TrackPointExtension>
        </extensions>
      </trkpt>
      <trkpt lat="40.40411531925201416015625" lon="116.68356603942811489105224609375">
        <ele>80.59999847412109375</ele>
        <time>2026-09-19T09:37:14.000Z</time>
        <extensions>
          <ns3:TrackPointExtension>
            <ns3:hr>163</ns3:hr>
            <ns3:cad>95</ns3:cad>
          </ns3:TrackPointExtension>
        </extensions>
      </trkpt>
      <trkpt lat="40.4041248746216297149658203125" lon="116.68355648405849933624267578125">
        <ele>80.59999847412109375</ele>
        <time>2026-09-19T09:37:15.000Z</time>
        <extensions>
          <ns3:TrackPointExtension>
            <ns3:hr>164</ns3:hr>
            <ns3:cad>95</ns3:cad>
          </ns3:TrackPointExtension>
        </extensions>
      </trkpt>
      <trkpt lat="40.4041379503905773162841796875" lon="116.68355011381208896636962890625">
        <ele>80.59999847412109375</ele>
        <time>2026-09-19T09:37:16.000Z</time>
        <extensions>
          <ns3:TrackPointExtension>
            <ns3:hr>164</ns3:hr>
            <ns3:cad>95</ns3:cad>
          </ns3:TrackPointExtension>
        </extensions>
      </trkpt>
      <trkpt lat="40.4041486792266368865966796875" lon="116.6835478506982326507568359375">
        <ele>80.8000030517578125</ele>
        <time>2026-09-19T09:37:17.000Z</time>
        <extensions>
          <ns3:TrackPointExtension>
            <ns3:hr>165</ns3:hr>
            <ns3:cad>95</ns3:cad>
          </ns3:TrackPointExtension>
        </extensions>
      </trkpt>
      <trkpt lat="40.40415731258690357208251953125" lon="116.68354910798370838165283203125">
        <ele>80.8000030517578125</ele>
        <time>2026-09-19T09:37:18.000Z</time>
        <extensions>
          <ns3:TrackPointExtension>
            <ns3:hr>165</ns3:hr>
            <ns3:cad>95</ns3:cad>
          </ns3:TrackPointExtension>
        </extensions>
      </trkpt>
      <trkpt lat="40.40416234172880649566650390625" lon="116.6835473477840423583984375">
        <ele>80.8000030517578125</ele>
        <time>2026-09-19T09:37:19.000Z</time>
        <extensions>
          <ns3:TrackPointExtension>
            <ns3:hr>164</ns3:hr>
            <ns3:cad>95</ns3:cad>
          </ns3:TrackPointExtension>
        </extensions>
      </trkpt>
      <trkpt lat="40.4041714780032634735107421875" lon="116.683547012507915496826171875">
        <ele>80.59999847412109375</ele>
        <time>2026-09-19T09:37:20.000Z</time>
        <extensions>
          <ns3:TrackPointExtension>
            <ns3:hr>164</ns3:hr>
            <ns3:cad>95</ns3:cad>
          </ns3:TrackPointExtension>
        </extensions>
      </trkpt>
      <trkpt lat="40.404181368649005889892578125" lon="116.68354474939405918121337890625">
        <ele>80.59999847412109375</ele>
        <time>2026-09-19T09:37:21.000Z</time>
        <extensions>
          <ns3:TrackPointExtension>
            <ns3:hr>162</ns3:hr>
            <ns3:cad>0</ns3:cad>
          </ns3:TrackPointExtension>
        </extensions>
      </trkpt>
      <trkpt lat="40.40419377386569976806640625" lon="116.68354776687920093536376953125">
        <ele>80.59999847412109375</ele>
        <time>2026-09-19T09:37:22.000Z</time>
        <extensions>
          <ns3:TrackPointExtension>
            <ns3:hr>161</ns3:hr>
            <ns3:cad>0</ns3:cad>
          </ns3:TrackPointExtension>
        </extensions>
      </trkpt>
      <trkpt lat="40.40420626290142536163330078125" lon="116.68355229310691356658935546875">
        <ele>80.59999847412109375</ele>
        <time>2026-09-19T09:37:23.000Z</time>
        <extensions>
          <ns3:TrackPointExtension>
            <ns3:hr>160</ns3:hr>
            <ns3:cad>0</ns3:cad>
          </ns3:TrackPointExtension>
        </extensions>
      </trkpt>
      <trkpt lat="40.4042227752506732940673828125" lon="116.6835579089820384979248046875">
        <ele>80.59999847412109375</ele>
        <time>2026-09-19T09:37:24.000Z</time>
        <extensions>
          <ns3:TrackPointExtension>
            <ns3:hr>158</ns3:hr>
            <ns3:cad>0</ns3:cad>
          </ns3:TrackPointExtension>
        </extensions>
      </trkpt>
      <trkpt lat="40.4042365215718746185302734375" lon="116.68356050737202167510986328125">
        <ele>80.59999847412109375</ele>
        <time>2026-09-19T09:37:25.000Z</time>
        <extensions>
          <ns3:TrackPointExtension>
            <ns3:hr>157</ns3:hr>
            <ns3:cad>55</ns3:cad>
          </ns3:TrackPointExtension>
        </extensions>
      </trkpt>
      <trkpt lat="40.404242388904094696044921875" lon="116.68354726396501064300537109375">
        <ele>80.59999847412109375</ele>
        <time>2026-09-19T09:37:26.000Z</time>
        <extensions>
          <ns3:TrackPointExtension>
            <ns3:hr>155</ns3:hr>
            <ns3:cad>55</ns3:cad>
          </ns3:TrackPointExtension>
        </extensions>
      </trkpt>
      <trkpt lat="40.404251106083393096923828125" lon="116.683547012507915496826171875">
        <ele>80.59999847412109375</ele>
        <time>2026-09-19T09:37:27.000Z</time>
        <extensions>
          <ns3:TrackPointExtension>
            <ns3:hr>155</ns3:hr>
            <ns3:cad>54</ns3:cad>
          </ns3:TrackPointExtension>
        </extensions>
      </trkpt>
      <trkpt lat="40.4042573086917400360107421875" lon="116.6835451684892177581787109375">
        <ele>80.59999847412109375</ele>
        <time>2026-09-19T09:37:28.000Z</time>
        <extensions>
          <ns3:TrackPointExtension>
            <ns3:hr>153</ns3:hr>
            <ns3:cad>54</ns3:cad>
          </ns3:TrackPointExtension>
        </extensions>
      </trkpt>
      <trkpt lat="40.40426627732813358306884765625" lon="116.683542318642139434814453125">
        <ele>80.59999847412109375</ele>
        <time>2026-09-19T09:37:29.000Z</time>
        <extensions>
          <ns3:TrackPointExtension>
            <ns3:hr>151</ns3:hr>
            <ns3:cad>54</ns3:cad>
          </ns3:TrackPointExtension>
        </extensions>
      </trkpt>
      <trkpt lat="40.40427667088806629180908203125" lon="116.68353972025215625762939453125">
        <ele>80.59999847412109375</ele>
        <time>2026-09-19T09:37:30.000Z</time>
        <extensions>
          <ns3:TrackPointExtension>
            <ns3:hr>150</ns3:hr>
            <ns3:cad>54</ns3:cad>
          </ns3:TrackPointExtension>
        </extensions>
      </trkpt>
      <trkpt lat="40.40428438223898410797119140625" lon="116.68354022316634654998779296875">
        <ele>80.40000152587890625</ele>
        <time>2026-09-19T09:37:31.000Z</time>
        <extensions>
          <ns3:TrackPointExtension>
            <ns3:hr>149</ns3:hr>
            <ns3:cad>54</ns3:cad>
          </ns3:TrackPointExtension>
        </extensions>
      </trkpt>
      <trkpt lat="40.4042908363044261932373046875" lon="116.68354005552828311920166015625">
        <ele>80.40000152587890625</ele>
        <time>2026-09-19T09:37:32.000Z</time>
        <extensions>
          <ns3:TrackPointExtension>
            <ns3:hr>149</ns3:hr>
            <ns3:cad>0</ns3:cad>
          </ns3:TrackPointExtension>
        </extensions>
      </trkpt>
      <trkpt lat="40.4042975418269634246826171875" lon="116.68354206718504428863525390625">
        <ele>80.1999969482421875</ele>
        <time>2026-09-19T09:37:33.000Z</time>
        <extensions>
          <ns3:TrackPointExtension>
            <ns3:hr>148</ns3:hr>
            <ns3:cad>0</ns3:cad>
          </ns3:TrackPointExtension>
        </extensions>
      </trkpt>
      <trkpt lat="40.40430416353046894073486328125" lon="116.6835461743175983428955078125">
        <ele>80.1999969482421875</ele>
        <time>2026-09-19T09:37:34.000Z</time>
        <extensions>
          <ns3:TrackPointExtension>
            <ns3:hr>148</ns3:hr>
            <ns3:cad>0</ns3:cad>
          </ns3:TrackPointExtension>
        </extensions>
      </trkpt>
      <trkpt lat="40.4043112881481647491455078125" lon="116.68355070054531097412109375">
        <ele>80</ele>
        <time>2026-09-19T09:37:35.000Z</time>
        <extensions>
          <ns3:TrackPointExtension>
            <ns3:hr>148</ns3:hr>
            <ns3:cad>0</ns3:cad>
          </ns3:TrackPointExtension>
        </extensions>
      </trkpt>
      <trkpt lat="40.404318831861019134521484375" lon="116.68356017209589481353759765625">
        <ele>80</ele>
        <time>2026-09-19T09:37:36.000Z</time>
        <extensions>
          <ns3:TrackPointExtension>
            <ns3:hr>146</ns3:hr>
            <ns3:cad>0</ns3:cad>
          </ns3:TrackPointExtension>
        </extensions>
      </trkpt>
      <trkpt lat="40.404324196279048919677734375" lon="116.683567799627780914306640625">
        <ele>80</ele>
        <time>2026-09-19T09:37:37.000Z</time>
        <extensions>
          <ns3:TrackPointExtension>
            <ns3:hr>145</ns3:hr>
            <ns3:cad>0</ns3:cad>
          </ns3:TrackPointExtension>
        </extensions>
      </trkpt>
      <trkpt lat="40.40432386100292205810546875" lon="116.6835743375122547149658203125">
        <ele>80</ele>
        <time>2026-09-19T09:37:38.000Z</time>
        <extensions>
          <ns3:TrackPointExtension>
            <ns3:hr>143</ns3:hr>
            <ns3:cad>0</ns3:cad>
          </ns3:TrackPointExtension>
        </extensions>
      </trkpt>
      <trkpt lat="40.40432025678455829620361328125" lon="116.6835770197212696075439453125">
        <ele>80</ele>
        <time>2026-09-19T09:37:39.000Z</time>
        <extensions>
          <ns3:TrackPointExtension>
            <ns3:hr>142</ns3:hr>
            <ns3:cad>45</ns3:cad>
          </ns3:TrackPointExtension>
        </extensions>
      </trkpt>
      <trkpt lat="40.4043153114616870880126953125" lon="116.6835786961019039154052734375">
        <ele>80</ele>
        <time>2026-09-19T09:37:40.000Z</time>
        <extensions>
          <ns3:TrackPointExtension>
            <ns3:hr>140</ns3:hr>
            <ns3:cad>45</ns3:cad>
          </ns3:TrackPointExtension>
        </extensions>
      </trkpt>
      <trkpt lat="40.404309444129467010498046875" lon="116.6835827194154262542724609375">
        <ele>80</ele>
        <time>2026-09-19T09:37:41.000Z</time>
        <extensions>
          <ns3:TrackPointExtension>
            <ns3:hr>140</ns3:hr>
            <ns3:cad>0</ns3:cad>
          </ns3:TrackPointExtension>
        </extensions>
      </trkpt>
      <trkpt lat="40.4043008945882320404052734375" lon="116.6835880838334560394287109375">
        <ele>80</ele>
        <time>2026-09-19T09:37:42.000Z</time>
        <extensions>
          <ns3:TrackPointExtension>
            <ns3:hr>140</ns3:hr>
            <ns3:cad>0</ns3:cad>
          </ns3:TrackPointExtension>
        </extensions>
      </trkpt>
      <trkpt lat="40.4042921774089336395263671875" lon="116.6835954599082469940185546875">
        <ele>80</ele>
        <time>2026-09-19T09:37:43.000Z</time>
        <extensions>
          <ns3:TrackPointExtension>
            <ns3:hr>140</ns3:hr>
            <ns3:cad>0</ns3:cad>
          </ns3:TrackPointExtension>
        </extensions>
      </trkpt>
      <trkpt lat="40.40427960455417633056640625" lon="116.6835961304605007171630859375">
        <ele>80</ele>
        <time>2026-09-19T09:37:44.000Z</time>
        <extensions>
          <ns3:TrackPointExtension>
            <ns3:hr>138</ns3:hr>
            <ns3:cad>0</ns3:cad>
          </ns3:TrackPointExtension>
        </extensions>
      </trkpt>
      <trkpt lat="40.40426887571811676025390625" lon="116.68359772302210330963134765625">
        <ele>80</ele>
        <time>2026-09-19T09:37:45.000Z</time>
        <extensions>
          <ns3:TrackPointExtension>
            <ns3:hr>138</ns3:hr>
            <ns3:cad>43</ns3:cad>
          </ns3:TrackPointExtension>
        </extensions>
      </trkpt>
      <trkpt lat="40.40426024235785007476806640625" lon="116.68359889648854732513427734375">
        <ele>80</ele>
        <time>2026-09-19T09:37:46.000Z</time>
        <extensions>
          <ns3:TrackPointExtension>
            <ns3:hr>138</ns3:hr>
            <ns3:cad>43</ns3:cad>
          </ns3:TrackPointExtension>
        </extensions>
      </trkpt>
      <trkpt lat="40.40425001643598079681396484375" lon="116.683601327240467071533203125">
        <ele>80</ele>
        <time>2026-09-19T09:37:47.000Z</time>
        <extensions>
          <ns3:TrackPointExtension>
            <ns3:hr>138</ns3:hr>
            <ns3:cad>43</ns3:cad>
          </ns3:TrackPointExtension>
        </extensions>
      </trkpt>
      <trkpt lat="40.40422135032713413238525390625" lon="116.683604009449481964111328125">
        <ele>80</ele>
        <time>2026-09-19T09:37:48.000Z</time>
        <extensions>
          <ns3:TrackPointExtension>
            <ns3:hr>138</ns3:hr>
            <ns3:cad>0</ns3:cad>
          </ns3:TrackPointExtension>
        </extensions>
      </trkpt>
      <trkpt lat="40.40417910553514957427978515625" lon="116.68360434472560882568359375">
        <ele>80</ele>
        <time>2026-09-19T09:37:49.000Z</time>
        <extensions>
          <ns3:TrackPointExtension>
            <ns3:hr>139</ns3:hr>
            <ns3:cad>0</ns3:cad>
          </ns3:TrackPointExtension>
        </extensions>
      </trkpt>
      <trkpt lat="40.4041305743157863616943359375" lon="116.6836031712591648101806640625">
        <ele>80</ele>
        <time>2026-09-19T09:37:50.000Z</time>
        <extensions>
          <ns3:TrackPointExtension>
            <ns3:hr>141</ns3:hr>
            <ns3:cad>0</ns3:cad>
          </ns3:TrackPointExtension>
        </extensions>
      </trkpt>
      <trkpt lat="40.40407181717455387115478515625" lon="116.6836041770875453948974609375">
        <ele>80.1999969482421875</ele>
        <time>2026-09-19T09:37:51.000Z</time>
        <extensions>
          <ns3:TrackPointExtension>
            <ns3:hr>144</ns3:hr>
            <ns3:cad>0</ns3:cad>
          </ns3:TrackPointExtension>
        </extensions>
      </trkpt>
      <trkpt lat="40.4040162451565265655517578125" lon="116.68360660783946514129638671875">
        <ele>80.40000152587890625</ele>
        <time>2026-09-19T09:37:52.000Z</time>
        <extensions>
          <ns3:TrackPointExtension>
            <ns3:hr>146</ns3:hr>
            <ns3:cad>0</ns3:cad>
          </ns3:TrackPointExtension>
        </extensions>
      </trkpt>
      <trkpt lat="40.40396536700427532196044921875" lon="116.68360644020140171051025390625">
        <ele>80.40000152587890625</ele>
        <time>2026-09-19T09:37:53.000Z</time>
        <extensions>
          <ns3:TrackPointExtension>
            <ns3:hr>149</ns3:hr>
            <ns3:cad>99</ns3:cad>
          </ns3:TrackPointExtension>
        </extensions>
      </trkpt>
      <trkpt lat="40.4039042629301548004150390625" lon="116.68359956704080104827880859375">
        <ele>80.40000152587890625</ele>
        <time>2026-09-19T09:37:54.000Z</time>
        <extensions>
          <ns3:TrackPointExtension>
            <ns3:hr>149</ns3:hr>
            <ns3:cad>99</ns3:cad>
          </ns3:TrackPointExtension>
        </extensions>
      </trkpt>
      <trkpt lat="40.40385187603533267974853515625" lon="116.68360426090657711029052734375">
        <ele>80.40000152587890625</ele>
        <time>2026-09-19T09:37:55.000Z</time>
        <extensions>
          <ns3:TrackPointExtension>
            <ns3:hr>152</ns3:hr>
            <ns3:cad>99</ns3:cad>
          </ns3:TrackPointExtension>
        </extensions>
      </trkpt>
      <trkpt lat="40.40379320271313190460205078125" lon="116.68360426090657711029052734375">
        <ele>80.40000152587890625</ele>
        <time>2026-09-19T09:37:56.000Z</time>
        <extensions>
          <ns3:TrackPointExtension>
            <ns3:hr>153</ns3:hr>
            <ns3:cad>100</ns3:cad>
          </ns3:TrackPointExtension>
        </extensions>
      </trkpt>
      <trkpt lat="40.40373955853283405303955078125" lon="116.68360191397368907928466796875">
        <ele>80.40000152587890625</ele>
        <time>2026-09-19T09:37:57.000Z</time>
        <extensions>
          <ns3:TrackPointExtension>
            <ns3:hr>156</ns3:hr>
            <ns3:cad>100</ns3:cad>
          </ns3:TrackPointExtension>
        </extensions>
      </trkpt>
      <trkpt lat="40.40369396097958087921142578125" lon="116.68360057286918163299560546875">
        <ele>80.1999969482421875</ele>
        <time>2026-09-19T09:37:58.000Z</time>
        <extensions>
          <ns3:TrackPointExtension>
            <ns3:hr>158</ns3:hr>
            <ns3:cad>100</ns3:cad>
          </ns3:TrackPointExtension>
        </extensions>
      </trkpt>
      <trkpt lat="40.403661020100116729736328125" lon="116.683604009449481964111328125">
        <ele>80.1999969482421875</ele>
        <time>2026-09-19T09:37:59.000Z</time>
        <extensions>
          <ns3:TrackPointExtension>
            <ns3:hr>160</ns3:hr>
            <ns3:cad>100</ns3:cad>
          </ns3:TrackPointExtension>
        </extensions>
      </trkpt>
      <trkpt lat="40.4036286659538745880126953125" lon="116.68359872885048389434814453125">
        <ele>80.1999969482421875</ele>
        <time>2026-09-19T09:38:00.000Z</time>
        <extensions>
          <ns3:TrackPointExtension>
            <ns3:hr>163</ns3:hr>
            <ns3:cad>100</ns3:cad>
          </ns3:TrackPointExtension>
        </extensions>
      </trkpt>
      <trkpt lat="40.4036028496921062469482421875" lon="116.68360032141208648681640625">
        <ele>80.1999969482421875</ele>
        <time>2026-09-19T09:38:01.000Z</time>
        <extensions>
          <ns3:TrackPointExtension>
            <ns3:hr>164</ns3:hr>
            <ns3:cad>100</ns3:cad>
          </ns3:TrackPointExtension>
        </extensions>
      </trkpt>
      <trkpt lat="40.40358248166739940643310546875" lon="116.6836045123636722564697265625">
        <ele>80.1999969482421875</ele>
        <time>2026-09-19T09:38:02.000Z</time>
        <extensions>
          <ns3:TrackPointExtension>
            <ns3:hr>165</ns3:hr>
            <ns3:cad>100</ns3:cad>
          </ns3:TrackPointExtension>
        </extensions>
      </trkpt>
      <trkpt lat="40.40356487967073917388916015625" lon="116.68360845185816287994384765625">
        <ele>80.1999969482421875</ele>
        <time>2026-09-19T09:38:03.000Z</time>
        <extensions>
          <ns3:TrackPointExtension>
            <ns3:hr>165</ns3:hr>
            <ns3:cad>100</ns3:cad>
          </ns3:TrackPointExtension>
        </extensions>
      </trkpt>
      <trkpt lat="40.40355540812015533447265625" lon="116.68361146934330463409423828125">
        <ele>80.1999969482421875</ele>
        <time>2026-09-19T09:38:04.000Z</time>
        <extensions>
          <ns3:TrackPointExtension>
            <ns3:hr>165</ns3:hr>
            <ns3:cad>0</ns3:cad>
          </ns3:TrackPointExtension>
        </extensions>
      </trkpt>
      <trkpt lat="40.40354526601731777191162109375" lon="116.68360610492527484893798828125">
        <ele>80.1999969482421875</ele>
        <time>2026-09-19T09:38:05.000Z</time>
        <extensions>
          <ns3:TrackPointExtension>
            <ns3:hr>164</ns3:hr>
            <ns3:cad>0</ns3:cad>
          </ns3:TrackPointExtension>
        </extensions>
      </trkpt>
      <trkpt lat="40.403538644313812255859375" lon="116.68360191397368907928466796875">
        <ele>80.40000152587890625</ele>
        <time>2026-09-19T09:38:06.000Z</time>
        <extensions>
          <ns3:TrackPointExtension>
            <ns3:hr>165</ns3:hr>
            <ns3:cad>0</ns3:cad>
          </ns3:TrackPointExtension>
        </extensions>
      </trkpt>
      <trkpt lat="40.40353051386773586273193359375" lon="116.6835961304605007171630859375">
        <ele>80.40000152587890625</ele>
        <time>2026-09-19T09:38:07.000Z</time>
        <extensions>
          <ns3:TrackPointExtension>
            <ns3:hr>165</ns3:hr>
            <ns3:cad>0</ns3:cad>
          </ns3:TrackPointExtension>
        </extensions>
      </trkpt>
      <trkpt lat="40.403522215783596038818359375" lon="116.683591268956661224365234375">
        <ele>80.40000152587890625</ele>
        <time>2026-09-19T09:38:08.000Z</time>
        <extensions>
          <ns3:TrackPointExtension>
            <ns3:hr>164</ns3:hr>
            <ns3:cad>0</ns3:cad>
          </ns3:TrackPointExtension>
        </extensions>
      </trkpt>
      <trkpt lat="40.4035091400146484375" lon="116.68358230032026767730712890625">
        <ele>80.40000152587890625</ele>
        <time>2026-09-19T09:38:09.000Z</time>
        <extensions>
          <ns3:TrackPointExtension>
            <ns3:hr>164</ns3:hr>
            <ns3:cad>0</ns3:cad>
          </ns3:TrackPointExtension>
        </extensions>
      </trkpt>
      <trkpt lat="40.4034985788166522979736328125" lon="116.68357257731258869171142578125">
        <ele>80.1999969482421875</ele>
        <time>2026-09-19T09:38:10.000Z</time>
        <extensions>
          <ns3:TrackPointExtension>
            <ns3:hr>162</ns3:hr>
            <ns3:cad>55</ns3:cad>
          </ns3:TrackPointExtension>
        </extensions>
      </trkpt>
      <trkpt lat="40.4034861735999584197998046875" lon="116.6835656203329563140869140625">
        <ele>80.40000152587890625</ele>
        <time>2026-09-19T09:38:11.000Z</time>
        <extensions>
          <ns3:TrackPointExtension>
            <ns3:hr>160</ns3:hr>
            <ns3:cad>56</ns3:cad>
          </ns3:TrackPointExtension>
        </extensions>
      </trkpt>
    </trkseg>
  </trk>
</gpx>
