<gpx xmlns:ns3="http://www.garmin.com/xmlschemas/TrackPointExtension/v1" xmlns="http://www.topografix.com/GPX/1/1" xmlns:xsi="http://www.w3.org/2001/XMLSchema-instance" xmlns:ns2="http://www.garmin.com/xmlschemas/GpxExtensions/v3" creator="Garmin Connect" version="1.1" xsi:schemaLocation="http://www.topografix.com/GPX/1/1 http://www.topografix.com/GPX/11.xsd">
  <extensions>
<distance>650.0</distance>
<average_hr>155.0</average_hr>
<average_speed>2.506999969482422</average_speed>
<start_time>2026-10-08T15:51:35+00:00</start_time>
<end_time>2026-10-08T15:55:54.271000+00:00</end_time>
<moving_time>241.0</moving_time>
<elapsed_time>259.271</elapsed_time>
</extensions>
<metadata>
    <link href="connect.garmin.com">
      <text>Garmin Connect</text>
    </link>
    <time>2026-10-08T15:51:35.000Z</time>
  </metadata>
  <trk>
    <name>怀柔区 操场跑步</name>
    <type>track_running</type>
    <trkseg>
      <trkpt lat="40.4033433459699153900146484375" lon="116.68368858285248279571533203125">
        <ele>83.59999847412109375</ele>
        <time>2026-10-08T15:51:35.000Z</time>
        <extensions>
          <ns3:TrackPointExtension>
            <ns3:hr>142</ns3:hr>
            <ns3:cad>0</ns3:cad>
          </ns3:TrackPointExtension>
        </extensions>
      </trkpt>
      <trkpt lat="40.40326447226107120513916015625" lon="116.68369780294597148895263671875">
        <ele>83.59999847412109375</ele>
        <time>2026-10-08T15:51:36.000Z</time>
        <extensions>
          <ns3:TrackPointExtension>
            <ns3:hr>141</ns3:hr>
            <ns3:cad>0</ns3:cad>
          </ns3:TrackPointExtension>
        </extensions>
      </trkpt>
      <trkpt lat="40.4031894542276859283447265625" lon="116.68372898362576961517333984375">
        <ele>83.59999847412109375</ele>
        <time>2026-10-08T15:51:37.000Z</time>
        <extensions>
          <ns3:TrackPointExtension>
            <ns3:hr>141</ns3:hr>
            <ns3:cad>0</ns3:cad>
          </ns3:TrackPointExtension>
        </extensions>
      </trkpt>
      <trkpt lat="40.40314092300832271575927734375" lon="116.68376636691391468048095703125">
        <ele>83.59999847412109375</ele>
        <time>2026-10-08T15:51:38.000Z</time>
        <extensions>
          <ns3:TrackPointExtension>
            <ns3:hr>142</ns3:hr>
            <ns3:cad>0</ns3:cad>
          </ns3:TrackPointExtension>
        </extensions>
      </trkpt>
      <trkpt lat="40.40310454554855823516845703125" lon="116.6838048398494720458984375">
        <ele>83.59999847412109375</ele>
        <time>2026-10-08T15:51:39.000Z</time>
        <extensions>
          <ns3:TrackPointExtension>
            <ns3:hr>144</ns3:hr>
            <ns3:cad>0</ns3:cad>
          </ns3:TrackPointExtension>
        </extensions>
      </trkpt>
      <trkpt lat="40.4030724428594112396240234375" lon="116.6838502697646617889404296875">
        <ele>83.59999847412109375</ele>
        <time>2026-10-08T15:51:40.000Z</time>
        <extensions>
          <ns3:TrackPointExtension>
            <ns3:hr>147</ns3:hr>
            <ns3:cad>0</ns3:cad>
          </ns3:TrackPointExtension>
        </extensions>
      </trkpt>
      <trkpt lat="40.4030298627912998199462890625" lon="116.68393936939537525177001953125">
        <ele>83.59999847412109375</ele>
        <time>2026-10-08T15:51:41.000Z</time>
        <extensions>
          <ns3:TrackPointExtension>
            <ns3:hr>154</ns3:hr>
            <ns3:cad>0</ns3:cad>
          </ns3:TrackPointExtension>
        </extensions>
      </trkpt>
      <trkpt lat="40.4030114226043224334716796875" lon="116.68400659225881099700927734375">
        <ele>83.59999847412109375</ele>
        <time>2026-10-08T15:51:42.000Z</time>
        <extensions>
          <ns3:TrackPointExtension>
            <ns3:hr>158</ns3:hr>
            <ns3:cad>0</ns3:cad>
          </ns3:TrackPointExtension>
        </extensions>
      </trkpt>
      <trkpt lat="40.403002202510833740234375" lon="116.6840695403516292572021484375">
        <ele>83.59999847412109375</ele>
        <time>2026-10-08T15:51:43.000Z</time>
        <extensions>
          <ns3:TrackPointExtension>
            <ns3:hr>161</ns3:hr>
            <ns3:cad>0</ns3:cad>
          </ns3:TrackPointExtension>
        </extensions>
      </trkpt>
      <trkpt lat="40.40299993939697742462158203125" lon="116.68412896804511547088623046875">
        <ele>83.59999847412109375</ele>
        <time>2026-10-08T15:51:44.000Z</time>
        <extensions>
          <ns3:TrackPointExtension>
            <ns3:hr>162</ns3:hr>
            <ns3:cad>0</ns3:cad>
          </ns3:TrackPointExtension>
        </extensions>
      </trkpt>
      <trkpt lat="40.40301024913787841796875" lon="116.6842261143028736114501953125">
        <ele>83.59999847412109375</ele>
        <time>2026-10-08T15:51:45.000Z</time>
        <extensions>
          <ns3:TrackPointExtension>
            <ns3:hr>165</ns3:hr>
            <ns3:cad>0</ns3:cad>
          </ns3:TrackPointExtension>
        </extensions>
      </trkpt>
      <trkpt lat="40.40302827022969722747802734375" lon="116.68429560028016567230224609375">
        <ele>83.59999847412109375</ele>
        <time>2026-10-08T15:51:46.000Z</time>
        <extensions>
          <ns3:TrackPointExtension>
            <ns3:hr>166</ns3:hr>
            <ns3:cad>0</ns3:cad>
          </ns3:TrackPointExtension>
        </extensions>
      </trkpt>
      <trkpt lat="40.403042100369930267333984375" lon="116.68433013372123241424560546875">
        <ele>83.59999847412109375</ele>
        <time>2026-10-08T15:51:47.000Z</time>
        <extensions>
          <ns3:TrackPointExtension>
            <ns3:hr>167</ns3:hr>
            <ns3:cad>0</ns3:cad>
          </ns3:TrackPointExtension>
        </extensions>
      </trkpt>
      <trkpt lat="40.40307889692485332489013671875" lon="116.68440070934593677520751953125">
        <ele>83.59999847412109375</ele>
        <time>2026-10-08T15:51:48.000Z</time>
        <extensions>
          <ns3:TrackPointExtension>
            <ns3:hr>171</ns3:hr>
            <ns3:cad>0</ns3:cad>
          </ns3:TrackPointExtension>
        </extensions>
      </trkpt>
      <trkpt lat="40.40312784723937511444091796875" lon="116.68446072377264499664306640625">
        <ele>83.59999847412109375</ele>
        <time>2026-10-08T15:51:49.000Z</time>
        <extensions>
          <ns3:TrackPointExtension>
            <ns3:hr>169</ns3:hr>
            <ns3:cad>0</ns3:cad>
          </ns3:TrackPointExtension>
        </extensions>
      </trkpt>
      <trkpt lat="40.4031591117382049560546875" lon="116.68448905460536479949951171875">
        <ele>83.59999847412109375</ele>
        <time>2026-10-08T15:51:50.000Z</time>
        <extensions>
          <ns3:TrackPointExtension>
            <ns3:hr>173</ns3:hr>
            <ns3:cad>0</ns3:cad>
          </ns3:TrackPointExtension>
        </extensions>
      </trkpt>
      <trkpt lat="40.40318417362868785858154296875" lon="116.68450699187815189361572265625">
        <ele>83.59999847412109375</ele>
        <time>2026-10-08T15:51:51.000Z</time>
        <extensions>
          <ns3:TrackPointExtension>
            <ns3:hr>173</ns3:hr>
            <ns3:cad>0</ns3:cad>
          </ns3:TrackPointExtension>
        </extensions>
      </trkpt>
      <trkpt lat="40.40325231850147247314453125" lon="116.6845385916531085968017578125">
        <ele>83.59999847412109375</ele>
        <time>2026-10-08T15:51:52.000Z</time>
        <extensions>
          <ns3:TrackPointExtension>
            <ns3:hr>174</ns3:hr>
            <ns3:cad>0</ns3:cad>
          </ns3:TrackPointExtension>
        </extensions>
      </trkpt>
      <trkpt lat="40.4033138416707515716552734375" lon="116.68454982340335845947265625">
        <ele>83.59999847412109375</ele>
        <time>2026-10-08T15:51:53.000Z</time>
        <extensions>
          <ns3:TrackPointExtension>
            <ns3:hr>175</ns3:hr>
            <ns3:cad>0</ns3:cad>
          </ns3:TrackPointExtension>
        </extensions>
      </trkpt>
      <trkpt lat="40.4033490456640720367431640625" lon="116.68455108068883419036865234375">
        <ele>83.59999847412109375</ele>
        <time>2026-10-08T15:51:54.000Z</time>
        <extensions>
          <ns3:TrackPointExtension>
            <ns3:hr>177</ns3:hr>
            <ns3:cad>102</ns3:cad>
          </ns3:TrackPointExtension>
        </extensions>
      </trkpt>
      <trkpt lat="40.40339841507375240325927734375" lon="116.68455091305077075958251953125">
        <ele>83.59999847412109375</ele>
        <time>2026-10-08T15:51:55.000Z</time>
        <extensions>
          <ns3:TrackPointExtension>
            <ns3:hr>178</ns3:hr>
            <ns3:cad>103</ns3:cad>
          </ns3:TrackPointExtension>
        </extensions>
      </trkpt>
      <trkpt lat="40.40344887413084506988525390625" lon="116.68455074541270732879638671875">
        <ele>83.59999847412109375</ele>
        <time>2026-10-08T15:51:56.000Z</time>
        <extensions>
          <ns3:TrackPointExtension>
            <ns3:hr>178</ns3:hr>
            <ns3:cad>103</ns3:cad>
          </ns3:TrackPointExtension>
        </extensions>
      </trkpt>
      <trkpt lat="40.40349262766540050506591796875" lon="116.6845504939556121826171875">
        <ele>83.59999847412109375</ele>
        <time>2026-10-08T15:51:57.000Z</time>
        <extensions>
          <ns3:TrackPointExtension>
            <ns3:hr>178</ns3:hr>
            <ns3:cad>103</ns3:cad>
          </ns3:TrackPointExtension>
        </extensions>
      </trkpt>
      <trkpt lat="40.4035371355712413787841796875" lon="116.6845503263175487518310546875">
        <ele>83.59999847412109375</ele>
        <time>2026-10-08T15:51:58.000Z</time>
        <extensions>
          <ns3:TrackPointExtension>
            <ns3:hr>180</ns3:hr>
            <ns3:cad>103</ns3:cad>
          </ns3:TrackPointExtension>
        </extensions>
      </trkpt>
      <trkpt lat="40.403601340949535369873046875" lon="116.68455007486045360565185546875">
        <ele>83.59999847412109375</ele>
        <time>2026-10-08T15:51:59.000Z</time>
        <extensions>
          <ns3:TrackPointExtension>
            <ns3:hr>178</ns3:hr>
            <ns3:cad>105</ns3:cad>
          </ns3:TrackPointExtension>
        </extensions>
      </trkpt>
      <trkpt lat="40.4036675579845905303955078125" lon="116.68454982340335845947265625">
        <ele>83.59999847412109375</ele>
        <time>2026-10-08T15:52:00.000Z</time>
        <extensions>
          <ns3:TrackPointExtension>
            <ns3:hr>181</ns3:hr>
            <ns3:cad>105</ns3:cad>
          </ns3:TrackPointExtension>
        </extensions>
      </trkpt>
      <trkpt lat="40.40370024740695953369140625" lon="116.6845496557652950286865234375">
        <ele>83.59999847412109375</ele>
        <time>2026-10-08T15:52:01.000Z</time>
        <extensions>
          <ns3:TrackPointExtension>
            <ns3:hr>180</ns3:hr>
            <ns3:cad>102</ns3:cad>
          </ns3:TrackPointExtension>
        </extensions>
      </trkpt>
      <trkpt lat="40.4037572443485260009765625" lon="116.68454940430819988250732421875">
        <ele>83.59999847412109375</ele>
        <time>2026-10-08T15:52:02.000Z</time>
        <extensions>
          <ns3:TrackPointExtension>
            <ns3:hr>180</ns3:hr>
            <ns3:cad>95</ns3:cad>
          </ns3:TrackPointExtension>
        </extensions>
      </trkpt>
      <trkpt lat="40.40381935425102710723876953125" lon="116.684549152851104736328125">
        <ele>83.59999847412109375</ele>
        <time>2026-10-08T15:52:03.000Z</time>
        <extensions>
          <ns3:TrackPointExtension>
            <ns3:hr>181</ns3:hr>
            <ns3:cad>95</ns3:cad>
          </ns3:TrackPointExtension>
        </extensions>
      </trkpt>
      <trkpt lat="40.40383972227573394775390625" lon="116.68454906903207302093505859375">
        <ele>83.59999847412109375</ele>
        <time>2026-10-08T15:52:04.000Z</time>
        <extensions>
          <ns3:TrackPointExtension>
            <ns3:hr>182</ns3:hr>
            <ns3:cad>95</ns3:cad>
          </ns3:TrackPointExtension>
        </extensions>
      </trkpt>
      <trkpt lat="40.40389068424701690673828125" lon="116.68454890139400959014892578125">
        <ele>83.59999847412109375</ele>
        <time>2026-10-08T15:52:05.000Z</time>
        <extensions>
          <ns3:TrackPointExtension>
            <ns3:hr>181</ns3:hr>
            <ns3:cad>95</ns3:cad>
          </ns3:TrackPointExtension>
        </extensions>
      </trkpt>
      <trkpt lat="40.40395899675786495208740234375" lon="116.68454856611788272857666015625">
        <ele>83.59999847412109375</ele>
        <time>2026-10-08T15:52:06.000Z</time>
        <extensions>
          <ns3:TrackPointExtension>
            <ns3:hr>182</ns3:hr>
            <ns3:cad>101</ns3:cad>
          </ns3:TrackPointExtension>
        </extensions>
      </trkpt>
      <trkpt lat="40.403990261256694793701171875" lon="116.68454848229885101318359375">
        <ele>83.59999847412109375</ele>
        <time>2026-10-08T15:52:07.000Z</time>
        <extensions>
          <ns3:TrackPointExtension>
            <ns3:hr>181</ns3:hr>
            <ns3:cad>101</ns3:cad>
          </ns3:TrackPointExtension>
        </extensions>
      </trkpt>
      <trkpt lat="40.404040552675724029541015625" lon="116.68454823084175586700439453125">
        <ele>83.59999847412109375</ele>
        <time>2026-10-08T15:52:08.000Z</time>
        <extensions>
          <ns3:TrackPointExtension>
            <ns3:hr>181</ns3:hr>
            <ns3:cad>101</ns3:cad>
          </ns3:TrackPointExtension>
        </extensions>
      </trkpt>
      <trkpt lat="40.4041071049869060516357421875" lon="116.68454672209918498992919921875">
        <ele>83.59999847412109375</ele>
        <time>2026-10-08T15:52:09.000Z</time>
        <extensions>
          <ns3:TrackPointExtension>
            <ns3:hr>182</ns3:hr>
            <ns3:cad>101</ns3:cad>
          </ns3:TrackPointExtension>
        </extensions>
      </trkpt>
      <trkpt lat="40.40414591319859027862548828125" lon="116.6845419444143772125244140625">
        <ele>83.59999847412109375</ele>
        <time>2026-10-08T15:52:10.000Z</time>
        <extensions>
          <ns3:TrackPointExtension>
            <ns3:hr>181</ns3:hr>
            <ns3:cad>101</ns3:cad>
          </ns3:TrackPointExtension>
        </extensions>
      </trkpt>
      <trkpt lat="40.40418933145701885223388671875" lon="116.684528701007366180419921875">
        <ele>83.59999847412109375</ele>
        <time>2026-10-08T15:52:11.000Z</time>
        <extensions>
          <ns3:TrackPointExtension>
            <ns3:hr>181</ns3:hr>
            <ns3:cad>101</ns3:cad>
          </ns3:TrackPointExtension>
        </extensions>
      </trkpt>
      <trkpt lat="40.40421045385301113128662109375" lon="116.6845183074474334716796875">
        <ele>83.59999847412109375</ele>
        <time>2026-10-08T15:52:12.000Z</time>
        <extensions>
          <ns3:TrackPointExtension>
            <ns3:hr>183</ns3:hr>
            <ns3:cad>101</ns3:cad>
          </ns3:TrackPointExtension>
        </extensions>
      </trkpt>
      <trkpt lat="40.40423870086669921875" lon="116.68450229801237583160400390625">
        <ele>83.59999847412109375</ele>
        <time>2026-10-08T15:52:13.000Z</time>
        <extensions>
          <ns3:TrackPointExtension>
            <ns3:hr>182</ns3:hr>
            <ns3:cad>101</ns3:cad>
          </ns3:TrackPointExtension>
        </extensions>
      </trkpt>
      <trkpt lat="40.40424331091344356536865234375" lon="116.6844990290701389312744140625">
        <ele>83.59999847412109375</ele>
        <time>2026-10-08T15:52:14.000Z</time>
        <extensions>
          <ns3:TrackPointExtension>
            <ns3:hr>182</ns3:hr>
            <ns3:cad>49</ns3:cad>
          </ns3:TrackPointExtension>
        </extensions>
      </trkpt>
      <trkpt lat="40.40425546467304229736328125" lon="116.68449022807180881500244140625">
        <ele>83.59999847412109375</ele>
        <time>2026-10-08T15:52:15.000Z</time>
        <extensions>
          <ns3:TrackPointExtension>
            <ns3:hr>181</ns3:hr>
            <ns3:cad>0</ns3:cad>
          </ns3:TrackPointExtension>
        </extensions>
      </trkpt>
      <trkpt lat="40.40428035892546176910400390625" lon="116.68446977622807025909423828125">
        <ele>83.59999847412109375</ele>
        <time>2026-10-08T15:52:16.000Z</time>
        <extensions>
          <ns3:TrackPointExtension>
            <ns3:hr>182</ns3:hr>
            <ns3:cad>0</ns3:cad>
          </ns3:TrackPointExtension>
        </extensions>
      </trkpt>
      <trkpt lat="40.404288657009601593017578125" lon="116.684461645781993865966796875">
        <ele>83.59999847412109375</ele>
        <time>2026-10-08T15:52:17.000Z</time>
        <extensions>
          <ns3:TrackPointExtension>
            <ns3:hr>180</ns3:hr>
            <ns3:cad>83</ns3:cad>
          </ns3:TrackPointExtension>
        </extensions>
      </trkpt>
      <trkpt lat="40.4042851366102695465087890625" lon="116.68446508236229419708251953125">
        <ele>83.59999847412109375</ele>
        <time>2026-10-08T15:52:18.000Z</time>
        <extensions>
          <ns3:TrackPointExtension>
            <ns3:hr>181</ns3:hr>
            <ns3:cad>83</ns3:cad>
          </ns3:TrackPointExtension>
        </extensions>
      </trkpt>
      <trkpt lat="40.40428756736218929290771484375" lon="116.68446273542940616607666015625">
        <ele>83.59999847412109375</ele>
        <time>2026-10-08T15:52:19.000Z</time>
        <extensions>
          <ns3:TrackPointExtension>
            <ns3:hr>180</ns3:hr>
            <ns3:cad>81</ns3:cad>
          </ns3:TrackPointExtension>
        </extensions>
      </trkpt>
      <trkpt lat="40.40430768392980098724365234375" lon="116.6844427026808261871337890625">
        <ele>83.59999847412109375</ele>
        <time>2026-10-08T15:52:20.000Z</time>
        <extensions>
          <ns3:TrackPointExtension>
            <ns3:hr>180</ns3:hr>
            <ns3:cad>81</ns3:cad>
          </ns3:TrackPointExtension>
        </extensions>
      </trkpt>
      <trkpt lat="40.40432210080325603485107421875" lon="116.68442401103675365447998046875">
        <ele>83.59999847412109375</ele>
        <time>2026-10-08T15:52:21.000Z</time>
        <extensions>
          <ns3:TrackPointExtension>
            <ns3:hr>179</ns3:hr>
            <ns3:cad>77</ns3:cad>
          </ns3:TrackPointExtension>
        </extensions>
      </trkpt>
      <trkpt lat="40.4043233580887317657470703125" lon="116.68442233465611934661865234375">
        <ele>83.59999847412109375</ele>
        <time>2026-10-08T15:52:22.000Z</time>
        <extensions>
          <ns3:TrackPointExtension>
            <ns3:hr>179</ns3:hr>
            <ns3:cad>77</ns3:cad>
          </ns3:TrackPointExtension>
        </extensions>
      </trkpt>
      <trkpt lat="40.40431841276586055755615234375" lon="116.6844289563596248626708984375">
        <ele>83.59999847412109375</ele>
        <time>2026-10-08T15:52:23.000Z</time>
        <extensions>
          <ns3:TrackPointExtension>
            <ns3:hr>179</ns3:hr>
            <ns3:cad>0</ns3:cad>
          </ns3:TrackPointExtension>
        </extensions>
      </trkpt>
      <trkpt lat="40.4043156467378139495849609375" lon="116.68443256057798862457275390625">
        <ele>83.59999847412109375</ele>
        <time>2026-10-08T15:52:24.000Z</time>
        <extensions>
          <ns3:TrackPointExtension>
            <ns3:hr>177</ns3:hr>
            <ns3:cad>0</ns3:cad>
          </ns3:TrackPointExtension>
        </extensions>
      </trkpt>
      <trkpt lat="40.40431388653814792633056640625" lon="116.68443490751087665557861328125">
        <ele>83.59999847412109375</ele>
        <time>2026-10-08T15:52:25.000Z</time>
        <extensions>
          <ns3:TrackPointExtension>
            <ns3:hr>177</ns3:hr>
            <ns3:cad>52</ns3:cad>
          </ns3:TrackPointExtension>
        </extensions>
      </trkpt>
      <trkpt lat="40.40432495065033435821533203125" lon="116.6844202391803264617919921875">
        <ele>83.59999847412109375</ele>
        <time>2026-10-08T15:52:26.000Z</time>
        <extensions>
          <ns3:TrackPointExtension>
            <ns3:hr>176</ns3:hr>
            <ns3:cad>52</ns3:cad>
          </ns3:TrackPointExtension>
        </extensions>
      </trkpt>
      <trkpt lat="40.40433417074382305145263671875" lon="116.684408001601696014404296875">
        <ele>83.59999847412109375</ele>
        <time>2026-10-08T15:52:27.000Z</time>
        <extensions>
          <ns3:TrackPointExtension>
            <ns3:hr>176</ns3:hr>
            <ns3:cad>52</ns3:cad>
          </ns3:TrackPointExtension>
        </extensions>
      </trkpt>
      <trkpt lat="40.4043485037982463836669921875" lon="116.68438612483441829681396484375">
        <ele>83.59999847412109375</ele>
        <time>2026-10-08T15:52:28.000Z</time>
        <extensions>
          <ns3:TrackPointExtension>
            <ns3:hr>176</ns3:hr>
            <ns3:cad>52</ns3:cad>
          </ns3:TrackPointExtension>
        </extensions>
      </trkpt>
      <trkpt lat="40.4043488390743732452392578125" lon="116.68438545428216457366943359375">
        <ele>83.59999847412109375</ele>
        <time>2026-10-08T15:52:29.000Z</time>
        <extensions>
          <ns3:TrackPointExtension>
            <ns3:hr>175</ns3:hr>
            <ns3:cad>53</ns3:cad>
          </ns3:TrackPointExtension>
        </extensions>
      </trkpt>
      <trkpt lat="40.40435227565467357635498046875" lon="116.68437950313091278076171875">
        <ele>83.59999847412109375</ele>
        <time>2026-10-08T15:52:30.000Z</time>
        <extensions>
          <ns3:TrackPointExtension>
            <ns3:hr>175</ns3:hr>
            <ns3:cad>53</ns3:cad>
          </ns3:TrackPointExtension>
        </extensions>
      </trkpt>
      <trkpt lat="40.40435579605400562286376953125" lon="116.6843733005225658416748046875">
        <ele>83.59999847412109375</ele>
        <time>2026-10-08T15:52:31.000Z</time>
        <extensions>
          <ns3:TrackPointExtension>
            <ns3:hr>174</ns3:hr>
            <ns3:cad>53</ns3:cad>
          </ns3:TrackPointExtension>
        </extensions>
      </trkpt>
      <trkpt lat="40.4043612442910671234130859375" lon="116.6843635775148868560791015625">
        <ele>83.59999847412109375</ele>
        <time>2026-10-08T15:52:32.000Z</time>
        <extensions>
          <ns3:TrackPointExtension>
            <ns3:hr>174</ns3:hr>
            <ns3:cad>53</ns3:cad>
          </ns3:TrackPointExtension>
        </extensions>
      </trkpt>
      <trkpt lat="40.4043674468994140625" lon="116.68435276485979557037353515625">
        <ele>83.59999847412109375</ele>
        <time>2026-10-08T15:52:33.000Z</time>
        <extensions>
          <ns3:TrackPointExtension>
            <ns3:hr>172</ns3:hr>
            <ns3:cad>53</ns3:cad>
          </ns3:TrackPointExtension>
        </extensions>
      </trkpt>
      <trkpt lat="40.4043726436793804168701171875" lon="116.6843414492905139923095703125">
        <ele>83.59999847412109375</ele>
        <time>2026-10-08T15:52:34.000Z</time>
        <extensions>
          <ns3:TrackPointExtension>
            <ns3:hr>172</ns3:hr>
            <ns3:cad>48</ns3:cad>
          </ns3:TrackPointExtension>
        </extensions>
      </trkpt>
      <trkpt lat="40.4043766669929027557373046875" lon="116.6843317262828350067138671875">
        <ele>83.59999847412109375</ele>
        <time>2026-10-08T15:52:35.000Z</time>
        <extensions>
          <ns3:TrackPointExtension>
            <ns3:hr>171</ns3:hr>
            <ns3:cad>48</ns3:cad>
          </ns3:TrackPointExtension>
        </extensions>
      </trkpt>
      <trkpt lat="40.4043806903064250946044921875" lon="116.6843220032751560211181640625">
        <ele>83.59999847412109375</ele>
        <time>2026-10-08T15:52:36.000Z</time>
        <extensions>
          <ns3:TrackPointExtension>
            <ns3:hr>171</ns3:hr>
            <ns3:cad>48</ns3:cad>
          </ns3:TrackPointExtension>
        </extensions>
      </trkpt>
      <trkpt lat="40.40438152849674224853515625" lon="116.6843199916183948516845703125">
        <ele>83.59999847412109375</ele>
        <time>2026-10-08T15:52:37.000Z</time>
        <extensions>
          <ns3:TrackPointExtension>
            <ns3:hr>169</ns3:hr>
            <ns3:cad>48</ns3:cad>
          </ns3:TrackPointExtension>
        </extensions>
      </trkpt>
      <trkpt lat="40.40438798256218433380126953125" lon="116.6843042336404323577880859375">
        <ele>83.59999847412109375</ele>
        <time>2026-10-08T15:52:38.000Z</time>
        <extensions>
          <ns3:TrackPointExtension>
            <ns3:hr>170</ns3:hr>
            <ns3:cad>0</ns3:cad>
          </ns3:TrackPointExtension>
        </extensions>
      </trkpt>
      <trkpt lat="40.40439452044665813446044921875" lon="116.6842854581773281097412109375">
        <ele>83.59999847412109375</ele>
        <time>2026-10-08T15:52:39.000Z</time>
        <extensions>
          <ns3:TrackPointExtension>
            <ns3:hr>169</ns3:hr>
            <ns3:cad>0</ns3:cad>
          </ns3:TrackPointExtension>
        </extensions>
      </trkpt>
      <trkpt lat="40.4043998010456562042236328125" lon="116.68426693417131900787353515625">
        <ele>83.59999847412109375</ele>
        <time>2026-10-08T15:52:40.000Z</time>
        <extensions>
          <ns3:TrackPointExtension>
            <ns3:hr>168</ns3:hr>
            <ns3:cad>47</ns3:cad>
          </ns3:TrackPointExtension>
        </extensions>
      </trkpt>
      <trkpt lat="40.40440038777887821197509765625" lon="116.6842646710574626922607421875">
        <ele>83.59999847412109375</ele>
        <time>2026-10-08T15:52:41.000Z</time>
        <extensions>
          <ns3:TrackPointExtension>
            <ns3:hr>168</ns3:hr>
            <ns3:cad>47</ns3:cad>
          </ns3:TrackPointExtension>
        </extensions>
      </trkpt>
      <trkpt lat="40.40440055541694164276123046875" lon="116.68426408432424068450927734375">
        <ele>83.59999847412109375</ele>
        <time>2026-10-08T15:52:42.000Z</time>
        <extensions>
          <ns3:TrackPointExtension>
            <ns3:hr>166</ns3:hr>
            <ns3:cad>47</ns3:cad>
          </ns3:TrackPointExtension>
        </extensions>
      </trkpt>
      <trkpt lat="40.40440340526401996612548828125" lon="116.68425402604043483734130859375">
        <ele>83.59999847412109375</ele>
        <time>2026-10-08T15:52:43.000Z</time>
        <extensions>
          <ns3:TrackPointExtension>
            <ns3:hr>166</ns3:hr>
            <ns3:cad>50</ns3:cad>
          </ns3:TrackPointExtension>
        </extensions>
      </trkpt>
      <trkpt lat="40.40440876968204975128173828125" lon="116.684233658015727996826171875">
        <ele>83.59999847412109375</ele>
        <time>2026-10-08T15:52:44.000Z</time>
        <extensions>
          <ns3:TrackPointExtension>
            <ns3:hr>165</ns3:hr>
            <ns3:cad>50</ns3:cad>
          </ns3:TrackPointExtension>
        </extensions>
      </trkpt>
      <trkpt lat="40.40441078133881092071533203125" lon="116.68422133661806583404541015625">
        <ele>83.59999847412109375</ele>
        <time>2026-10-08T15:52:45.000Z</time>
        <extensions>
          <ns3:TrackPointExtension>
            <ns3:hr>164</ns3:hr>
            <ns3:cad>0</ns3:cad>
          </ns3:TrackPointExtension>
        </extensions>
      </trkpt>
      <trkpt lat="40.4044115357100963592529296875" lon="116.684216558933258056640625">
        <ele>83.59999847412109375</ele>
        <time>2026-10-08T15:52:46.000Z</time>
        <extensions>
          <ns3:TrackPointExtension>
            <ns3:hr>163</ns3:hr>
            <ns3:cad>0</ns3:cad>
          </ns3:TrackPointExtension>
        </extensions>
      </trkpt>
      <trkpt lat="40.40441312827169895172119140625" lon="116.68420675210654735565185546875">
        <ele>83.59999847412109375</ele>
        <time>2026-10-08T15:52:47.000Z</time>
        <extensions>
          <ns3:TrackPointExtension>
            <ns3:hr>162</ns3:hr>
            <ns3:cad>49</ns3:cad>
          </ns3:TrackPointExtension>
        </extensions>
      </trkpt>
      <trkpt lat="40.40441564284265041351318359375" lon="116.684191413223743438720703125">
        <ele>83.59999847412109375</ele>
        <time>2026-10-08T15:52:48.000Z</time>
        <extensions>
          <ns3:TrackPointExtension>
            <ns3:hr>164</ns3:hr>
            <ns3:cad>49</ns3:cad>
          </ns3:TrackPointExtension>
        </extensions>
      </trkpt>
      <trkpt lat="40.40441698394715785980224609375" lon="116.68418311513960361480712890625">
        <ele>83.59999847412109375</ele>
        <time>2026-10-08T15:52:49.000Z</time>
        <extensions>
          <ns3:TrackPointExtension>
            <ns3:hr>163</ns3:hr>
            <ns3:cad>49</ns3:cad>
          </ns3:TrackPointExtension>
        </extensions>
      </trkpt>
      <trkpt lat="40.40441882796585559844970703125" lon="116.684160567820072174072265625">
        <ele>83.59999847412109375</ele>
        <time>2026-10-08T15:52:50.000Z</time>
        <extensions>
          <ns3:TrackPointExtension>
            <ns3:hr>162</ns3:hr>
            <ns3:cad>49</ns3:cad>
          </ns3:TrackPointExtension>
        </extensions>
      </trkpt>
      <trkpt lat="40.40441966615617275238037109375" lon="116.68414439074695110321044921875">
        <ele>83.59999847412109375</ele>
        <time>2026-10-08T15:52:51.000Z</time>
        <extensions>
          <ns3:TrackPointExtension>
            <ns3:hr>161</ns3:hr>
            <ns3:cad>50</ns3:cad>
          </ns3:TrackPointExtension>
        </extensions>
      </trkpt>
      <trkpt lat="40.40441966615617275238037109375" lon="116.68414422310888767242431640625">
        <ele>83.59999847412109375</ele>
        <time>2026-10-08T15:52:52.000Z</time>
        <extensions>
          <ns3:TrackPointExtension>
            <ns3:hr>160</ns3:hr>
            <ns3:cad>50</ns3:cad>
          </ns3:TrackPointExtension>
        </extensions>
      </trkpt>
      <trkpt lat="40.40442000143229961395263671875" lon="116.68413902632892131805419921875">
        <ele>83.59999847412109375</ele>
        <time>2026-10-08T15:52:53.000Z</time>
        <extensions>
          <ns3:TrackPointExtension>
            <ns3:hr>160</ns3:hr>
            <ns3:cad>50</ns3:cad>
          </ns3:TrackPointExtension>
        </extensions>
      </trkpt>
      <trkpt lat="40.4044205881655216217041015625" lon="116.6841265372931957244873046875">
        <ele>83.59999847412109375</ele>
        <time>2026-10-08T15:52:54.000Z</time>
        <extensions>
          <ns3:TrackPointExtension>
            <ns3:hr>159</ns3:hr>
            <ns3:cad>49</ns3:cad>
          </ns3:TrackPointExtension>
        </extensions>
      </trkpt>
      <trkpt lat="40.40442117489874362945556640625" lon="116.68411455117166042327880859375">
        <ele>83.59999847412109375</ele>
        <time>2026-10-08T15:52:55.000Z</time>
        <extensions>
          <ns3:TrackPointExtension>
            <ns3:hr>159</ns3:hr>
            <ns3:cad>47</ns3:cad>
          </ns3:TrackPointExtension>
        </extensions>
      </trkpt>
      <trkpt lat="40.40441983379423618316650390625" lon="116.68409158475697040557861328125">
        <ele>83.59999847412109375</ele>
        <time>2026-10-08T15:52:56.000Z</time>
        <extensions>
          <ns3:TrackPointExtension>
            <ns3:hr>158</ns3:hr>
            <ns3:cad>47</ns3:cad>
          </ns3:TrackPointExtension>
        </extensions>
      </trkpt>
      <trkpt lat="40.4044195823371410369873046875" lon="116.684086136519908905029296875">
        <ele>83.59999847412109375</ele>
        <time>2026-10-08T15:52:57.000Z</time>
        <extensions>
          <ns3:TrackPointExtension>
            <ns3:hr>157</ns3:hr>
            <ns3:cad>47</ns3:cad>
          </ns3:TrackPointExtension>
        </extensions>
      </trkpt>
      <trkpt lat="40.4044195823371410369873046875" lon="116.68408689089119434356689453125">
        <ele>83.59999847412109375</ele>
        <time>2026-10-08T15:52:58.000Z</time>
        <extensions>
          <ns3:TrackPointExtension>
            <ns3:hr>155</ns3:hr>
            <ns3:cad>47</ns3:cad>
          </ns3:TrackPointExtension>
        </extensions>
      </trkpt>
      <trkpt lat="40.404419414699077606201171875" lon="116.6840837895870208740234375">
        <ele>83.59999847412109375</ele>
        <time>2026-10-08T15:52:59.000Z</time>
        <extensions>
          <ns3:TrackPointExtension>
            <ns3:hr>154</ns3:hr>
            <ns3:cad>47</ns3:cad>
          </ns3:TrackPointExtension>
        </extensions>
      </trkpt>
      <trkpt lat="40.40441849268972873687744140625" lon="116.68406836688518524169921875">
        <ele>83.59999847412109375</ele>
        <time>2026-10-08T15:53:00.000Z</time>
        <extensions>
          <ns3:TrackPointExtension>
            <ns3:hr>153</ns3:hr>
            <ns3:cad>47</ns3:cad>
          </ns3:TrackPointExtension>
        </extensions>
      </trkpt>
      <trkpt lat="40.40441564284265041351318359375" lon="116.68404196389019489288330078125">
        <ele>83.59999847412109375</ele>
        <time>2026-10-08T15:53:01.000Z</time>
        <extensions>
          <ns3:TrackPointExtension>
            <ns3:hr>153</ns3:hr>
            <ns3:cad>49</ns3:cad>
          </ns3:TrackPointExtension>
        </extensions>
      </trkpt>
      <trkpt lat="40.4044169001281261444091796875" lon="116.68404900468885898590087890625">
        <ele>83.59999847412109375</ele>
        <time>2026-10-08T15:53:02.000Z</time>
        <extensions>
          <ns3:TrackPointExtension>
            <ns3:hr>152</ns3:hr>
            <ns3:cad>49</ns3:cad>
          </ns3:TrackPointExtension>
        </extensions>
      </trkpt>
      <trkpt lat="40.4044172354042530059814453125" lon="116.68405118398368358612060546875">
        <ele>83.59999847412109375</ele>
        <time>2026-10-08T15:53:03.000Z</time>
        <extensions>
          <ns3:TrackPointExtension>
            <ns3:hr>152</ns3:hr>
            <ns3:cad>0</ns3:cad>
          </ns3:TrackPointExtension>
        </extensions>
      </trkpt>
      <trkpt lat="40.40441581048071384429931640625" lon="116.68404288589954376220703125">
        <ele>83.59999847412109375</ele>
        <time>2026-10-08T15:53:04.000Z</time>
        <extensions>
          <ns3:TrackPointExtension>
            <ns3:hr>152</ns3:hr>
            <ns3:cad>0</ns3:cad>
          </ns3:TrackPointExtension>
        </extensions>
      </trkpt>
      <trkpt lat="40.4044115357100963592529296875" lon="116.68401732109487056732177734375">
        <ele>83.59999847412109375</ele>
        <time>2026-10-08T15:53:05.000Z</time>
        <extensions>
          <ns3:TrackPointExtension>
            <ns3:hr>152</ns3:hr>
            <ns3:cad>48</ns3:cad>
          </ns3:TrackPointExtension>
        </extensions>
      </trkpt>
      <trkpt lat="40.4044051654636859893798828125" lon="116.683985553681850433349609375">
        <ele>83.59999847412109375</ele>
        <time>2026-10-08T15:53:06.000Z</time>
        <extensions>
          <ns3:TrackPointExtension>
            <ns3:hr>151</ns3:hr>
            <ns3:cad>48</ns3:cad>
          </ns3:TrackPointExtension>
        </extensions>
      </trkpt>
      <trkpt lat="40.40440105833113193511962890625" lon="116.6839709691703319549560546875">
        <ele>83.59999847412109375</ele>
        <time>2026-10-08T15:53:07.000Z</time>
        <extensions>
          <ns3:TrackPointExtension>
            <ns3:hr>150</ns3:hr>
            <ns3:cad>47</ns3:cad>
          </ns3:TrackPointExtension>
        </extensions>
      </trkpt>
      <trkpt lat="40.4043982923030853271484375" lon="116.68396149761974811553955078125">
        <ele>83.59999847412109375</ele>
        <time>2026-10-08T15:53:08.000Z</time>
        <extensions>
          <ns3:TrackPointExtension>
            <ns3:hr>149</ns3:hr>
            <ns3:cad>47</ns3:cad>
          </ns3:TrackPointExtension>
        </extensions>
      </trkpt>
      <trkpt lat="40.40439896285533905029296875" lon="116.68396384455263614654541015625">
        <ele>83.59999847412109375</ele>
        <time>2026-10-08T15:53:09.000Z</time>
        <extensions>
          <ns3:TrackPointExtension>
            <ns3:hr>148</ns3:hr>
            <ns3:cad>0</ns3:cad>
          </ns3:TrackPointExtension>
        </extensions>
      </trkpt>
      <trkpt lat="40.40439519099891185760498046875" lon="116.68395076878368854522705078125">
        <ele>83.59999847412109375</ele>
        <time>2026-10-08T15:53:10.000Z</time>
        <extensions>
          <ns3:TrackPointExtension>
            <ns3:hr>148</ns3:hr>
            <ns3:cad>0</ns3:cad>
          </ns3:TrackPointExtension>
        </extensions>
      </trkpt>
      <trkpt lat="40.40439225733280181884765625" lon="116.6839404590427875518798828125">
        <ele>83.59999847412109375</ele>
        <time>2026-10-08T15:53:11.000Z</time>
        <extensions>
          <ns3:TrackPointExtension>
            <ns3:hr>148</ns3:hr>
            <ns3:cad>0</ns3:cad>
          </ns3:TrackPointExtension>
        </extensions>
      </trkpt>
      <trkpt lat="40.404391251504421234130859375" lon="116.68393693864345550537109375">
        <ele>83.59999847412109375</ele>
        <time>2026-10-08T15:53:12.000Z</time>
        <extensions>
          <ns3:TrackPointExtension>
            <ns3:hr>147</ns3:hr>
            <ns3:cad>0</ns3:cad>
          </ns3:TrackPointExtension>
        </extensions>
      </trkpt>
      <trkpt lat="40.40437876246869564056396484375" lon="116.6839069314301013946533203125">
        <ele>83.59999847412109375</ele>
        <time>2026-10-08T15:53:13.000Z</time>
        <extensions>
          <ns3:TrackPointExtension>
            <ns3:hr>147</ns3:hr>
            <ns3:cad>0</ns3:cad>
          </ns3:TrackPointExtension>
        </extensions>
      </trkpt>
      <trkpt lat="40.40437540970742702484130859375" lon="116.6838988848030567169189453125">
        <ele>83.59999847412109375</ele>
        <time>2026-10-08T15:53:14.000Z</time>
        <extensions>
          <ns3:TrackPointExtension>
            <ns3:hr>147</ns3:hr>
            <ns3:cad>0</ns3:cad>
          </ns3:TrackPointExtension>
        </extensions>
      </trkpt>
      <trkpt lat="40.4043733142316341400146484375" lon="116.6838938556611537933349609375">
        <ele>83.59999847412109375</ele>
        <time>2026-10-08T15:53:15.000Z</time>
        <extensions>
          <ns3:TrackPointExtension>
            <ns3:hr>146</ns3:hr>
            <ns3:cad>0</ns3:cad>
          </ns3:TrackPointExtension>
        </extensions>
      </trkpt>
      <trkpt lat="40.40437155403196811676025390625" lon="116.683889664709568023681640625">
        <ele>83.59999847412109375</ele>
        <time>2026-10-08T15:53:16.000Z</time>
        <extensions>
          <ns3:TrackPointExtension>
            <ns3:hr>146</ns3:hr>
            <ns3:cad>0</ns3:cad>
          </ns3:TrackPointExtension>
        </extensions>
      </trkpt>
      <trkpt lat="40.40437079966068267822265625" lon="116.6838879883289337158203125">
        <ele>83.59999847412109375</ele>
        <time>2026-10-08T15:53:17.000Z</time>
        <extensions>
          <ns3:TrackPointExtension>
            <ns3:hr>147</ns3:hr>
            <ns3:cad>0</ns3:cad>
          </ns3:TrackPointExtension>
        </extensions>
      </trkpt>
      <trkpt lat="40.40437088347971439361572265625" lon="116.6838881559669971466064453125">
        <ele>83.59999847412109375</ele>
        <time>2026-10-08T15:53:18.000Z</time>
        <extensions>
          <ns3:TrackPointExtension>
            <ns3:hr>148</ns3:hr>
            <ns3:cad>0</ns3:cad>
          </ns3:TrackPointExtension>
        </extensions>
      </trkpt>
      <trkpt lat="40.40437088347971439361572265625" lon="116.6838881559669971466064453125">
        <ele>83.59999847412109375</ele>
        <time>2026-10-08T15:53:19.000Z</time>
        <extensions>
          <ns3:TrackPointExtension>
            <ns3:hr>147</ns3:hr>
            <ns3:cad>0</ns3:cad>
          </ns3:TrackPointExtension>
        </extensions>
      </trkpt>
      <trkpt lat="40.4043491743505001068115234375" lon="116.683848761022090911865234375">
        <ele>83.59999847412109375</ele>
        <time>2026-10-08T15:53:20.000Z</time>
        <extensions>
          <ns3:TrackPointExtension>
            <ns3:hr>147</ns3:hr>
            <ns3:cad>0</ns3:cad>
          </ns3:TrackPointExtension>
        </extensions>
      </trkpt>
      <trkpt lat="40.40433500893414020538330078125" lon="116.68382638134062290191650390625">
        <ele>83.59999847412109375</ele>
        <time>2026-10-08T15:53:21.000Z</time>
        <extensions>
          <ns3:TrackPointExtension>
            <ns3:hr>148</ns3:hr>
            <ns3:cad>51</ns3:cad>
          </ns3:TrackPointExtension>
        </extensions>
      </trkpt>
      <trkpt lat="40.404318161308765411376953125" lon="116.68380442075431346893310546875">
        <ele>83.59999847412109375</ele>
        <time>2026-10-08T15:53:22.000Z</time>
        <extensions>
          <ns3:TrackPointExtension>
            <ns3:hr>148</ns3:hr>
            <ns3:cad>52</ns3:cad>
          </ns3:TrackPointExtension>
        </extensions>
      </trkpt>
      <trkpt lat="40.40430617518723011016845703125" lon="116.683789081871509552001953125">
        <ele>83.59999847412109375</ele>
        <time>2026-10-08T15:53:23.000Z</time>
        <extensions>
          <ns3:TrackPointExtension>
            <ns3:hr>148</ns3:hr>
            <ns3:cad>53</ns3:cad>
          </ns3:TrackPointExtension>
        </extensions>
      </trkpt>
      <trkpt lat="40.40429812856018543243408203125" lon="116.6837812028825283050537109375">
        <ele>83.59999847412109375</ele>
        <time>2026-10-08T15:53:24.000Z</time>
        <extensions>
          <ns3:TrackPointExtension>
            <ns3:hr>148</ns3:hr>
            <ns3:cad>54</ns3:cad>
          </ns3:TrackPointExtension>
        </extensions>
      </trkpt>
      <trkpt lat="40.404284633696079254150390625" lon="116.68376804329454898834228515625">
        <ele>83.59999847412109375</ele>
        <time>2026-10-08T15:53:25.000Z</time>
        <extensions>
          <ns3:TrackPointExtension>
            <ns3:hr>149</ns3:hr>
            <ns3:cad>54</ns3:cad>
          </ns3:TrackPointExtension>
        </extensions>
      </trkpt>
      <trkpt lat="40.4042804427444934844970703125" lon="116.68376401998102664947509765625">
        <ele>83.59999847412109375</ele>
        <time>2026-10-08T15:53:26.000Z</time>
        <extensions>
          <ns3:TrackPointExtension>
            <ns3:hr>147</ns3:hr>
            <ns3:cad>55</ns3:cad>
          </ns3:TrackPointExtension>
        </extensions>
      </trkpt>
      <trkpt lat="40.4042821191251277923583984375" lon="116.683765612542629241943359375">
        <ele>83.59999847412109375</ele>
        <time>2026-10-08T15:53:27.000Z</time>
        <extensions>
          <ns3:TrackPointExtension>
            <ns3:hr>146</ns3:hr>
            <ns3:cad>55</ns3:cad>
          </ns3:TrackPointExtension>
        </extensions>
      </trkpt>
      <trkpt lat="40.4042827896773815155029296875" lon="116.68376619927585124969482421875">
        <ele>83.59999847412109375</ele>
        <time>2026-10-08T15:53:28.000Z</time>
        <extensions>
          <ns3:TrackPointExtension>
            <ns3:hr>146</ns3:hr>
            <ns3:cad>55</ns3:cad>
          </ns3:TrackPointExtension>
        </extensions>
      </trkpt>
      <trkpt lat="40.404281280934810638427734375" lon="116.6837647743523120880126953125">
        <ele>83.59999847412109375</ele>
        <time>2026-10-08T15:53:29.000Z</time>
        <extensions>
          <ns3:TrackPointExtension>
            <ns3:hr>145</ns3:hr>
            <ns3:cad>55</ns3:cad>
          </ns3:TrackPointExtension>
        </extensions>
      </trkpt>
      <trkpt lat="40.40427625179290771484375" lon="116.68375991284847259521484375">
        <ele>83.59999847412109375</ele>
        <time>2026-10-08T15:53:30.000Z</time>
        <extensions>
          <ns3:TrackPointExtension>
            <ns3:hr>145</ns3:hr>
            <ns3:cad>54</ns3:cad>
          </ns3:TrackPointExtension>
        </extensions>
      </trkpt>
      <trkpt lat="40.40424565784633159637451171875" lon="116.68373635970056056976318359375">
        <ele>83.59999847412109375</ele>
        <time>2026-10-08T15:53:31.000Z</time>
        <extensions>
          <ns3:TrackPointExtension>
            <ns3:hr>144</ns3:hr>
            <ns3:cad>54</ns3:cad>
          </ns3:TrackPointExtension>
        </extensions>
      </trkpt>
      <trkpt lat="40.40422864258289337158203125" lon="116.68372412212193012237548828125">
        <ele>83.59999847412109375</ele>
        <time>2026-10-08T15:53:32.000Z</time>
        <extensions>
          <ns3:TrackPointExtension>
            <ns3:hr>142</ns3:hr>
            <ns3:cad>54</ns3:cad>
          </ns3:TrackPointExtension>
        </extensions>
      </trkpt>
      <trkpt lat="40.40419586934149265289306640625" lon="116.68370819650590419769287109375">
        <ele>83.59999847412109375</ele>
        <time>2026-10-08T15:53:33.000Z</time>
        <extensions>
          <ns3:TrackPointExtension>
            <ns3:hr>142</ns3:hr>
            <ns3:cad>54</ns3:cad>
          </ns3:TrackPointExtension>
        </extensions>
      </trkpt>
      <trkpt lat="40.404179356992244720458984375" lon="116.683701239526271820068359375">
        <ele>83.59999847412109375</ele>
        <time>2026-10-08T15:53:34.000Z</time>
        <extensions>
          <ns3:TrackPointExtension>
            <ns3:hr>142</ns3:hr>
            <ns3:cad>55</ns3:cad>
          </ns3:TrackPointExtension>
        </extensions>
      </trkpt>
      <trkpt lat="40.40415647439658641815185546875" lon="116.68369478546082973480224609375">
        <ele>83.59999847412109375</ele>
        <time>2026-10-08T15:53:35.000Z</time>
        <extensions>
          <ns3:TrackPointExtension>
            <ns3:hr>142</ns3:hr>
            <ns3:cad>56</ns3:cad>
          </ns3:TrackPointExtension>
        </extensions>
      </trkpt>
      <trkpt lat="40.404145158827304840087890625" lon="116.68369160033762454986572265625">
        <ele>83.59999847412109375</ele>
        <time>2026-10-08T15:53:36.000Z</time>
        <extensions>
          <ns3:TrackPointExtension>
            <ns3:hr>142</ns3:hr>
            <ns3:cad>56</ns3:cad>
          </ns3:TrackPointExtension>
        </extensions>
      </trkpt>
      <trkpt lat="40.40413417853415012359619140625" lon="116.6836893372237682342529296875">
        <ele>83.59999847412109375</ele>
        <time>2026-10-08T15:53:37.000Z</time>
        <extensions>
          <ns3:TrackPointExtension>
            <ns3:hr>142</ns3:hr>
            <ns3:cad>54</ns3:cad>
          </ns3:TrackPointExtension>
        </extensions>
      </trkpt>
      <trkpt lat="40.4041273891925811767578125" lon="116.68368875049054622650146484375">
        <ele>83.59999847412109375</ele>
        <time>2026-10-08T15:53:38.000Z</time>
        <extensions>
          <ns3:TrackPointExtension>
            <ns3:hr>142</ns3:hr>
            <ns3:cad>54</ns3:cad>
          </ns3:TrackPointExtension>
        </extensions>
      </trkpt>
      <trkpt lat="40.404109954833984375" lon="116.683687157928943634033203125">
        <ele>83.59999847412109375</ele>
        <time>2026-10-08T15:53:39.000Z</time>
        <extensions>
          <ns3:TrackPointExtension>
            <ns3:hr>142</ns3:hr>
            <ns3:cad>55</ns3:cad>
          </ns3:TrackPointExtension>
        </extensions>
      </trkpt>
      <trkpt lat="40.4040987230837345123291015625" lon="116.68368615210056304931640625">
        <ele>83.59999847412109375</ele>
        <time>2026-10-08T15:53:40.000Z</time>
        <extensions>
          <ns3:TrackPointExtension>
            <ns3:hr>141</ns3:hr>
            <ns3:cad>55</ns3:cad>
          </ns3:TrackPointExtension>
        </extensions>
      </trkpt>
      <trkpt lat="40.404090173542499542236328125" lon="116.68368556536734104156494140625">
        <ele>83.59999847412109375</ele>
        <time>2026-10-08T15:53:41.000Z</time>
        <extensions>
          <ns3:TrackPointExtension>
            <ns3:hr>141</ns3:hr>
            <ns3:cad>55</ns3:cad>
          </ns3:TrackPointExtension>
        </extensions>
      </trkpt>
      <trkpt lat="40.4040906764566898345947265625" lon="116.68368556536734104156494140625">
        <ele>83.59999847412109375</ele>
        <time>2026-10-08T15:53:42.000Z</time>
        <extensions>
          <ns3:TrackPointExtension>
            <ns3:hr>141</ns3:hr>
            <ns3:cad>55</ns3:cad>
          </ns3:TrackPointExtension>
        </extensions>
      </trkpt>
      <trkpt lat="40.404081456363201141357421875" lon="116.68368556536734104156494140625">
        <ele>83.59999847412109375</ele>
        <time>2026-10-08T15:53:43.000Z</time>
        <extensions>
          <ns3:TrackPointExtension>
            <ns3:hr>140</ns3:hr>
            <ns3:cad>55</ns3:cad>
          </ns3:TrackPointExtension>
        </extensions>
      </trkpt>
      <trkpt lat="40.4040656983852386474609375" lon="116.6836856491863727569580078125">
        <ele>83.59999847412109375</ele>
        <time>2026-10-08T15:53:44.000Z</time>
        <extensions>
          <ns3:TrackPointExtension>
            <ns3:hr>139</ns3:hr>
            <ns3:cad>56</ns3:cad>
          </ns3:TrackPointExtension>
        </extensions>
      </trkpt>
      <trkpt lat="40.40404449217021465301513671875" lon="116.68368573300540447235107421875">
        <ele>83.59999847412109375</ele>
        <time>2026-10-08T15:53:45.000Z</time>
        <extensions>
          <ns3:TrackPointExtension>
            <ns3:hr>139</ns3:hr>
            <ns3:cad>56</ns3:cad>
          </ns3:TrackPointExtension>
        </extensions>
      </trkpt>
      <trkpt lat="40.404028482735157012939453125" lon="116.683685816824436187744140625">
        <ele>83.59999847412109375</ele>
        <time>2026-10-08T15:53:46.000Z</time>
        <extensions>
          <ns3:TrackPointExtension>
            <ns3:hr>138</ns3:hr>
            <ns3:cad>56</ns3:cad>
          </ns3:TrackPointExtension>
        </extensions>
      </trkpt>
      <trkpt lat="40.4040102101862430572509765625" lon="116.68368590064346790313720703125">
        <ele>83.59999847412109375</ele>
        <time>2026-10-08T15:53:47.000Z</time>
        <extensions>
          <ns3:TrackPointExtension>
            <ns3:hr>138</ns3:hr>
            <ns3:cad>57</ns3:cad>
          </ns3:TrackPointExtension>
        </extensions>
      </trkpt>
      <trkpt lat="40.40399654768407344818115234375" lon="116.68368590064346790313720703125">
        <ele>83.59999847412109375</ele>
        <time>2026-10-08T15:53:48.000Z</time>
        <extensions>
          <ns3:TrackPointExtension>
            <ns3:hr>138</ns3:hr>
            <ns3:cad>57</ns3:cad>
          </ns3:TrackPointExtension>
        </extensions>
      </trkpt>
      <trkpt lat="40.40398380719125270843505859375" lon="116.6836859844624996185302734375">
        <ele>83.59999847412109375</ele>
        <time>2026-10-08T15:53:49.000Z</time>
        <extensions>
          <ns3:TrackPointExtension>
            <ns3:hr>138</ns3:hr>
            <ns3:cad>57</ns3:cad>
          </ns3:TrackPointExtension>
        </extensions>
      </trkpt>
      <trkpt lat="40.40397291071712970733642578125" lon="116.6836859844624996185302734375">
        <ele>83.59999847412109375</ele>
        <time>2026-10-08T15:53:50.000Z</time>
        <extensions>
          <ns3:TrackPointExtension>
            <ns3:hr>138</ns3:hr>
            <ns3:cad>57</ns3:cad>
          </ns3:TrackPointExtension>
        </extensions>
      </trkpt>
      <trkpt lat="40.40396352298557758331298828125" lon="116.68368606828153133392333984375">
        <ele>83.59999847412109375</ele>
        <time>2026-10-08T15:53:51.000Z</time>
        <extensions>
          <ns3:TrackPointExtension>
            <ns3:hr>138</ns3:hr>
            <ns3:cad>55</ns3:cad>
          </ns3:TrackPointExtension>
        </extensions>
      </trkpt>
      <trkpt lat="40.40395312942564487457275390625" lon="116.68368606828153133392333984375">
        <ele>83.59999847412109375</ele>
        <time>2026-10-08T15:53:52.000Z</time>
        <extensions>
          <ns3:TrackPointExtension>
            <ns3:hr>138</ns3:hr>
            <ns3:cad>55</ns3:cad>
          </ns3:TrackPointExtension>
        </extensions>
      </trkpt>
      <trkpt lat="40.4039438255131244659423828125" lon="116.68368615210056304931640625">
        <ele>83.59999847412109375</ele>
        <time>2026-10-08T15:53:53.000Z</time>
        <extensions>
          <ns3:TrackPointExtension>
            <ns3:hr>138</ns3:hr>
            <ns3:cad>55</ns3:cad>
          </ns3:TrackPointExtension>
        </extensions>
      </trkpt>
      <trkpt lat="40.40393552742898464202880859375" lon="116.68368615210056304931640625">
        <ele>83.59999847412109375</ele>
        <time>2026-10-08T15:53:54.000Z</time>
        <extensions>
          <ns3:TrackPointExtension>
            <ns3:hr>137</ns3:hr>
            <ns3:cad>55</ns3:cad>
          </ns3:TrackPointExtension>
        </extensions>
      </trkpt>
      <trkpt lat="40.40392530150711536407470703125" lon="116.68368623591959476470947265625">
        <ele>83.59999847412109375</ele>
        <time>2026-10-08T15:53:55.000Z</time>
        <extensions>
          <ns3:TrackPointExtension>
            <ns3:hr>136</ns3:hr>
            <ns3:cad>56</ns3:cad>
          </ns3:TrackPointExtension>
        </extensions>
      </trkpt>
      <trkpt lat="40.4039223678410053253173828125" lon="116.68368623591959476470947265625">
        <ele>83.59999847412109375</ele>
        <time>2026-10-08T15:53:56.000Z</time>
        <extensions>
          <ns3:TrackPointExtension>
            <ns3:hr>135</ns3:hr>
            <ns3:cad>56</ns3:cad>
          </ns3:TrackPointExtension>
        </extensions>
      </trkpt>
      <trkpt lat="40.40391826070845127105712890625" lon="116.68368623591959476470947265625">
        <ele>83.59999847412109375</ele>
        <time>2026-10-08T15:53:57.000Z</time>
        <extensions>
          <ns3:TrackPointExtension>
            <ns3:hr>134</ns3:hr>
            <ns3:cad>55</ns3:cad>
          </ns3:TrackPointExtension>
        </extensions>
      </trkpt>
      <trkpt lat="40.40390409529209136962890625" lon="116.6836863197386264801025390625">
        <ele>83.59999847412109375</ele>
        <time>2026-10-08T15:53:58.000Z</time>
        <extensions>
          <ns3:TrackPointExtension>
            <ns3:hr>134</ns3:hr>
            <ns3:cad>55</ns3:cad>
          </ns3:TrackPointExtension>
        </extensions>
      </trkpt>
      <trkpt lat="40.4038797877728939056396484375" lon="116.68368640355765819549560546875">
        <ele>83.59999847412109375</ele>
        <time>2026-10-08T15:53:59.000Z</time>
        <extensions>
          <ns3:TrackPointExtension>
            <ns3:hr>134</ns3:hr>
            <ns3:cad>56</ns3:cad>
          </ns3:TrackPointExtension>
        </extensions>
      </trkpt>
      <trkpt lat="40.4038673825562000274658203125" lon="116.683686487376689910888671875">
        <ele>83.59999847412109375</ele>
        <time>2026-10-08T15:54:00.000Z</time>
        <extensions>
          <ns3:TrackPointExtension>
            <ns3:hr>134</ns3:hr>
            <ns3:cad>57</ns3:cad>
          </ns3:TrackPointExtension>
        </extensions>
      </trkpt>
      <trkpt lat="40.4038522951304912567138671875" lon="116.683686487376689910888671875">
        <ele>83.59999847412109375</ele>
        <time>2026-10-08T15:54:01.000Z</time>
        <extensions>
          <ns3:TrackPointExtension>
            <ns3:hr>134</ns3:hr>
            <ns3:cad>57</ns3:cad>
          </ns3:TrackPointExtension>
        </extensions>
      </trkpt>
      <trkpt lat="40.4038372077047824859619140625" lon="116.68368657119572162628173828125">
        <ele>83.59999847412109375</ele>
        <time>2026-10-08T15:54:02.000Z</time>
        <extensions>
          <ns3:TrackPointExtension>
            <ns3:hr>133</ns3:hr>
            <ns3:cad>56</ns3:cad>
          </ns3:TrackPointExtension>
        </extensions>
      </trkpt>
      <trkpt lat="40.40382362902164459228515625" lon="116.6836866550147533416748046875">
        <ele>83.59999847412109375</ele>
        <time>2026-10-08T15:54:03.000Z</time>
        <extensions>
          <ns3:TrackPointExtension>
            <ns3:hr>134</ns3:hr>
            <ns3:cad>0</ns3:cad>
          </ns3:TrackPointExtension>
        </extensions>
      </trkpt>
      <trkpt lat="40.403816588222980499267578125" lon="116.6836866550147533416748046875">
        <ele>83.59999847412109375</ele>
        <time>2026-10-08T15:54:04.000Z</time>
        <extensions>
          <ns3:TrackPointExtension>
            <ns3:hr>134</ns3:hr>
            <ns3:cad>0</ns3:cad>
          </ns3:TrackPointExtension>
        </extensions>
      </trkpt>
      <trkpt lat="40.4038137383759021759033203125" lon="116.6836866550147533416748046875">
        <ele>83.59999847412109375</ele>
        <time>2026-10-08T15:54:05.000Z</time>
        <extensions>
          <ns3:TrackPointExtension>
            <ns3:hr>133</ns3:hr>
            <ns3:cad>0</ns3:cad>
          </ns3:TrackPointExtension>
        </extensions>
      </trkpt>
      <trkpt lat="40.40380728431046009063720703125" lon="116.68368673883378505706787109375">
        <ele>83.59999847412109375</ele>
        <time>2026-10-08T15:54:06.000Z</time>
        <extensions>
          <ns3:TrackPointExtension>
            <ns3:hr>133</ns3:hr>
            <ns3:cad>0</ns3:cad>
          </ns3:TrackPointExtension>
        </extensions>
      </trkpt>
      <trkpt lat="40.40380191989243030548095703125" lon="116.68368673883378505706787109375">
        <ele>83.59999847412109375</ele>
        <time>2026-10-08T15:54:07.000Z</time>
        <extensions>
          <ns3:TrackPointExtension>
            <ns3:hr>132</ns3:hr>
            <ns3:cad>0</ns3:cad>
          </ns3:TrackPointExtension>
        </extensions>
      </trkpt>
      <trkpt lat="40.4037986509501934051513671875" lon="116.68368673883378505706787109375">
        <ele>83.59999847412109375</ele>
        <time>2026-10-08T15:54:08.000Z</time>
        <extensions>
          <ns3:TrackPointExtension>
            <ns3:hr>132</ns3:hr>
            <ns3:cad>0</ns3:cad>
          </ns3:TrackPointExtension>
        </extensions>
      </trkpt>
      <trkpt lat="40.4037813842296600341796875" lon="116.6836868226528167724609375">
        <ele>83.59999847412109375</ele>
        <time>2026-10-08T15:54:09.000Z</time>
        <extensions>
          <ns3:TrackPointExtension>
            <ns3:hr>132</ns3:hr>
            <ns3:cad>0</ns3:cad>
          </ns3:TrackPointExtension>
        </extensions>
      </trkpt>
      <trkpt lat="40.4037684760987758636474609375" lon="116.6836868226528167724609375">
        <ele>83.59999847412109375</ele>
        <time>2026-10-08T15:54:10.000Z</time>
        <extensions>
          <ns3:TrackPointExtension>
            <ns3:hr>133</ns3:hr>
            <ns3:cad>0</ns3:cad>
          </ns3:TrackPointExtension>
        </extensions>
      </trkpt>
      <trkpt lat="40.40374852716922760009765625" lon="116.68368690647184848785400390625">
        <ele>83.59999847412109375</ele>
        <time>2026-10-08T15:54:11.000Z</time>
        <extensions>
          <ns3:TrackPointExtension>
            <ns3:hr>133</ns3:hr>
            <ns3:cad>0</ns3:cad>
          </ns3:TrackPointExtension>
        </extensions>
      </trkpt>
      <trkpt lat="40.40373955853283405303955078125" lon="116.6836869902908802032470703125">
        <ele>83.59999847412109375</ele>
        <time>2026-10-08T15:54:12.000Z</time>
        <extensions>
          <ns3:TrackPointExtension>
            <ns3:hr>132</ns3:hr>
            <ns3:cad>0</ns3:cad>
          </ns3:TrackPointExtension>
        </extensions>
      </trkpt>
      <trkpt lat="40.40372463874518871307373046875" lon="116.68368707410991191864013671875">
        <ele>83.59999847412109375</ele>
        <time>2026-10-08T15:54:13.000Z</time>
        <extensions>
          <ns3:TrackPointExtension>
            <ns3:hr>133</ns3:hr>
            <ns3:cad>52</ns3:cad>
          </ns3:TrackPointExtension>
        </extensions>
      </trkpt>
      <trkpt lat="40.4037104733288288116455078125" lon="116.68368707410991191864013671875">
        <ele>83.59999847412109375</ele>
        <time>2026-10-08T15:54:14.000Z</time>
        <extensions>
          <ns3:TrackPointExtension>
            <ns3:hr>133</ns3:hr>
            <ns3:cad>52</ns3:cad>
          </ns3:TrackPointExtension>
        </extensions>
      </trkpt>
      <trkpt lat="40.40369689464569091796875" lon="116.683687157928943634033203125">
        <ele>83.59999847412109375</ele>
        <time>2026-10-08T15:54:15.000Z</time>
        <extensions>
          <ns3:TrackPointExtension>
            <ns3:hr>134</ns3:hr>
            <ns3:cad>52</ns3:cad>
          </ns3:TrackPointExtension>
        </extensions>
      </trkpt>
      <trkpt lat="40.4036873392760753631591796875" lon="116.683687157928943634033203125">
        <ele>83.59999847412109375</ele>
        <time>2026-10-08T15:54:16.000Z</time>
        <extensions>
          <ns3:TrackPointExtension>
            <ns3:hr>136</ns3:hr>
            <ns3:cad>52</ns3:cad>
          </ns3:TrackPointExtension>
        </extensions>
      </trkpt>
      <trkpt lat="40.403677113354206085205078125" lon="116.68368724174797534942626953125">
        <ele>83.59999847412109375</ele>
        <time>2026-10-08T15:54:17.000Z</time>
        <extensions>
          <ns3:TrackPointExtension>
            <ns3:hr>137</ns3:hr>
            <ns3:cad>52</ns3:cad>
          </ns3:TrackPointExtension>
        </extensions>
      </trkpt>
      <trkpt lat="40.40367183275520801544189453125" lon="116.68368724174797534942626953125">
        <ele>83.59999847412109375</ele>
        <time>2026-10-08T15:54:18.000Z</time>
        <extensions>
          <ns3:TrackPointExtension>
            <ns3:hr>138</ns3:hr>
            <ns3:cad>0</ns3:cad>
          </ns3:TrackPointExtension>
        </extensions>
      </trkpt>
      <trkpt lat="40.40366378612816333770751953125" lon="116.6836873255670070648193359375">
        <ele>83.59999847412109375</ele>
        <time>2026-10-08T15:54:19.000Z</time>
        <extensions>
          <ns3:TrackPointExtension>
            <ns3:hr>138</ns3:hr>
            <ns3:cad>0</ns3:cad>
          </ns3:TrackPointExtension>
        </extensions>
      </trkpt>
      <trkpt lat="40.40366294793784618377685546875" lon="116.6836873255670070648193359375">
        <ele>83.59999847412109375</ele>
        <time>2026-10-08T15:54:20.000Z</time>
        <extensions>
          <ns3:TrackPointExtension>
            <ns3:hr>137</ns3:hr>
            <ns3:cad>0</ns3:cad>
          </ns3:TrackPointExtension>
        </extensions>
      </trkpt>
      <trkpt lat="40.40365959517657756805419921875" lon="116.6836873255670070648193359375">
        <ele>83.59999847412109375</ele>
        <time>2026-10-08T15:54:21.000Z</time>
        <extensions>
          <ns3:TrackPointExtension>
            <ns3:hr>137</ns3:hr>
            <ns3:cad>55</ns3:cad>
          </ns3:TrackPointExtension>
        </extensions>
      </trkpt>
      <trkpt lat="40.4036487825214862823486328125" lon="116.6836873255670070648193359375">
        <ele>83.59999847412109375</ele>
        <time>2026-10-08T15:54:22.000Z</time>
        <extensions>
          <ns3:TrackPointExtension>
            <ns3:hr>138</ns3:hr>
            <ns3:cad>55</ns3:cad>
          </ns3:TrackPointExtension>
        </extensions>
      </trkpt>
      <trkpt lat="40.40364132262766361236572265625" lon="116.68368740938603878021240234375">
        <ele>83.59999847412109375</ele>
        <time>2026-10-08T15:54:23.000Z</time>
        <extensions>
          <ns3:TrackPointExtension>
            <ns3:hr>138</ns3:hr>
            <ns3:cad>55</ns3:cad>
          </ns3:TrackPointExtension>
        </extensions>
      </trkpt>
      <trkpt lat="40.40362942032516002655029296875" lon="116.68368740938603878021240234375">
        <ele>83.59999847412109375</ele>
        <time>2026-10-08T15:54:24.000Z</time>
        <extensions>
          <ns3:TrackPointExtension>
            <ns3:hr>137</ns3:hr>
            <ns3:cad>55</ns3:cad>
          </ns3:TrackPointExtension>
        </extensions>
      </trkpt>
      <trkpt lat="40.40361466817557811737060546875" lon="116.68368749320507049560546875">
        <ele>83.59999847412109375</ele>
        <time>2026-10-08T15:54:25.000Z</time>
        <extensions>
          <ns3:TrackPointExtension>
            <ns3:hr>137</ns3:hr>
            <ns3:cad>56</ns3:cad>
          </ns3:TrackPointExtension>
        </extensions>
      </trkpt>
      <trkpt lat="40.4036021791398525238037109375" lon="116.68368757702410221099853515625">
        <ele>83.59999847412109375</ele>
        <time>2026-10-08T15:54:26.000Z</time>
        <extensions>
          <ns3:TrackPointExtension>
            <ns3:hr>136</ns3:hr>
            <ns3:cad>57</ns3:cad>
          </ns3:TrackPointExtension>
        </extensions>
      </trkpt>
      <trkpt lat="40.403586588799953460693359375" lon="116.68368757702410221099853515625">
        <ele>83.59999847412109375</ele>
        <time>2026-10-08T15:54:27.000Z</time>
        <extensions>
          <ns3:TrackPointExtension>
            <ns3:hr>136</ns3:hr>
            <ns3:cad>58</ns3:cad>
          </ns3:TrackPointExtension>
        </extensions>
      </trkpt>
      <trkpt lat="40.40357057936489582061767578125" lon="116.6836876608431339263916015625">
        <ele>83.59999847412109375</ele>
        <time>2026-10-08T15:54:28.000Z</time>
        <extensions>
          <ns3:TrackPointExtension>
            <ns3:hr>137</ns3:hr>
            <ns3:cad>59</ns3:cad>
          </ns3:TrackPointExtension>
        </extensions>
      </trkpt>
      <trkpt lat="40.4035518877208232879638671875" lon="116.68368774466216564178466796875">
        <ele>83.59999847412109375</ele>
        <time>2026-10-08T15:54:29.000Z</time>
        <extensions>
          <ns3:TrackPointExtension>
            <ns3:hr>137</ns3:hr>
            <ns3:cad>59</ns3:cad>
          </ns3:TrackPointExtension>
        </extensions>
      </trkpt>
      <trkpt lat="40.4035374708473682403564453125" lon="116.683687828481197357177734375">
        <ele>83.59999847412109375</ele>
        <time>2026-10-08T15:54:30.000Z</time>
        <extensions>
          <ns3:TrackPointExtension>
            <ns3:hr>137</ns3:hr>
            <ns3:cad>57</ns3:cad>
          </ns3:TrackPointExtension>
        </extensions>
      </trkpt>
      <trkpt lat="40.40352229960262775421142578125" lon="116.68368791230022907257080078125">
        <ele>83.59999847412109375</ele>
        <time>2026-10-08T15:54:31.000Z</time>
        <extensions>
          <ns3:TrackPointExtension>
            <ns3:hr>137</ns3:hr>
            <ns3:cad>57</ns3:cad>
          </ns3:TrackPointExtension>
        </extensions>
      </trkpt>
      <trkpt lat="40.40350905619561672210693359375" lon="116.68368791230022907257080078125">
        <ele>83.59999847412109375</ele>
        <time>2026-10-08T15:54:32.000Z</time>
        <extensions>
          <ns3:TrackPointExtension>
            <ns3:hr>139</ns3:hr>
            <ns3:cad>57</ns3:cad>
          </ns3:TrackPointExtension>
        </extensions>
      </trkpt>
      <trkpt lat="40.40349463932216167449951171875" lon="116.6836879961192607879638671875">
        <ele>83.59999847412109375</ele>
        <time>2026-10-08T15:54:33.000Z</time>
        <extensions>
          <ns3:TrackPointExtension>
            <ns3:hr>140</ns3:hr>
            <ns3:cad>57</ns3:cad>
          </ns3:TrackPointExtension>
        </extensions>
      </trkpt>
      <trkpt lat="40.40348474867641925811767578125" lon="116.6836879961192607879638671875">
        <ele>83.59999847412109375</ele>
        <time>2026-10-08T15:54:34.000Z</time>
        <extensions>
          <ns3:TrackPointExtension>
            <ns3:hr>140</ns3:hr>
            <ns3:cad>54</ns3:cad>
          </ns3:TrackPointExtension>
        </extensions>
      </trkpt>
      <trkpt lat="40.4034744389355182647705078125" lon="116.68368807993829250335693359375">
        <ele>83.59999847412109375</ele>
        <time>2026-10-08T15:54:35.000Z</time>
        <extensions>
          <ns3:TrackPointExtension>
            <ns3:hr>141</ns3:hr>
            <ns3:cad>51</ns3:cad>
          </ns3:TrackPointExtension>
        </extensions>
      </trkpt>
      <trkpt lat="40.40346932597458362579345703125" lon="116.68368807993829250335693359375">
        <ele>83.59999847412109375</ele>
        <time>2026-10-08T15:54:36.000Z</time>
        <extensions>
          <ns3:TrackPointExtension>
            <ns3:hr>140</ns3:hr>
            <ns3:cad>51</ns3:cad>
          </ns3:TrackPointExtension>
        </extensions>
      </trkpt>
      <trkpt lat="40.40347225964069366455078125" lon="116.68368807993829250335693359375">
        <ele>83.59999847412109375</ele>
        <time>2026-10-08T15:54:37.000Z</time>
        <extensions>
          <ns3:TrackPointExtension>
            <ns3:hr>140</ns3:hr>
            <ns3:cad>0</ns3:cad>
          </ns3:TrackPointExtension>
        </extensions>
      </trkpt>
      <trkpt lat="40.40347452275454998016357421875" lon="116.68368807993829250335693359375">
        <ele>83.59999847412109375</ele>
        <time>2026-10-08T15:54:38.000Z</time>
        <extensions>
          <ns3:TrackPointExtension>
            <ns3:hr>139</ns3:hr>
            <ns3:cad>0</ns3:cad>
          </ns3:TrackPointExtension>
        </extensions>
      </trkpt>
      <trkpt lat="40.4034643806517124176025390625" lon="116.68368807993829250335693359375">
        <ele>83.59999847412109375</ele>
        <time>2026-10-08T15:54:39.000Z</time>
        <extensions>
          <ns3:TrackPointExtension>
            <ns3:hr>139</ns3:hr>
            <ns3:cad>55</ns3:cad>
          </ns3:TrackPointExtension>
        </extensions>
      </trkpt>
      <trkpt lat="40.40344149805605411529541015625" lon="116.68368824757635593414306640625">
        <ele>83.59999847412109375</ele>
        <time>2026-10-08T15:54:40.000Z</time>
        <extensions>
          <ns3:TrackPointExtension>
            <ns3:hr>139</ns3:hr>
            <ns3:cad>55</ns3:cad>
          </ns3:TrackPointExtension>
        </extensions>
      </trkpt>
      <trkpt lat="40.40343127213418483734130859375" lon="116.68368824757635593414306640625">
        <ele>83.59999847412109375</ele>
        <time>2026-10-08T15:54:41.000Z</time>
        <extensions>
          <ns3:TrackPointExtension>
            <ns3:hr>139</ns3:hr>
            <ns3:cad>53</ns3:cad>
          </ns3:TrackPointExtension>
        </extensions>
      </trkpt>
      <trkpt lat="40.4034112393856048583984375" lon="116.6836883313953876495361328125">
        <ele>83.59999847412109375</ele>
        <time>2026-10-08T15:54:42.000Z</time>
        <extensions>
          <ns3:TrackPointExtension>
            <ns3:hr>139</ns3:hr>
            <ns3:cad>53</ns3:cad>
          </ns3:TrackPointExtension>
        </extensions>
      </trkpt>
      <trkpt lat="40.4034030251204967498779296875" lon="116.6836883313953876495361328125">
        <ele>83.59999847412109375</ele>
        <time>2026-10-08T15:54:43.000Z</time>
        <extensions>
          <ns3:TrackPointExtension>
            <ns3:hr>139</ns3:hr>
            <ns3:cad>53</ns3:cad>
          </ns3:TrackPointExtension>
        </extensions>
      </trkpt>
      <trkpt lat="40.40339355356991291046142578125" lon="116.68368841521441936492919921875">
        <ele>83.59999847412109375</ele>
        <time>2026-10-08T15:54:44.000Z</time>
        <extensions>
          <ns3:TrackPointExtension>
            <ns3:hr>139</ns3:hr>
            <ns3:cad>51</ns3:cad>
          </ns3:TrackPointExtension>
        </extensions>
      </trkpt>
      <trkpt lat="40.40338802151381969451904296875" lon="116.68368841521441936492919921875">
        <ele>83.59999847412109375</ele>
        <time>2026-10-08T15:54:45.000Z</time>
        <extensions>
          <ns3:TrackPointExtension>
            <ns3:hr>138</ns3:hr>
            <ns3:cad>51</ns3:cad>
          </ns3:TrackPointExtension>
        </extensions>
      </trkpt>
      <trkpt lat="40.4033808968961238861083984375" lon="116.683688499033451080322265625">
        <ele>83.59999847412109375</ele>
        <time>2026-10-08T15:54:46.000Z</time>
        <extensions>
          <ns3:TrackPointExtension>
            <ns3:hr>139</ns3:hr>
            <ns3:cad>51</ns3:cad>
          </ns3:TrackPointExtension>
        </extensions>
      </trkpt>
      <trkpt lat="40.403377711772918701171875" lon="116.683688499033451080322265625">
        <ele>83.59999847412109375</ele>
        <time>2026-10-08T15:54:47.000Z</time>
        <extensions>
          <ns3:TrackPointExtension>
            <ns3:hr>139</ns3:hr>
            <ns3:cad>51</ns3:cad>
          </ns3:TrackPointExtension>
        </extensions>
      </trkpt>
      <trkpt lat="40.40336388163268566131591796875" lon="116.683688499033451080322265625">
        <ele>83.59999847412109375</ele>
        <time>2026-10-08T15:54:48.000Z</time>
        <extensions>
          <ns3:TrackPointExtension>
            <ns3:hr>138</ns3:hr>
            <ns3:cad>51</ns3:cad>
          </ns3:TrackPointExtension>
        </extensions>
      </trkpt>
      <trkpt lat="40.40335097350180149078369140625" lon="116.68368858285248279571533203125">
        <ele>83.59999847412109375</ele>
        <time>2026-10-08T15:54:49.000Z</time>
        <extensions>
          <ns3:TrackPointExtension>
            <ns3:hr>138</ns3:hr>
            <ns3:cad>51</ns3:cad>
          </ns3:TrackPointExtension>
        </extensions>
      </trkpt>
      <trkpt lat="40.40334393270313739776611328125" lon="116.68368858285248279571533203125">
        <ele>83.59999847412109375</ele>
        <time>2026-10-08T15:54:50.000Z</time>
        <extensions>
          <ns3:TrackPointExtension>
            <ns3:hr>139</ns3:hr>
            <ns3:cad>51</ns3:cad>
          </ns3:TrackPointExtension>
        </extensions>
      </trkpt>
      <trkpt lat="40.4033406637609004974365234375" lon="116.6836886666715145111083984375">
        <ele>83.59999847412109375</ele>
        <time>2026-10-08T15:54:51.000Z</time>
        <extensions>
          <ns3:TrackPointExtension>
            <ns3:hr>140</ns3:hr>
            <ns3:cad>0</ns3:cad>
          </ns3:TrackPointExtension>
        </extensions>
      </trkpt>
      <trkpt lat="40.4033450223505496978759765625" lon="116.68368858285248279571533203125">
        <ele>83.59999847412109375</ele>
        <time>2026-10-08T15:54:52.000Z</time>
        <extensions>
          <ns3:TrackPointExtension>
            <ns3:hr>142</ns3:hr>
            <ns3:cad>0</ns3:cad>
          </ns3:TrackPointExtension>
        </extensions>
      </trkpt>
      <trkpt lat="40.40334242396056652069091796875" lon="116.68368858285248279571533203125">
        <ele>83.59999847412109375</ele>
        <time>2026-10-08T15:54:53.000Z</time>
        <extensions>
          <ns3:TrackPointExtension>
            <ns3:hr>142</ns3:hr>
            <ns3:cad>0</ns3:cad>
          </ns3:TrackPointExtension>
        </extensions>
      </trkpt>
      <trkpt lat="40.4033470340073108673095703125" lon="116.68368858285248279571533203125">
        <ele>83.59999847412109375</ele>
        <time>2026-10-08T15:54:54.000Z</time>
        <extensions>
          <ns3:TrackPointExtension>
            <ns3:hr>143</ns3:hr>
            <ns3:cad>0</ns3:cad>
          </ns3:TrackPointExtension>
        </extensions>
      </trkpt>
      <trkpt lat="40.40334410034120082855224609375" lon="116.68368858285248279571533203125">
        <ele>83.59999847412109375</ele>
        <time>2026-10-08T15:54:55.000Z</time>
        <extensions>
          <ns3:TrackPointExtension>
            <ns3:hr>144</ns3:hr>
            <ns3:cad>0</ns3:cad>
          </ns3:TrackPointExtension>
        </extensions>
      </trkpt>
      <trkpt lat="40.40334661491215229034423828125" lon="116.68368858285248279571533203125">
        <ele>83.59999847412109375</ele>
        <time>2026-10-08T15:54:56.000Z</time>
        <extensions>
          <ns3:TrackPointExtension>
            <ns3:hr>145</ns3:hr>
            <ns3:cad>0</ns3:cad>
          </ns3:TrackPointExtension>
        </extensions>
      </trkpt>
      <trkpt lat="40.4033540748059749603271484375" lon="116.68368858285248279571533203125">
        <ele>83.59999847412109375</ele>
        <time>2026-10-08T15:54:57.000Z</time>
        <extensions>
          <ns3:TrackPointExtension>
            <ns3:hr>144</ns3:hr>
            <ns3:cad>0</ns3:cad>
          </ns3:TrackPointExtension>
        </extensions>
      </trkpt>
      <trkpt lat="40.403360612690448760986328125" lon="116.68368858285248279571533203125">
        <ele>83.59999847412109375</ele>
        <time>2026-10-08T15:54:58.000Z</time>
        <extensions>
          <ns3:TrackPointExtension>
            <ns3:hr>144</ns3:hr>
            <ns3:cad>0</ns3:cad>
          </ns3:TrackPointExtension>
        </extensions>
      </trkpt>
      <trkpt lat="40.4033580981194972991943359375" lon="116.68368858285248279571533203125">
        <ele>83.59999847412109375</ele>
        <time>2026-10-08T15:54:59.000Z</time>
        <extensions>
          <ns3:TrackPointExtension>
            <ns3:hr>143</ns3:hr>
            <ns3:cad>0</ns3:cad>
          </ns3:TrackPointExtension>
        </extensions>
      </trkpt>
      <trkpt lat="40.4033580981194972991943359375" lon="116.68368858285248279571533203125">
        <ele>83.59999847412109375</ele>
        <time>2026-10-08T15:55:00.000Z</time>
        <extensions>
          <ns3:TrackPointExtension>
            <ns3:hr>141</ns3:hr>
            <ns3:cad>0</ns3:cad>
          </ns3:TrackPointExtension>
        </extensions>
      </trkpt>
      <trkpt lat="40.4033580981194972991943359375" lon="116.68368858285248279571533203125">
        <ele>83.59999847412109375</ele>
        <time>2026-10-08T15:55:01.000Z</time>
        <extensions>
          <ns3:TrackPointExtension>
            <ns3:hr>140</ns3:hr>
            <ns3:cad>0</ns3:cad>
          </ns3:TrackPointExtension>
        </extensions>
      </trkpt>
      <trkpt lat="40.4033580981194972991943359375" lon="116.68368858285248279571533203125">
        <ele>83.59999847412109375</ele>
        <time>2026-10-08T15:55:02.000Z</time>
        <extensions>
          <ns3:TrackPointExtension>
            <ns3:hr>139</ns3:hr>
            <ns3:cad>0</ns3:cad>
          </ns3:TrackPointExtension>
        </extensions>
      </trkpt>
      <trkpt lat="40.4033580981194972991943359375" lon="116.68368858285248279571533203125">
        <ele>83.59999847412109375</ele>
        <time>2026-10-08T15:55:03.000Z</time>
        <extensions>
          <ns3:TrackPointExtension>
            <ns3:hr>138</ns3:hr>
            <ns3:cad>0</ns3:cad>
          </ns3:TrackPointExtension>
        </extensions>
      </trkpt>
      <trkpt lat="40.4033580981194972991943359375" lon="116.68368858285248279571533203125">
        <ele>83.59999847412109375</ele>
        <time>2026-10-08T15:55:04.000Z</time>
        <extensions>
          <ns3:TrackPointExtension>
            <ns3:hr>139</ns3:hr>
            <ns3:cad>0</ns3:cad>
          </ns3:TrackPointExtension>
        </extensions>
      </trkpt>
      <trkpt lat="40.4033580981194972991943359375" lon="116.68368858285248279571533203125">
        <ele>83.59999847412109375</ele>
        <time>2026-10-08T15:55:05.000Z</time>
        <extensions>
          <ns3:TrackPointExtension>
            <ns3:hr>141</ns3:hr>
            <ns3:cad>0</ns3:cad>
          </ns3:TrackPointExtension>
        </extensions>
      </trkpt>
      <trkpt lat="40.4033580981194972991943359375" lon="116.68368858285248279571533203125">
        <ele>83.59999847412109375</ele>
        <time>2026-10-08T15:55:06.000Z</time>
        <extensions>
          <ns3:TrackPointExtension>
            <ns3:hr>141</ns3:hr>
            <ns3:cad>0</ns3:cad>
          </ns3:TrackPointExtension>
        </extensions>
      </trkpt>
      <trkpt lat="40.4033580981194972991943359375" lon="116.68368858285248279571533203125">
        <ele>83.59999847412109375</ele>
        <time>2026-10-08T15:55:07.000Z</time>
        <extensions>
          <ns3:TrackPointExtension>
            <ns3:hr>142</ns3:hr>
            <ns3:cad>0</ns3:cad>
          </ns3:TrackPointExtension>
        </extensions>
      </trkpt>
      <trkpt lat="40.4033580981194972991943359375" lon="116.68368858285248279571533203125">
        <ele>83.59999847412109375</ele>
        <time>2026-10-08T15:55:08.000Z</time>
        <extensions>
          <ns3:TrackPointExtension>
            <ns3:hr>143</ns3:hr>
            <ns3:cad>0</ns3:cad>
          </ns3:TrackPointExtension>
        </extensions>
      </trkpt>
      <trkpt lat="40.4033580981194972991943359375" lon="116.68368858285248279571533203125">
        <ele>83.59999847412109375</ele>
        <time>2026-10-08T15:55:09.000Z</time>
        <extensions>
          <ns3:TrackPointExtension>
            <ns3:hr>143</ns3:hr>
            <ns3:cad>0</ns3:cad>
          </ns3:TrackPointExtension>
        </extensions>
      </trkpt>
      <trkpt lat="40.4033580981194972991943359375" lon="116.68368858285248279571533203125">
        <ele>83.59999847412109375</ele>
        <time>2026-10-08T15:55:10.000Z</time>
        <extensions>
          <ns3:TrackPointExtension>
            <ns3:hr>141</ns3:hr>
            <ns3:cad>0</ns3:cad>
          </ns3:TrackPointExtension>
        </extensions>
      </trkpt>
      <trkpt lat="40.4033336229622364044189453125" lon="116.6836886666715145111083984375">
        <ele>83.59999847412109375</ele>
        <time>2026-10-08T15:55:11.000Z</time>
        <extensions>
          <ns3:TrackPointExtension>
            <ns3:hr>140</ns3:hr>
            <ns3:cad>0</ns3:cad>
          </ns3:TrackPointExtension>
        </extensions>
      </trkpt>
      <trkpt lat="40.4032612033188343048095703125" lon="116.6836987249553203582763671875">
        <ele>83.59999847412109375</ele>
        <time>2026-10-08T15:55:12.000Z</time>
        <extensions>
          <ns3:TrackPointExtension>
            <ns3:hr>140</ns3:hr>
            <ns3:cad>0</ns3:cad>
          </ns3:TrackPointExtension>
        </extensions>
      </trkpt>
      <trkpt lat="40.4031934775412082672119140625" lon="116.68372680433094501495361328125">
        <ele>83.59999847412109375</ele>
        <time>2026-10-08T15:55:13.000Z</time>
        <extensions>
          <ns3:TrackPointExtension>
            <ns3:hr>140</ns3:hr>
            <ns3:cad>0</ns3:cad>
          </ns3:TrackPointExtension>
        </extensions>
      </trkpt>
      <trkpt lat="40.40313052944839000701904296875" lon="116.683776676654815673828125">
        <ele>83.59999847412109375</ele>
        <time>2026-10-08T15:55:14.000Z</time>
        <extensions>
          <ns3:TrackPointExtension>
            <ns3:hr>140</ns3:hr>
            <ns3:cad>0</ns3:cad>
          </ns3:TrackPointExtension>
        </extensions>
      </trkpt>
      <trkpt lat="40.40307453833520412445068359375" lon="116.68384649790823459625244140625">
        <ele>83.59999847412109375</ele>
        <time>2026-10-08T15:55:15.000Z</time>
        <extensions>
          <ns3:TrackPointExtension>
            <ns3:hr>148</ns3:hr>
            <ns3:cad>0</ns3:cad>
          </ns3:TrackPointExtension>
        </extensions>
      </trkpt>
      <trkpt lat="40.40303849615156650543212890625" lon="116.68391824699938297271728515625">
        <ele>83.59999847412109375</ele>
        <time>2026-10-08T15:55:16.000Z</time>
        <extensions>
          <ns3:TrackPointExtension>
            <ns3:hr>151</ns3:hr>
            <ns3:cad>107</ns3:cad>
          </ns3:TrackPointExtension>
        </extensions>
      </trkpt>
      <trkpt lat="40.40301335044205188751220703125" lon="116.68399686925113201141357421875">
        <ele>83.59999847412109375</ele>
        <time>2026-10-08T15:55:17.000Z</time>
        <extensions>
          <ns3:TrackPointExtension>
            <ns3:hr>154</ns3:hr>
            <ns3:cad>107</ns3:cad>
          </ns3:TrackPointExtension>
        </extensions>
      </trkpt>
      <trkpt lat="40.4030023701488971710205078125" lon="116.684066355228424072265625">
        <ele>83.59999847412109375</ele>
        <time>2026-10-08T15:55:18.000Z</time>
        <extensions>
          <ns3:TrackPointExtension>
            <ns3:hr>157</ns3:hr>
            <ns3:cad>107</ns3:cad>
          </ns3:TrackPointExtension>
        </extensions>
      </trkpt>
      <trkpt lat="40.40299960412085056304931640625" lon="116.6841198317706584930419921875">
        <ele>83.59999847412109375</ele>
        <time>2026-10-08T15:55:19.000Z</time>
        <extensions>
          <ns3:TrackPointExtension>
            <ns3:hr>158</ns3:hr>
            <ns3:cad>103</ns3:cad>
          </ns3:TrackPointExtension>
        </extensions>
      </trkpt>
      <trkpt lat="40.40300295688211917877197265625" lon="116.68418244458734989166259765625">
        <ele>83.59999847412109375</ele>
        <time>2026-10-08T15:55:20.000Z</time>
        <extensions>
          <ns3:TrackPointExtension>
            <ns3:hr>161</ns3:hr>
            <ns3:cad>103</ns3:cad>
          </ns3:TrackPointExtension>
        </extensions>
      </trkpt>
      <trkpt lat="40.40302240289747714996337890625" lon="116.6842753998935222625732421875">
        <ele>83.59999847412109375</ele>
        <time>2026-10-08T15:55:21.000Z</time>
        <extensions>
          <ns3:TrackPointExtension>
            <ns3:hr>163</ns3:hr>
            <ns3:cad>103</ns3:cad>
          </ns3:TrackPointExtension>
        </extensions>
      </trkpt>
      <trkpt lat="40.4030483029782772064208984375" lon="116.68434488587081432342529296875">
        <ele>83.59999847412109375</ele>
        <time>2026-10-08T15:55:22.000Z</time>
        <extensions>
          <ns3:TrackPointExtension>
            <ns3:hr>166</ns3:hr>
            <ns3:cad>109</ns3:cad>
          </ns3:TrackPointExtension>
        </extensions>
      </trkpt>
      <trkpt lat="40.403069593012332916259765625" lon="116.684384532272815704345703125">
        <ele>83.59999847412109375</ele>
        <time>2026-10-08T15:55:23.000Z</time>
        <extensions>
          <ns3:TrackPointExtension>
            <ns3:hr>167</ns3:hr>
            <ns3:cad>109</ns3:cad>
          </ns3:TrackPointExtension>
        </extensions>
      </trkpt>
      <trkpt lat="40.40309683419764041900634765625" lon="116.68442484922707080841064453125">
        <ele>83.59999847412109375</ele>
        <time>2026-10-08T15:55:24.000Z</time>
        <extensions>
          <ns3:TrackPointExtension>
            <ns3:hr>169</ns3:hr>
            <ns3:cad>109</ns3:cad>
          </ns3:TrackPointExtension>
        </extensions>
      </trkpt>
      <trkpt lat="40.403149388730525970458984375" lon="116.68448167853057384490966796875">
        <ele>83.59999847412109375</ele>
        <time>2026-10-08T15:55:25.000Z</time>
        <extensions>
          <ns3:TrackPointExtension>
            <ns3:hr>171</ns3:hr>
            <ns3:cad>109</ns3:cad>
          </ns3:TrackPointExtension>
        </extensions>
      </trkpt>
      <trkpt lat="40.40320110507309436798095703125" lon="116.68451705016195774078369140625">
        <ele>83.59999847412109375</ele>
        <time>2026-10-08T15:55:26.000Z</time>
        <extensions>
          <ns3:TrackPointExtension>
            <ns3:hr>174</ns3:hr>
            <ns3:cad>109</ns3:cad>
          </ns3:TrackPointExtension>
        </extensions>
      </trkpt>
      <trkpt lat="40.403230190277099609375" lon="116.68453113175928592681884765625">
        <ele>83.59999847412109375</ele>
        <time>2026-10-08T15:55:27.000Z</time>
        <extensions>
          <ns3:TrackPointExtension>
            <ns3:hr>173</ns3:hr>
            <ns3:cad>109</ns3:cad>
          </ns3:TrackPointExtension>
        </extensions>
      </trkpt>
      <trkpt lat="40.40328727103769779205322265625" lon="116.684547476470470428466796875">
        <ele>83.59999847412109375</ele>
        <time>2026-10-08T15:55:28.000Z</time>
        <extensions>
          <ns3:TrackPointExtension>
            <ns3:hr>177</ns3:hr>
            <ns3:cad>109</ns3:cad>
          </ns3:TrackPointExtension>
        </extensions>
      </trkpt>
      <trkpt lat="40.40335684083402156829833984375" lon="116.68455108068883419036865234375">
        <ele>83.59999847412109375</ele>
        <time>2026-10-08T15:55:29.000Z</time>
        <extensions>
          <ns3:TrackPointExtension>
            <ns3:hr>175</ns3:hr>
            <ns3:cad>109</ns3:cad>
          </ns3:TrackPointExtension>
        </extensions>
      </trkpt>
      <trkpt lat="40.40339070372283458709716796875" lon="116.68455091305077075958251953125">
        <ele>83.59999847412109375</ele>
        <time>2026-10-08T15:55:30.000Z</time>
        <extensions>
          <ns3:TrackPointExtension>
            <ns3:hr>177</ns3:hr>
            <ns3:cad>109</ns3:cad>
          </ns3:TrackPointExtension>
        </extensions>
      </trkpt>
      <trkpt lat="40.40342858992516994476318359375" lon="116.684550829231739044189453125">
        <ele>83.59999847412109375</ele>
        <time>2026-10-08T15:55:31.000Z</time>
        <extensions>
          <ns3:TrackPointExtension>
            <ns3:hr>177</ns3:hr>
            <ns3:cad>109</ns3:cad>
          </ns3:TrackPointExtension>
        </extensions>
      </trkpt>
      <trkpt lat="40.403494723141193389892578125" lon="116.6845504939556121826171875">
        <ele>83.59999847412109375</ele>
        <time>2026-10-08T15:55:32.000Z</time>
        <extensions>
          <ns3:TrackPointExtension>
            <ns3:hr>179</ns3:hr>
            <ns3:cad>109</ns3:cad>
          </ns3:TrackPointExtension>
        </extensions>
      </trkpt>
      <trkpt lat="40.4035478644073009490966796875" lon="116.6845503263175487518310546875">
        <ele>83.59999847412109375</ele>
        <time>2026-10-08T15:55:33.000Z</time>
        <extensions>
          <ns3:TrackPointExtension>
            <ns3:hr>178</ns3:hr>
            <ns3:cad>109</ns3:cad>
          </ns3:TrackPointExtension>
        </extensions>
      </trkpt>
      <trkpt lat="40.40359086357057094573974609375" lon="116.684550158679485321044921875">
        <ele>83.59999847412109375</ele>
        <time>2026-10-08T15:55:34.000Z</time>
        <extensions>
          <ns3:TrackPointExtension>
            <ns3:hr>178</ns3:hr>
            <ns3:cad>109</ns3:cad>
          </ns3:TrackPointExtension>
        </extensions>
      </trkpt>
      <trkpt lat="40.4036387242376804351806640625" lon="116.68454990722239017486572265625">
        <ele>83.59999847412109375</ele>
        <time>2026-10-08T15:55:35.000Z</time>
        <extensions>
          <ns3:TrackPointExtension>
            <ns3:hr>181</ns3:hr>
            <ns3:cad>109</ns3:cad>
          </ns3:TrackPointExtension>
        </extensions>
      </trkpt>
      <trkpt lat="40.40370284579694271087646484375" lon="116.6845496557652950286865234375">
        <ele>83.59999847412109375</ele>
        <time>2026-10-08T15:55:36.000Z</time>
        <extensions>
          <ns3:TrackPointExtension>
            <ns3:hr>180</ns3:hr>
            <ns3:cad>109</ns3:cad>
          </ns3:TrackPointExtension>
        </extensions>
      </trkpt>
      <trkpt lat="40.40372363291680812835693359375" lon="116.68454957194626331329345703125">
        <ele>83.59999847412109375</ele>
        <time>2026-10-08T15:55:37.000Z</time>
        <extensions>
          <ns3:TrackPointExtension>
            <ns3:hr>181</ns3:hr>
            <ns3:cad>109</ns3:cad>
          </ns3:TrackPointExtension>
        </extensions>
      </trkpt>
      <trkpt lat="40.40377627126872539520263671875" lon="116.6845493204891681671142578125">
        <ele>83.59999847412109375</ele>
        <time>2026-10-08T15:55:38.000Z</time>
        <extensions>
          <ns3:TrackPointExtension>
            <ns3:hr>179</ns3:hr>
            <ns3:cad>109</ns3:cad>
          </ns3:TrackPointExtension>
        </extensions>
      </trkpt>
      <trkpt lat="40.4038348607718944549560546875" lon="116.684549152851104736328125">
        <ele>83.59999847412109375</ele>
        <time>2026-10-08T15:55:39.000Z</time>
        <extensions>
          <ns3:TrackPointExtension>
            <ns3:hr>180</ns3:hr>
            <ns3:cad>109</ns3:cad>
          </ns3:TrackPointExtension>
        </extensions>
      </trkpt>
      <trkpt lat="40.40387383662164211273193359375" lon="116.6845489852130413055419921875">
        <ele>83.59999847412109375</ele>
        <time>2026-10-08T15:55:40.000Z</time>
        <extensions>
          <ns3:TrackPointExtension>
            <ns3:hr>182</ns3:hr>
            <ns3:cad>109</ns3:cad>
          </ns3:TrackPointExtension>
        </extensions>
      </trkpt>
      <trkpt lat="40.4039223678410053253173828125" lon="116.68454873375594615936279296875">
        <ele>83.59999847412109375</ele>
        <time>2026-10-08T15:55:41.000Z</time>
        <extensions>
          <ns3:TrackPointExtension>
            <ns3:hr>180</ns3:hr>
            <ns3:cad>109</ns3:cad>
          </ns3:TrackPointExtension>
        </extensions>
      </trkpt>
      <trkpt lat="40.4039783589541912078857421875" lon="116.68454848229885101318359375">
        <ele>84.40000152587890625</ele>
        <time>2026-10-08T15:55:42.000Z</time>
        <extensions>
          <ns3:TrackPointExtension>
            <ns3:hr>182</ns3:hr>
            <ns3:cad>109</ns3:cad>
          </ns3:TrackPointExtension>
        </extensions>
      </trkpt>
      <trkpt lat="40.40404063649475574493408203125" lon="116.68454823084175586700439453125">
        <ele>84.40000152587890625</ele>
        <time>2026-10-08T15:55:43.000Z</time>
        <extensions>
          <ns3:TrackPointExtension>
            <ns3:hr>181</ns3:hr>
            <ns3:cad>109</ns3:cad>
          </ns3:TrackPointExtension>
        </extensions>
      </trkpt>
      <trkpt lat="40.40406259708106517791748046875" lon="116.684548147022724151611328125">
        <ele>84.40000152587890625</ele>
        <time>2026-10-08T15:55:44.000Z</time>
        <extensions>
          <ns3:TrackPointExtension>
            <ns3:hr>181</ns3:hr>
            <ns3:cad>102</ns3:cad>
          </ns3:TrackPointExtension>
        </extensions>
      </trkpt>
      <trkpt lat="40.40411909110844135284423828125" lon="116.68454554863274097442626953125">
        <ele>84.40000152587890625</ele>
        <time>2026-10-08T15:55:45.000Z</time>
        <extensions>
          <ns3:TrackPointExtension>
            <ns3:hr>183</ns3:hr>
            <ns3:cad>102</ns3:cad>
          </ns3:TrackPointExtension>
        </extensions>
      </trkpt>
      <trkpt lat="40.40417977608740329742431640625" lon="116.684532053768634796142578125">
        <ele>84.40000152587890625</ele>
        <time>2026-10-08T15:55:46.000Z</time>
        <extensions>
          <ns3:TrackPointExtension>
            <ns3:hr>181</ns3:hr>
            <ns3:cad>102</ns3:cad>
          </ns3:TrackPointExtension>
        </extensions>
      </trkpt>
      <trkpt lat="40.40420609526336193084716796875" lon="116.68452040292322635650634765625">
        <ele>84.40000152587890625</ele>
        <time>2026-10-08T15:55:47.000Z</time>
        <extensions>
          <ns3:TrackPointExtension>
            <ns3:hr>182</ns3:hr>
            <ns3:cad>102</ns3:cad>
          </ns3:TrackPointExtension>
        </extensions>
      </trkpt>
      <trkpt lat="40.40423333644866943359375" lon="116.684506237506866455078125">
        <ele>84.40000152587890625</ele>
        <time>2026-10-08T15:55:48.000Z</time>
        <extensions>
          <ns3:TrackPointExtension>
            <ns3:hr>181</ns3:hr>
            <ns3:cad>102</ns3:cad>
          </ns3:TrackPointExtension>
        </extensions>
      </trkpt>
      <trkpt lat="40.40425672195851802825927734375" lon="116.6844893060624599456787109375">
        <ele>84.40000152587890625</ele>
        <time>2026-10-08T15:55:49.000Z</time>
        <extensions>
          <ns3:TrackPointExtension>
            <ns3:hr>181</ns3:hr>
            <ns3:cad>102</ns3:cad>
          </ns3:TrackPointExtension>
        </extensions>
      </trkpt>
      <trkpt lat="40.40426460094749927520751953125" lon="116.68448369018733501434326171875">
        <ele>84.40000152587890625</ele>
        <time>2026-10-08T15:55:50.000Z</time>
        <extensions>
          <ns3:TrackPointExtension>
            <ns3:hr>182</ns3:hr>
            <ns3:cad>102</ns3:cad>
          </ns3:TrackPointExtension>
        </extensions>
      </trkpt>
      <trkpt lat="40.40424448437988758087158203125" lon="116.68449819087982177734375">
        <ele>84.40000152587890625</ele>
        <time>2026-10-08T15:55:51.000Z</time>
        <extensions>
          <ns3:TrackPointExtension>
            <ns3:hr>181</ns3:hr>
            <ns3:cad>0</ns3:cad>
          </ns3:TrackPointExtension>
        </extensions>
      </trkpt>
      <trkpt lat="40.4042576439678668975830078125" lon="116.6844886355102062225341796875">
        <ele>84.40000152587890625</ele>
        <time>2026-10-08T15:55:52.000Z</time>
        <extensions>
          <ns3:TrackPointExtension>
            <ns3:hr>181</ns3:hr>
            <ns3:cad>0</ns3:cad>
          </ns3:TrackPointExtension>
        </extensions>
      </trkpt>
      <trkpt lat="40.4042713902890682220458984375" lon="116.68447874486446380615234375">
        <ele>84.40000152587890625</ele>
        <time>2026-10-08T15:55:53.000Z</time>
        <extensions>
          <ns3:TrackPointExtension>
            <ns3:hr>181</ns3:hr>
            <ns3:cad>0</ns3:cad>
          </ns3:TrackPointExtension>
        </extensions>
      </trkpt>
      <trkpt lat="40.404285304248332977294921875" lon="116.68446491472423076629638671875">
        <ele>84.40000152587890625</ele>
        <time>2026-10-08T15:55:54.000Z</time>
        <extensions>
          <ns3:TrackPointExtension>
            <ns3:hr>181</ns3:hr>
            <ns3:cad>80</ns3:cad>
          </ns3:TrackPointExtension>
        </extensions>
      </trkpt>
    </trkseg>
  </trk>
</gpx>
